{
"type": "FeatureCollection",
"name": "australia_2",
"crs": { "type": "name", "properties": { "name": "urn:ogc:def:crs:OGC:1.3:CRS84" } },
"features": [
{ "type": "Feature", "properties": { "id": null, "Zone": "жестколистных вечнозеленых лесов и кустарников" }, "geometry": { "type": "MultiPolygon", "coordinates": [ [ [ [ 115.485371445305375, -31.189571383728158 ], [ 115.855480414779976, -31.203279123338326 ], [ 116.417497738796968, -31.354064259050205 ], [ 116.746483489441061, -31.559680353202761 ], [ 117.68688590330089, -32.125296437775468 ], [ 118.367483897638508, -32.957138430854783 ], [ 119.298899367348753, -34.509366143533938 ], [ 118.505717808100798, -34.746819349915093 ], [ 118.024971958489488, -35.0647327613747 ], [ 117.29550744025741, -35.025458672832869 ], [ 116.625109084134948, -35.025096937806829 ], [ 115.564346958479661, -34.386427911111568 ], [ 115.026808709779573, -34.196517022438933 ], [ 115.048616164206763, -33.623425388322055 ], [ 115.545123325667078, -33.487257989232972 ], [ 115.714673700016704, -33.259571628554973 ], [ 115.679378696761347, -32.900368747694166 ], [ 115.801645135563945, -32.205062351207005 ], [ 115.689610630355162, -31.612437025683807 ], [ 115.485371445305375, -31.189571383728158 ] ] ] ] } },
{ "type": "Feature", "properties": { "id": null, "Zone": "саванн и редколесий" }, "geometry": { "type": "MultiPolygon", "coordinates": [ [ [ [ 114.232852004047231, -26.298446140245879 ], [ 115.128970215440901, -26.528939916270168 ], [ 115.855480414779947, -26.84421792730409 ], [ 116.458620957627446, -27.241742375999035 ], [ 116.952099583593579, -27.762636481185517 ], [ 117.418162730339375, -28.502854420134724 ], [ 117.897933616695354, -29.270487838304277 ], [ 118.350289023830982, -29.832505162321269 ], [ 118.939721827068311, -30.216321871406041 ], [ 119.392077234203938, -30.449353444778939 ], [ 119.817017162119228, -30.531599882439963 ], [ 120.502404142627753, -30.545307622050132 ], [ 121.050713727034577, -30.654969538931496 ], [ 121.448238175729514, -30.874293372694225 ], [ 122.577108529282299, -31.721979107797623 ], [ 124.221647983904916, -32.959486586236068 ], [ 124.028946567888511, -33.483847344701701 ], [ 123.659666782730767, -33.890179131812708 ], [ 122.811036411633637, -33.914467054989885 ], [ 122.183064406422801, -34.003402194964202 ], [ 121.299190708502593, -33.821036065406176 ], [ 120.580268182458056, -33.930176690406611 ], [ 119.893695103028222, -33.976065362281801 ], [ 119.298899367348753, -34.509366143533938 ], [ 118.367483897638508, -32.957138430854783 ], [ 117.68688590330089, -32.125296437775468 ], [ 116.746483489441061, -31.559680353202761 ], [ 116.417497738796968, -31.354064259050205 ], [ 115.855480414779976, -31.203279123338326 ], [ 115.485371445305375, -31.189571383728158 ], [ 115.160909051576994, -30.601594333622465 ], [ 114.997043084779477, -30.03072478609414 ], [ 115.040037876446291, -29.461095472940819 ], [ 114.641974318502008, -28.81023080822467 ], [ 114.616497837382099, -28.516398614213081 ], [ 114.173579136208474, -28.118076674107321 ], [ 114.048883905088161, -27.334765313427106 ], [ 113.477497593236919, -26.543134047147902 ], [ 113.338953078262421, -26.116545098578484 ], [ 113.778357782040217, -26.549025160429174 ], [ 113.440962355606558, -25.621278171493167 ], [ 113.936901076311671, -25.91123463308287 ], [ 114.232852004047231, -26.298446140245879 ] ] ] ] } },
{ "type": "Feature", "properties": { "id": null, "Zone": "полупустынь и пустынь" }, "geometry": { "type": "MultiPolygon", "coordinates": [ [ [ [ 118.679274774475047, -20.538657706625663 ], [ 119.200168879661533, -20.634611883896856 ], [ 119.65252428679716, -20.634611883896856 ], [ 120.146002912763294, -20.566073185846001 ], [ 120.927344070543015, -20.278210654032421 ], [ 121.859470364034607, -19.894393944947648 ], [ 122.627103782204159, -19.263837922879805 ], [ 123.202828845831291, -18.838897994964526 ], [ 123.751138430238115, -18.551035463150946 ], [ 124.203493837373742, -18.386542587828899 ], [ 124.669556984119538, -18.318003889778048 ], [ 125.067081432814476, -18.372834848218726 ], [ 125.903253549034886, -18.551035463150946 ], [ 126.82167210291631, -18.74294381769333 ], [ 127.877168052899435, -19.044514089117083 ], [ 129.179403315865642, -19.387207579371346 ], [ 130.618715974933565, -19.688777850795095 ], [ 131.20814877817088, -19.798439767676459 ], [ 134.169020533967711, -20.182256476761232 ], [ 134.662499159933873, -20.305626133252765 ], [ 135.375301619662736, -20.470119008574812 ], [ 135.841364766408532, -20.511242227405326 ], [ 137.061353591713697, -20.387872570913792 ], [ 137.527416738459493, -20.223379695591746 ], [ 138.007187624815458, -20.031471341049357 ], [ 138.40471207351041, -19.853270726117142 ], [ 138.788528782595193, -19.880686205337483 ], [ 139.021560355968091, -20.058886820269699 ], [ 139.048975835188429, -20.250795174812083 ], [ 138.953021657917219, -20.552365446235836 ], [ 138.774821042985025, -20.949889894930781 ], [ 138.541789469612127, -21.484491739727432 ], [ 138.482935730283771, -23.019147346869371 ], [ 139.264363057115816, -25.212185328623924 ], [ 140.159302743612244, -27.200619157168532 ], [ 140.392334316985142, -27.365112032490575 ], [ 140.62536589035804, -27.47477394937194 ], [ 141.05030581827333, -27.557020387032964 ], [ 141.351876089697072, -27.488481688982112 ], [ 141.543784444239463, -27.365112032490575 ], [ 141.79052375722253, -27.200619157168532 ], [ 142.00984759098526, -26.96758758379563 ], [ 142.242879164358158, -26.734556010422732 ], [ 142.434787518900549, -26.528939916270176 ], [ 142.64040361305311, -26.323323822117619 ], [ 142.763773269544629, -26.199954165626082 ], [ 143.147589978629412, -26.199954165626082 ], [ 143.257251895510791, -26.43298573899898 ], [ 142.982444692849128, -31.425792943595148 ], [ 142.681526831883701, -33.218316846033396 ], [ 142.599280394222689, -33.437640679796125 ], [ 142.475910737731141, -33.698087732389368 ], [ 142.174340466307399, -33.972242524592772 ], [ 141.886477934493826, -34.109319920694482 ], [ 141.53007670462938, -34.150443139524988 ], [ 141.091429037103921, -34.150443139524988 ], [ 140.639073629968294, -34.150443139524988 ], [ 139.994809868290275, -34.164150879135164 ], [ 139.844024732578447, -34.198420228160586 ], [ 139.679531857256364, -34.328643754457204 ], [ 139.590431549790281, -34.472575020363998 ], [ 139.549308330959775, -34.849537859643689 ], [ 139.419084804663157, -35.349870355414907 ], [ 139.574147577065276, -36.138362318670659 ], [ 139.082808058834132, -35.732754001611745 ], [ 138.120747918856352, -35.61229623793939 ], [ 138.449461704664941, -35.127261244447865 ], [ 138.207564325106716, -34.384722588845932 ], [ 137.719170363516184, -35.076825046530999 ], [ 136.829405552314711, -35.260534763328607 ], [ 137.352371047108477, -34.7073385556441 ], [ 137.503886346588274, -34.130267836240748 ], [ 137.890116001537706, -33.640478610978377 ], [ 137.810327590079055, -32.900007012668119 ], [ 136.996837192940404, -33.752771498348615 ], [ 136.372069126531642, -34.094766127256236 ], [ 135.989043410384284, -34.890118096660458 ], [ 135.208212518454047, -34.478670342752565 ], [ 135.239218377829161, -33.947953383115021 ], [ 134.613416782774607, -33.222778008763164 ], [ 134.085903761939164, -32.848072198214787 ], [ 134.273902622617015, -32.617233575166992 ], [ 132.990776808809755, -32.011224053680188 ], [ 132.288080682504869, -31.982646986622782 ], [ 131.326330601120844, -31.495803318001041 ], [ 129.535793898639724, -31.590422865527465 ], [ 128.240937534702255, -31.948488864877852 ], [ 127.102867466338296, -32.282266941051063 ], [ 126.148713820501143, -32.215966078420593 ], [ 125.088623488465657, -32.72875131605285 ], [ 124.221647983904916, -32.959486586236068 ], [ 122.577108529282299, -31.721979107797623 ], [ 121.448238175729514, -30.874293372694225 ], [ 121.050713727034577, -30.654969538931496 ], [ 120.502404142627753, -30.545307622050132 ], [ 119.817017162119228, -30.531599882439963 ], [ 119.392077234203938, -30.449353444778939 ], [ 118.939721827068311, -30.216321871406041 ], [ 118.350289023830982, -29.832505162321269 ], [ 117.897933616695354, -29.270487838304277 ], [ 117.418162730339375, -28.502854420134724 ], [ 116.952099583593579, -27.762636481185517 ], [ 116.458620957627446, -27.241742375999035 ], [ 115.855480414779947, -26.84421792730409 ], [ 115.128970215440901, -26.528939916270168 ], [ 114.232852004047231, -26.298446140245879 ], [ 114.216160516416977, -25.786281019801123 ], [ 113.721255324357699, -24.998938897402141 ], [ 113.625343866023968, -24.683971042583167 ], [ 113.393523390762638, -24.384764499613226 ], [ 113.502043898575593, -23.806350192970285 ], [ 113.706992629045146, -23.560215345964089 ], [ 113.843418410295669, -23.059987481378755 ], [ 113.736551548316086, -22.475475355725379 ], [ 114.149756300921894, -21.755881036061041 ], [ 114.225307244932623, -22.517488295178673 ], [ 114.647762078918703, -21.829519952076954 ], [ 115.460167270979241, -21.495173435148537 ], [ 115.947372674627019, -21.068687839443704 ], [ 116.711615431791529, -20.701681817306824 ], [ 117.166316359527713, -20.623598728113805 ], [ 117.441545037914238, -20.746898695562209 ], [ 118.229558953932994, -20.374208265873222 ], [ 118.679274774475047, -20.538657706625663 ] ] ] ] } },
{ "type": "Feature", "properties": { "id": null, "Zone": "жестколистных вечнозеленых лесов и кустарников" }, "geometry": { "type": "MultiPolygon", "coordinates": [ [ [ [ 139.874867146701291, -36.86114864743621 ], [ 140.286099335006412, -36.641824813673487 ], [ 140.62193895545559, -36.422500979910758 ], [ 141.005755664540374, -36.230592625368374 ], [ 141.266202717133609, -36.107222968876833 ], [ 141.540357509337014, -36.100369099071749 ], [ 142.00642065608281, -36.223738755563282 ], [ 142.170913531404864, -36.347108412054823 ], [ 142.321698667116749, -36.59384772503789 ], [ 142.403945104777762, -36.833733168215872 ], [ 142.479337672633704, -37.094180220809115 ], [ 142.554730240489647, -37.292942445156584 ], [ 142.698661506396434, -37.416312101648117 ], [ 142.904277600548994, -37.436873711063377 ], [ 143.226409481387975, -37.477996929893884 ], [ 143.617080060277857, -37.430019841258286 ], [ 143.980335159947373, -37.340919533792182 ], [ 144.288759301176214, -37.196988267885395 ], [ 144.521790874549112, -37.080472481198946 ], [ 144.837068885583022, -37.053057001978601 ], [ 145.07010045895592, -37.190134398080311 ], [ 145.330547511549156, -37.368335013012526 ], [ 145.652679392388166, -37.539681758139658 ], [ 146.098180929718723, -37.711028503266789 ], [ 146.591659555684856, -37.786421071122724 ], [ 146.941206915744203, -37.765859461707471 ], [ 147.222215577752735, -37.628782065605762 ], [ 147.811648380990079, -37.340919533792174 ], [ 148.394227314422324, -37.018787652953172 ], [ 148.812313372532515, -36.785756079580274 ], [ 149.120737513761355, -36.669240292893825 ], [ 149.175568472202031, -36.717217381529423 ], [ 149.175568472202031, -37.14901117924979 ], [ 149.423882277625523, -37.772681166333442 ], [ 148.304622430615836, -37.809061374666925 ], [ 147.38173302631526, -38.219217217767522 ], [ 146.922122837511324, -38.606532077795116 ], [ 146.317921991154776, -39.035756524411411 ], [ 145.489652134380606, -38.593767999019022 ], [ 144.876976353128157, -38.417448012039152 ], [ 145.032212355732952, -37.896187839511022 ], [ 144.485682407814068, -38.085323581699285 ], [ 143.60997358619602, -38.8094654274053 ], [ 142.745426873952965, -38.538267510737555 ], [ 142.178329705981923, -38.380034275059835 ], [ 141.606581659104677, -38.308514092767879 ], [ 140.638578729413268, -38.019332777662555 ], [ 139.992158237874264, -37.402936293285094 ], [ 139.874867146701291, -36.86114864743621 ] ] ] ] } },
{ "type": "Feature", "properties": { "id": null, "Zone": "области высотной поясности" }, "geometry": { "type": "MultiPolygon", "coordinates": [ [ [ [ 149.175568472202031, -36.717217381529423 ], [ 149.120737513761355, -36.669240292893825 ], [ 148.812313372532515, -36.785756079580274 ], [ 148.394227314422324, -37.018787652953172 ], [ 147.811648380990079, -37.340919533792174 ], [ 147.222215577752735, -37.628782065605762 ], [ 146.941206915744203, -37.765859461707471 ], [ 146.591659555684856, -37.786421071122724 ], [ 146.098180929718723, -37.711028503266789 ], [ 145.652679392388166, -37.539681758139658 ], [ 145.330547511549156, -37.368335013012526 ], [ 145.07010045895592, -37.190134398080311 ], [ 145.412793949210339, -37.101034090614213 ], [ 145.755487439464616, -36.936541215292166 ], [ 146.098180929718865, -36.772048339970119 ], [ 147.468954890735915, -36.004414921800574 ], [ 147.784232901769826, -35.771383348427669 ], [ 148.39422731442238, -35.099704107529313 ], [ 148.675235976430884, -34.73644900785979 ], [ 149.052198815710568, -34.277239730919078 ], [ 149.319499738108874, -33.968815589690244 ], [ 149.436015524795323, -33.687806927681748 ], [ 149.422307785185154, -33.358821177037655 ], [ 149.436015524795323, -33.091520254639335 ], [ 149.497700353041097, -32.920173509512203 ], [ 149.634777749142813, -32.831073202046092 ], [ 149.744439666024164, -32.831073202046092 ], [ 150.011740588422498, -32.947588988732541 ], [ 150.162525724134383, -33.208036041325769 ], [ 150.210502812769988, -33.632975969241059 ], [ 150.210502812769988, -33.78376110495293 ], [ 150.121402505303877, -34.140162334817369 ], [ 150.018594458227597, -34.407463257215689 ], [ 149.77185514524453, -34.722741268249621 ], [ 149.442869394600422, -35.264196982851352 ], [ 149.326353607913973, -35.558913384470017 ], [ 149.175568472202031, -36.717217381529423 ] ] ] ] } },
{ "type": "Feature", "properties": { "id": null, "Zone": "переменно-влажных (в том числе муссонных) лесов" }, "geometry": { "type": "MultiPolygon", "coordinates": [ [ [ [ 150.162525724134383, -33.208036041325769 ], [ 150.443534386142915, -32.289617487444367 ], [ 150.745104657566657, -31.713892423817207 ], [ 152.568234025719335, -26.628321028443956 ], [ 152.732726901041389, -26.395289455071058 ], [ 152.910927515973611, -26.148550142087988 ], [ 153.136162144176808, -26.071173191026215 ], [ 153.161948683890444, -26.641319268502457 ], [ 153.092908970348503, -27.260299574494514 ], [ 153.569469028944184, -28.110066827102081 ], [ 153.512108189100218, -28.995077406532712 ], [ 153.339095493786999, -29.458201592732479 ], [ 153.069241164358857, -30.350240166954794 ], [ 153.089601678681845, -30.923641859665423 ], [ 152.891577590139377, -31.640445651985999 ], [ 152.450002476205327, -32.550002536755265 ], [ 151.709117466436737, -33.041342054986394 ], [ 151.343971795862387, -33.816023451473868 ], [ 151.010555454715188, -34.310360202777929 ], [ 150.714139439089024, -35.173459974916796 ], [ 150.32821984273329, -35.671879164371916 ], [ 150.075212030232308, -36.420205580390537 ], [ 149.946124302367195, -37.109052422841209 ], [ 149.997283970336127, -37.42526051203518 ], [ 149.423882277625523, -37.772681166333442 ], [ 149.175568472202031, -37.14901117924979 ], [ 149.175568472202031, -36.717217381529423 ], [ 149.326353607913973, -35.558913384470017 ], [ 149.442869394600422, -35.264196982851352 ], [ 149.77185514524453, -34.722741268249621 ], [ 150.018594458227597, -34.407463257215689 ], [ 150.121402505303877, -34.140162334817369 ], [ 150.210502812769988, -33.78376110495293 ], [ 150.210502812769988, -33.632975969241059 ], [ 150.162525724134383, -33.208036041325769 ] ] ] ] } },
{ "type": "Feature", "properties": { "id": null, "Zone": "влажных экваториальных лесов" }, "geometry": { "type": "MultiPolygon", "coordinates": [ [ [ [ 150.899554478152254, -23.462236830338696 ], [ 150.388703427702211, -23.215093865511523 ], [ 149.950055760176753, -22.913523594087771 ], [ 149.593654530312307, -22.611953322664021 ], [ 149.250961040058058, -22.282967572019928 ], [ 148.688943716041052, -21.720950248002936 ], [ 147.743109682939291, -20.898485871392708 ], [ 146.961768525159584, -20.336468547375716 ], [ 146.098180929718836, -19.692204785697701 ], [ 145.63211778297304, -19.253557118172246 ], [ 145.399086209600142, -18.705247533765426 ], [ 143.603372320667802, -15.03157331823973 ], [ 143.20584787197285, -14.29135537929052 ], [ 142.931693079769417, -12.97541237671415 ], [ 142.602707329125337, -11.796546770239488 ], [ 142.424506714193114, -11.138575268951303 ], [ 142.51526004452495, -10.668185723516686 ], [ 142.797310011973991, -11.157354831591562 ], [ 142.866763136974271, -11.784706719614903 ], [ 143.115946893485727, -11.905629571177885 ], [ 143.158631626558758, -12.325655612846232 ], [ 143.522123651299808, -12.834358412327433 ], [ 143.597157830987612, -13.400422051652612 ], [ 143.561811151299992, -13.763655694232192 ], [ 143.922099237238911, -14.548310642151996 ], [ 144.563713820574833, -14.171176039285903 ], [ 144.894908075133458, -14.594457696188641 ], [ 145.374723748963504, -14.98497649501833 ], [ 145.271991001567244, -15.428205254785732 ], [ 145.485259637635806, -16.28567229580478 ], [ 145.637033319277009, -16.784918308176572 ], [ 145.888904250267615, -16.906926364817686 ], [ 146.16030887266453, -17.761654554925272 ], [ 146.063673944278719, -18.28007252367734 ], [ 146.387478469019641, -18.958274021075887 ], [ 147.471081577747896, -19.480722751546729 ], [ 148.177601760042421, -19.955939222902799 ], [ 148.848413527623222, -20.391209812097244 ], [ 148.717465448195583, -20.633468926681552 ], [ 149.289420200802056, -21.260510756111135 ], [ 149.678337030230693, -22.342511895438385 ], [ 150.077382440388533, -22.122783705333337 ], [ 150.482939081015161, -22.556142266532994 ], [ 150.727265252891129, -22.402404880464665 ], [ 150.899554478152254, -23.462236830338696 ] ] ] ] } },
{ "type": "Feature", "properties": { "id": null, "Zone": "саванн и редколесий" }, "geometry": { "type": "MultiPolygon", "coordinates": [ [ [ [ 139.844024732578447, -34.198420228160586 ], [ 139.994809868290275, -34.164150879135164 ], [ 140.639073629968294, -34.150443139524988 ], [ 141.091429037103921, -34.150443139524988 ], [ 141.53007670462938, -34.150443139524988 ], [ 141.886477934493826, -34.109319920694482 ], [ 142.174340466307399, -33.972242524592772 ], [ 142.475910737731141, -33.698087732389368 ], [ 142.599280394222689, -33.437640679796125 ], [ 142.681526831883701, -33.218316846033396 ], [ 142.982444692849128, -31.425792943595148 ], [ 143.257251895510791, -26.43298573899898 ], [ 143.147589978629412, -26.199954165626082 ], [ 142.763773269544629, -26.199954165626082 ], [ 142.64040361305311, -26.323323822117619 ], [ 142.434787518900549, -26.528939916270176 ], [ 142.242879164358158, -26.734556010422732 ], [ 142.00984759098526, -26.96758758379563 ], [ 141.79052375722253, -27.200619157168532 ], [ 141.543784444239463, -27.365112032490575 ], [ 141.351876089697072, -27.488481688982112 ], [ 141.05030581827333, -27.557020387032964 ], [ 140.62536589035804, -27.47477394937194 ], [ 140.392334316985142, -27.365112032490575 ], [ 140.159302743612244, -27.200619157168532 ], [ 139.264363057115816, -25.212185328623924 ], [ 138.482935730283771, -23.019147346869371 ], [ 138.541789469612127, -21.484491739727432 ], [ 138.774821042985025, -20.949889894930781 ], [ 138.953021657917219, -20.552365446235836 ], [ 139.048975835188429, -20.250795174812083 ], [ 139.021560355968091, -20.058886820269699 ], [ 138.788528782595193, -19.880686205337483 ], [ 138.40471207351041, -19.853270726117142 ], [ 138.007187624815458, -20.031471341049357 ], [ 137.527416738459493, -20.223379695591746 ], [ 137.061353591713697, -20.387872570913792 ], [ 135.841364766408532, -20.511242227405326 ], [ 135.375301619662736, -20.470119008574812 ], [ 134.662499159933873, -20.305626133252765 ], [ 134.169020533967711, -20.182256476761232 ], [ 131.20814877817088, -19.798439767676459 ], [ 130.618715974933565, -19.688777850795095 ], [ 129.179403315865642, -19.387207579371346 ], [ 127.877168052899435, -19.044514089117083 ], [ 126.82167210291631, -18.74294381769333 ], [ 125.903253549034886, -18.551035463150946 ], [ 125.067081432814476, -18.372834848218726 ], [ 124.669556984119538, -18.318003889778048 ], [ 124.203493837373742, -18.386542587828899 ], [ 123.751138430238115, -18.551035463150946 ], [ 123.202828845831291, -18.838897994964526 ], [ 122.627103782204159, -19.263837922879805 ], [ 121.859470364034607, -19.894393944947648 ], [ 120.927344070543015, -20.278210654032421 ], [ 120.146002912763294, -20.566073185846001 ], [ 119.65252428679716, -20.634611883896856 ], [ 119.200168879661533, -20.634611883896856 ], [ 118.679274774475047, -20.538657706625663 ], [ 118.229558953932994, -20.374208265873222 ], [ 118.836085239742744, -20.263310642174858 ], [ 118.987807244951682, -20.044202569257315 ], [ 119.252493931150667, -19.952941989829867 ], [ 119.805225050944514, -19.976506442954964 ], [ 120.856220330896676, -19.683707777589206 ], [ 121.39985639860717, -19.239755547769725 ], [ 121.655137974129019, -18.705317885007169 ], [ 122.241665480641785, -18.197648614171804 ], [ 122.286623976735711, -17.798603204013958 ], [ 122.312772251475394, -17.254967136303449 ], [ 123.012574497571933, -16.405199883695886 ], [ 123.433789097183038, -17.268558037996215 ], [ 123.859344517106592, -17.069035332917288 ], [ 123.503242222183289, -16.596506036040402 ], [ 123.817073195491844, -16.111316013252001 ], [ 124.258286574399847, -16.327943617419535 ], [ 124.379726190285751, -15.56705982835399 ], [ 124.926152785340037, -15.075100192935359 ], [ 125.167275018413875, -14.680395603090028 ], [ 125.670086704613809, -14.510070082256014 ], [ 125.685796340030549, -14.23065561285385 ], [ 126.125149367376082, -14.347340996968903 ], [ 126.142822707219864, -14.095986830301227 ], [ 126.582589146023736, -13.952791436420448 ], [ 127.065867140817318, -13.817967624570954 ], [ 127.804633416861961, -14.27690601975508 ], [ 128.359689976108939, -14.869169610252243 ], [ 128.985543247595842, -14.875990899314765 ], [ 129.621473423379655, -14.969783623924522 ], [ 129.409600050982931, -14.42066985439107 ], [ 129.888640578328591, -13.618703301653492 ], [ 130.339465773642928, -13.357375583553484 ], [ 130.183506300986039, -13.107520033422276 ], [ 130.617795037966971, -12.536392103732489 ], [ 131.223494500859999, -12.183648776908166 ], [ 131.735091180549546, -12.302452894747184 ], [ 132.575298293183096, -12.114040622611007 ], [ 132.557211541880974, -11.603012383676678 ], [ 131.824698114143644, -11.273781833545151 ], [ 132.357223748911395, -11.128519382372696 ], [ 133.019560581596352, -11.376411228076812 ], [ 133.550845981989085, -11.786515394745116 ], [ 134.393068475482039, -12.042365411022182 ], [ 134.678632440326965, -11.941182956594693 ], [ 135.298491245667947, -12.248606052299046 ], [ 135.882693312727611, -11.962266940969776 ], [ 136.258380975489501, -12.049341729381588 ], [ 136.492475213771684, -11.857208754120398 ], [ 136.951620314684988, -12.351958916882793 ], [ 136.685124953355796, -12.887223402562022 ], [ 136.305406528875096, -13.291229750219884 ], [ 135.961758254134168, -13.324509372615852 ], [ 136.077616815332533, -13.724278252825783 ], [ 135.783836297753226, -14.2239893530882 ], [ 135.4286641786112, -14.715432224183912 ], [ 135.500184360903177, -14.997740573794424 ], [ 136.29517459528131, -15.55026498785913 ], [ 137.06536014215942, -15.870762220933329 ], [ 137.580470819244795, -16.215082289294081 ], [ 138.303217401278971, -16.807604261952704 ], [ 138.585164015863427, -16.806622409739155 ], [ 139.108542922115475, -17.062679131745391 ], [ 139.260574985918197, -17.371600843986208 ], [ 140.215245396078274, -17.710804945550066 ], [ 140.875463495039241, -17.369068698803908 ], [ 141.071110467696258, -16.832047214426758 ], [ 141.274095493738741, -16.38887013109165 ], [ 141.398222284103838, -15.840531508042588 ], [ 141.702183058844639, -15.044921156476901 ], [ 141.563380161708665, -14.561333103089552 ], [ 141.635520461188094, -14.270394789286307 ], [ 141.519868605718898, -13.698078301653808 ], [ 141.650920038011066, -12.944687595270585 ], [ 141.842691278246207, -12.741547539931231 ], [ 141.686990187750837, -12.407614434461145 ], [ 141.928629185147599, -11.877465915578817 ], [ 142.118488397387978, -11.328042087451612 ], [ 142.143706496346397, -11.042736504768186 ], [ 142.51526004452495, -10.668185723516686 ], [ 142.424506714193114, -11.138575268951303 ], [ 142.602707329125337, -11.796546770239488 ], [ 142.931693079769417, -12.97541237671415 ], [ 143.20584787197285, -14.29135537929052 ], [ 143.603372320667802, -15.03157331823973 ], [ 145.399086209600142, -18.705247533765426 ], [ 145.63211778297304, -19.253557118172246 ], [ 146.098180929718836, -19.692204785697701 ], [ 146.961768525159584, -20.336468547375716 ], [ 147.743109682939291, -20.898485871392708 ], [ 148.688943716041052, -21.720950248002936 ], [ 149.250961040058058, -22.282967572019928 ], [ 149.593654530312307, -22.611953322664021 ], [ 149.950055760176753, -22.913523594087771 ], [ 150.388703427702211, -23.215093865511523 ], [ 150.899554478152254, -23.462236830338696 ], [ 151.609175246384268, -24.076256198830741 ], [ 152.07353966695905, -24.457886651306225 ], [ 152.855197381805908, -25.267501316023001 ], [ 153.136162144176808, -26.071173191026215 ], [ 152.910927515973611, -26.148550142087988 ], [ 152.732726901041389, -26.395289455071058 ], [ 152.568234025719335, -26.628321028443956 ], [ 150.745104657566657, -31.713892423817207 ], [ 150.443534386142915, -32.289617487444367 ], [ 150.162525724134383, -33.208036041325769 ], [ 150.011740588422498, -32.947588988732541 ], [ 149.744439666024164, -32.831073202046092 ], [ 149.634777749142813, -32.831073202046092 ], [ 149.497700353041097, -32.920173509512203 ], [ 149.436015524795323, -33.091520254639335 ], [ 149.422307785185154, -33.358821177037655 ], [ 149.436015524795323, -33.687806927681748 ], [ 149.319499738108874, -33.968815589690244 ], [ 149.052198815710568, -34.277239730919078 ], [ 148.675235976430884, -34.73644900785979 ], [ 148.39422731442238, -35.099704107529313 ], [ 147.784232901769826, -35.771383348427669 ], [ 147.468954890735915, -36.004414921800574 ], [ 146.098180929718865, -36.772048339970119 ], [ 145.755487439464616, -36.936541215292166 ], [ 145.412793949210339, -37.101034090614213 ], [ 145.07010045895592, -37.190134398080311 ], [ 144.837068885583022, -37.053057001978601 ], [ 144.521790874549112, -37.080472481198946 ], [ 144.288759301176214, -37.196988267885395 ], [ 143.980335159947373, -37.340919533792182 ], [ 143.617080060277857, -37.430019841258286 ], [ 143.226409481387975, -37.477996929893884 ], [ 142.904277600548994, -37.436873711063377 ], [ 142.698661506396434, -37.416312101648117 ], [ 142.554730240489647, -37.292942445156584 ], [ 142.479337672633704, -37.094180220809115 ], [ 142.403945104777762, -36.833733168215872 ], [ 142.321698667116749, -36.59384772503789 ], [ 142.170913531404864, -36.347108412054823 ], [ 142.00642065608281, -36.223738755563282 ], [ 141.540357509337014, -36.100369099071749 ], [ 141.266202717133609, -36.107222968876833 ], [ 141.005755664540374, -36.230592625368374 ], [ 140.62193895545559, -36.422500979910758 ], [ 140.286099335006412, -36.641824813673487 ], [ 139.874867146701291, -36.86114864743621 ], [ 139.874867146701291, -36.86114864743621 ], [ 139.8065881695141, -36.643602797188308 ], [ 139.574147577065276, -36.138362318670659 ], [ 139.419084804663157, -35.349870355414907 ], [ 139.549308330959775, -34.849537859643689 ], [ 139.590431549790281, -34.472575020363998 ], [ 139.679531857256364, -34.328643754457204 ], [ 139.844024732578447, -34.198420228160586 ] ] ] ] } },
{ "type": "Feature", "properties": { "id": null, "Zone": "жестколистных вечнозеленых лесов и кустарников" }, "geometry": { "type": "MultiPolygon", "coordinates": [ [ [ [ 144.718071323830657, -41.162551771815757 ], [ 144.743754510679707, -40.70397511165767 ], [ 145.397978143494811, -40.79254851660594 ], [ 146.364120721623692, -41.137695407883363 ], [ 146.908583612250879, -41.000546156580732 ], [ 147.689259474884182, -40.808258152022674 ], [ 148.289067824495987, -40.875437514002108 ], [ 148.35986453673587, -42.062445163746439 ], [ 147.303605281688021, -41.77108962905421 ], [ 144.718071323830657, -41.162551771815757 ] ] ] ] } },
{ "type": "Feature", "properties": { "id": null, "Zone": "смешанных и широколиственных лесов" }, "geometry": { "type": "MultiPolygon", "coordinates": [ [ [ [ 144.718071323830657, -41.162551771815757 ], [ 147.303605281688021, -41.77108962905421 ], [ 148.35986453673587, -42.062445163746439 ], [ 148.017301467073025, -42.407023614268653 ], [ 147.914051955353841, -43.211522312188535 ], [ 147.564564243763925, -42.937688897473905 ], [ 146.870343052354883, -43.634597263362103 ], [ 146.663327264593647, -43.580853773778557 ], [ 146.048377720320332, -43.549744561538844 ], [ 145.431929559510593, -42.693776137056254 ], [ 145.29509036680173, -42.033609714527564 ], [ 144.718071323830657, -41.162551771815757 ] ] ] ] } },
{ "type": "Feature", "properties": { "id": null, "Zone": "смешанных и широколиственных лесов" }, "geometry": { "type": "MultiPolygon", "coordinates": [ [ [ [ 173.247234328502088, -41.331998793300812 ], [ 173.95840538970279, -40.926700534835646 ], [ 174.247586704808157, -41.349155368821712 ], [ 174.24851688058942, -41.770008233406728 ], [ 173.876446568087943, -42.233184096038791 ], [ 173.222739699595706, -42.970038344088614 ], [ 172.711246372770745, -43.372287693048555 ], [ 173.080112746470149, -43.853343601253606 ], [ 172.308583612352493, -43.86569426857136 ], [ 171.452925246463622, -44.242518812843699 ], [ 171.185137974327176, -44.897104180684863 ], [ 170.616697219116531, -45.908928724959736 ], [ 169.831422154009289, -46.355774834987571 ], [ 169.332331170934282, -46.641235446967876 ], [ 168.411353794628553, -46.619944756863632 ], [ 167.763744745146823, -46.290197442409188 ], [ 166.676886021184174, -46.219917494492236 ], [ 166.509144321964669, -45.852704766626189 ], [ 167.046424188503295, -45.110941257508635 ], [ 168.303763462596862, -44.123973077166141 ], [ 168.949408807651565, -43.935819187191434 ], [ 169.667814569373149, -43.555325616226376 ], [ 170.524919875366152, -43.031688327812816 ], [ 171.125089960004004, -42.512753594737823 ], [ 171.569713983443251, -41.767424411792135 ], [ 171.948708937871857, -41.514416599291124 ], [ 172.097227004278693, -40.956104424809716 ], [ 172.798579543344033, -40.493962090823501 ], [ 173.247234328502088, -41.331998793300812 ] ] ] ] } },
{ "type": "Feature", "properties": { "id": null, "Zone": "области высотной поясности" }, "geometry": { "type": "MultiPolygon", "coordinates": [ [ [ [ 177.924982103357365, -38.054578727246721 ], [ 178.00722854101835, -38.111123153138692 ], [ 178.00722854101835, -38.193369590799712 ], [ 177.863297275111563, -38.450389708490412 ], [ 177.637119571543735, -38.697129021473479 ], [ 177.215606578531009, -38.892464310918406 ], [ 176.763251171395382, -39.149484428609099 ], [ 176.578196686658089, -39.262573280393006 ], [ 176.434265420751274, -39.54015500749896 ], [ 176.393142201920767, -39.786894320482027 ], [ 176.228649326598742, -40.085037657003234 ], [ 176.033314037153787, -40.331776969986301 ], [ 175.714609091217341, -40.619639501799881 ], [ 175.580958630018188, -40.732728353583788 ], [ 175.395904145280866, -40.701885939460901 ], [ 175.395904145280866, -40.599077892384628 ], [ 175.467869778234274, -40.290653751155787 ], [ 175.50899299706478, -39.920544781681187 ], [ 175.570677825310554, -39.509312593376073 ], [ 175.457588973526697, -39.149484428609085 ], [ 175.339359719388966, -38.877043103856948 ], [ 175.395904145280923, -38.599461376750995 ], [ 175.570677825310582, -38.434968501428948 ], [ 175.966488806554281, -38.311598844937414 ], [ 176.362299787797951, -38.301318040229788 ], [ 177.040832898501378, -38.260194821399281 ], [ 177.524030719759878, -38.162527176676811 ], [ 177.924982103357365, -38.054578727246721 ] ] ] ] } },
{ "type": "Feature", "properties": { "id": null, "Zone": "переменно-влажных (в том числе муссонных) лесов" }, "geometry": { "type": "MultiPolygon", "coordinates": [ [ [ [ 175.958490025127503, -37.55538176854612 ], [ 176.763195428776555, -37.881253350578675 ], [ 177.438813104560495, -37.961248467766495 ], [ 178.010354445708657, -37.579824721020174 ], [ 178.517093540762744, -37.695373223624799 ], [ 178.274731073313831, -38.582812595373142 ], [ 177.970460239979275, -39.166342868812976 ], [ 177.206992629299179, -39.145775648760818 ], [ 176.939980503647064, -39.449736423501612 ], [ 177.032946405340113, -39.879942722331464 ], [ 176.8858236026052, -40.065977878582203 ], [ 176.508017206119263, -40.604808038089573 ], [ 176.012440220440226, -41.289624118821472 ], [ 175.239567499082966, -41.688307793953278 ], [ 175.067898391009351, -41.425894870775132 ], [ 174.650972935278475, -41.281820977545401 ], [ 175.227630243223558, -40.459235528323362 ], [ 174.900156691789903, -39.908933200847201 ], [ 173.824046665743936, -39.508854262043513 ], [ 173.852261997775315, -39.146602471677483 ], [ 174.57480187408035, -38.797683200842755 ], [ 174.743473749080977, -38.027807712558428 ], [ 174.697016636450599, -37.381128838857919 ], [ 174.292028436579187, -36.71109221776149 ], [ 174.31900353423552, -36.534823907213912 ], [ 173.840996535535709, -36.121980889634131 ], [ 173.054171177459608, -35.237125339500388 ], [ 172.636005487353771, -34.529106540669432 ], [ 173.007042271209457, -34.450661716450369 ], [ 173.551298456107475, -35.006183363588008 ], [ 174.329390497126212, -35.265495700828623 ], [ 174.612008905330441, -36.156397393540523 ], [ 175.336615838927116, -37.20909799575827 ], [ 175.357596470437613, -36.52619394302117 ], [ 175.808886753642525, -36.798942152657673 ], [ 175.958490025127503, -37.55538176854612 ] ], [ [ 175.966488806554281, -38.311598844937414 ], [ 175.570677825310582, -38.434968501428948 ], [ 175.395904145280923, -38.599461376750995 ], [ 175.339359719388966, -38.877043103856948 ], [ 175.457588973526697, -39.149484428609085 ], [ 175.570677825310554, -39.509312593376073 ], [ 175.50899299706478, -39.920544781681187 ], [ 175.467869778234274, -40.290653751155787 ], [ 175.395904145280866, -40.599077892384628 ], [ 175.395904145280866, -40.701885939460901 ], [ 175.580958630018188, -40.732728353583788 ], [ 175.714609091217341, -40.619639501799881 ], [ 176.033314037153787, -40.331776969986301 ], [ 176.228649326598742, -40.085037657003234 ], [ 176.393142201920767, -39.786894320482027 ], [ 176.434265420751274, -39.54015500749896 ], [ 176.578196686658089, -39.262573280393006 ], [ 176.763251171395382, -39.149484428609099 ], [ 177.215606578531009, -38.892464310918406 ], [ 177.637119571543735, -38.697129021473479 ], [ 177.863297275111563, -38.450389708490412 ], [ 178.00722854101835, -38.193369590799712 ], [ 178.00722854101835, -38.111123153138692 ], [ 177.924982103357365, -38.054578727246721 ], [ 177.524030719759878, -38.162527176676811 ], [ 177.040832898501378, -38.260194821399281 ], [ 176.362299787797951, -38.301318040229788 ], [ 175.966488806554281, -38.311598844937414 ] ] ] ] } },
{ "type": "Feature", "properties": { "id": null, "Zone": "влажных экваториальных лесов" }, "geometry": { "type": "MultiPolygon", "coordinates": [ [ [ [ 164.459967075862721, -20.120011895429499 ], [ 165.02003624904205, -20.45999114347773 ], [ 165.46000939357512, -20.80002206795826 ], [ 165.779989862326374, -21.080004978115628 ], [ 166.599991489933842, -21.700018812753527 ], [ 167.120011428086912, -22.159990736583492 ], [ 166.740034621444806, -22.39997608814695 ], [ 166.18973229396866, -22.129708347260454 ], [ 165.474375441752215, -21.679606621998232 ], [ 164.829815301775682, -21.149819838141951 ], [ 164.167995233413649, -20.444746595951628 ], [ 164.029605747736014, -20.105645847252354 ], [ 164.459967075862721, -20.120011895429499 ] ] ] ] } },
{ "type": "Feature", "properties": { "id": null, "Zone": "влажных экваториальных лесов" }, "geometry": { "type": "MultiPolygon", "coordinates": [ [ [ [ 167.107712437201485, -14.933920179913954 ], [ 167.270028111030229, -15.740020847234888 ], [ 167.001207310247935, -15.614602146062516 ], [ 166.79315799384085, -15.668810723536687 ], [ 166.649859247095492, -15.392703545801211 ], [ 166.6291369977464, -14.626497084209605 ], [ 167.107712437201485, -14.933920179913954 ] ] ] ] } },
{ "type": "Feature", "properties": { "id": null, "Zone": "влажных экваториальных лесов" }, "geometry": { "type": "MultiPolygon", "coordinates": [ [ [ [ 167.2168013857696, -15.89184620530842 ], [ 167.84487674384502, -16.46633310309717 ], [ 167.515181105822876, -16.597849623279991 ], [ 167.180007765977791, -16.159995212470946 ], [ 167.2168013857696, -15.89184620530842 ] ] ] ] } },
{ "type": "Feature", "properties": { "id": null, "Zone": "влажных экваториальных лесов" }, "geometry": { "type": "MultiPolygon", "coordinates": [ [ [ [ 150.662049595338829, -2.741486097833935 ], [ 150.939965448204475, -2.500002129734007 ], [ 151.479984165654571, -2.779985039891379 ], [ 151.820015090135087, -2.999971612157886 ], [ 152.239989455371131, -3.24000864015364 ], [ 152.640016717742526, -3.659983005389691 ], [ 153.019993524384688, -3.980015150573265 ], [ 153.14003787659874, -4.499983412294092 ], [ 152.827292108368283, -4.766427097190991 ], [ 152.63867313050298, -4.176127211120921 ], [ 152.406025832324929, -3.789742526874583 ], [ 151.953236932583536, -3.462062269711816 ], [ 151.384279413050024, -3.035421644710112 ], [ 150.662049595338829, -2.741486097833935 ] ] ] ] } },
{ "type": "Feature", "properties": { "id": null, "Zone": "влажных экваториальных лесов" }, "geometry": { "type": "MultiPolygon", "coordinates": [ [ [ [ 148.401825799756864, -5.437755629094717 ], [ 149.298411900020824, -5.58374155031926 ], [ 149.845561965127217, -5.505503431829368 ], [ 149.996250441690279, -5.026101169457654 ], [ 150.139755894164864, -5.001348158389852 ], [ 150.236907586873542, -5.532220147324267 ], [ 150.80746707580812, -5.455842380396874 ], [ 151.089672072554038, -5.113692722192383 ], [ 151.647880894170896, -4.757073662946162 ], [ 151.537861769821461, -4.167807305521933 ], [ 152.136791620084296, -4.14879037843852 ], [ 152.338743117480931, -4.312966403829805 ], [ 152.318692661751697, -4.867661228050771 ], [ 151.982795851854519, -5.478063246282382 ], [ 151.459106887008659, -5.560280450058754 ], [ 151.301390415653884, -5.840728448106752 ], [ 150.754447056276661, -6.083762709175431 ], [ 150.241196730753813, -6.317753594593028 ], [ 149.709963006793316, -6.316513360218025 ], [ 148.890064732050462, -6.026040134305404 ], [ 148.318936802360668, -5.747142429226166 ], [ 148.401825799756864, -5.437755629094717 ] ] ] ] } },
{ "type": "Feature", "properties": { "id": null, "Zone": "влажных экваториальных лесов" }, "geometry": { "type": "MultiPolygon", "coordinates": [ [ [ [ 154.652503696917279, -5.04243092206189 ], [ 154.759990676084385, -5.339983819198495 ], [ 155.062917922179338, -5.56679168052753 ], [ 155.547746209941693, -6.200654799019645 ], [ 156.019965448224809, -6.540013929880381 ], [ 155.880025669578401, -6.819996840037753 ], [ 155.599991082988765, -6.919990736522522 ], [ 155.166994256815144, -6.535931491729322 ], [ 154.729191522438384, -5.900828138862195 ], [ 154.514114211239644, -5.139117526879986 ], [ 154.652503696917279, -5.04243092206189 ] ] ] ] } },
{ "type": "Feature", "properties": { "id": null, "Zone": "влажных экваториальных лесов" }, "geometry": { "type": "MultiPolygon", "coordinates": [ [ [ [ 162.119024693040899, -10.482719008021149 ], [ 162.398645868172196, -10.826367282762106 ], [ 161.700032180018354, -10.820011081590211 ], [ 161.319796991214758, -10.204751478723168 ], [ 161.917383254238018, -10.446700534713713 ], [ 162.119024693040899, -10.482719008021149 ] ] ] ] } },
{ "type": "Feature", "properties": { "id": null, "Zone": "влажных экваториальных лесов" }, "geometry": { "type": "MultiPolygon", "coordinates": [ [ [ [ 160.920028111004854, -8.32000864017396 ], [ 161.280006138349989, -9.120011488484451 ], [ 161.679981724289121, -9.599982191611367 ], [ 161.529396600590587, -9.784312025596485 ], [ 160.788253208660535, -8.917543226764892 ], [ 160.579997186524338, -8.32000864017396 ], [ 160.920028111004854, -8.32000864017396 ] ] ] ] } },
{ "type": "Feature", "properties": { "id": null, "Zone": "влажных экваториальных лесов" }, "geometry": { "type": "MultiPolygon", "coordinates": [ [ [ [ 159.70294477766663, -9.242949720906815 ], [ 160.362956170898428, -9.400304457235571 ], [ 160.688517694337236, -9.610162448772869 ], [ 160.852228631837875, -9.872937106977048 ], [ 160.4625883323572, -9.895209649294841 ], [ 159.849447463214119, -9.794027194867354 ], [ 159.640002883135139, -9.639979750205278 ], [ 159.70294477766663, -9.242949720906815 ] ] ] ] } },
{ "type": "Feature", "properties": { "id": null, "Zone": "влажных экваториальных лесов" }, "geometry": { "type": "MultiPolygon", "coordinates": [ [ [ [ 158.359977655265425, -7.320017998893917 ], [ 158.8200012555277, -7.560003350457379 ], [ 159.640002883135139, -8.020026950719632 ], [ 159.875027297198585, -8.337320244991737 ], [ 159.917401971677918, -8.538289890174831 ], [ 159.133677199539363, -8.114181410355428 ], [ 158.586113722974687, -7.754823500197737 ], [ 158.211149530264834, -7.421872246941199 ], [ 158.359977655265425, -7.320017998893917 ] ] ] ] } },
{ "type": "Feature", "properties": { "id": null, "Zone": "влажных экваториальных лесов" }, "geometry": { "type": "MultiPolygon", "coordinates": [ [ [ [ 156.542827590153991, -6.599338474151452 ], [ 157.140000441718882, -7.021638278840641 ], [ 157.538425734689213, -7.347819919466943 ], [ 157.339419793933246, -7.404767347852592 ], [ 156.902030471014825, -7.176874281445428 ], [ 156.491357863591304, -6.765943291860452 ], [ 156.542827590153991, -6.599338474151452 ] ] ] ] } },
{ "type": "Feature", "properties": { "id": null, "Zone": "области высотной поясности" }, "geometry": { "type": "MultiPolygon", "coordinates": [ [ [ [ 141.012691774438508, -5.014607352353443 ], [ 141.006552755379829, -3.827046128737353 ], [ 141.685145508969072, -4.148484801490126 ], [ 142.260870572596247, -4.282135262689287 ], [ 142.75434919856238, -4.405504919180821 ], [ 143.453443918681074, -4.611121013333378 ], [ 144.060011396431094, -4.703648255702028 ], [ 144.440401170613342, -4.898983545146956 ], [ 144.779667725965055, -5.258811709913931 ], [ 145.005845429532854, -5.484989413481743 ], [ 145.262865547223555, -5.700886312341927 ], [ 145.887589835345779, -6.174346987013278 ], [ 146.270384408571118, -6.636439540736058 ], [ 146.404034869770271, -6.944863681964893 ], [ 146.278303498761801, -7.094414646025246 ], [ 145.889994634388813, -7.088794947871683 ], [ 145.345111984884568, -6.806072818411918 ], [ 144.882475773041335, -6.487367872475456 ], [ 144.009643517636476, -6.212157986698704 ], [ 143.152594191433536, -5.997895655147971 ], [ 142.308148531792426, -5.78363332359724 ], [ 141.892227535252772, -5.581974658608315 ], [ 141.012691774438508, -5.014607352353443 ] ] ] ] } },
{ "type": "Feature", "properties": { "id": null, "Zone": "влажных экваториальных лесов" }, "geometry": { "type": "MultiPolygon", "coordinates": [ [ [ [ 141.006552755379829, -3.827046128737357 ], [ 141.000210402591847, -2.60015105551566 ], [ 142.735246616791471, -3.28915292726321 ], [ 144.583970982033236, -3.861417738463416 ], [ 145.27317955950997, -4.373737888205049 ], [ 145.829786411725706, -4.876497897972683 ], [ 145.981921828393013, -5.465609226100043 ], [ 147.648073358347574, -6.083659356310847 ], [ 147.891107619416232, -6.614014580922343 ], [ 146.970905389594861, -6.721656589386313 ], [ 147.191873814074938, -7.388024183790023 ], [ 148.084635858349316, -8.044108168167647 ], [ 148.734105259393573, -9.104663588093764 ], [ 149.306835158484432, -9.071435642130091 ], [ 149.266630894161324, -9.514406019736029 ], [ 150.038728469034254, -9.684318129111709 ], [ 149.738798456012205, -9.872937106977048 ], [ 150.801627638959133, -10.293686618697478 ], [ 150.690574985963906, -10.582712904505925 ], [ 150.028393182575826, -10.652476088099952 ], [ 149.782310012001972, -10.393267103723923 ], [ 149.434302057343444, -10.227010584875078 ], [ 145.889994634388813, -7.088794947871683 ], [ 146.278303498761801, -7.094414646025246 ], [ 146.404034869770271, -6.944863681964893 ], [ 146.270384408571118, -6.636439540736058 ], [ 145.887589835345779, -6.174346987013278 ], [ 145.262865547223555, -5.700886312341927 ], [ 145.005845429532854, -5.484989413481743 ], [ 144.779667725965055, -5.258811709913931 ], [ 144.440401170613342, -4.898983545146956 ], [ 144.060011396431094, -4.703648255702028 ], [ 143.453443918681074, -4.611121013333378 ], [ 142.75434919856238, -4.405504919180821 ], [ 142.260870572596247, -4.282135262689287 ], [ 141.685145508969072, -4.148484801490126 ], [ 141.006552755379829, -3.827046128737357 ] ] ] ] } },
{ "type": "Feature", "properties": { "id": null, "Zone": "саванн и редколесий" }, "geometry": { "type": "MultiPolygon", "coordinates": [ [ [ [ 142.628431431244167, -9.326820570516524 ], [ 142.068258905200253, -9.159595635620022 ], [ 141.033851760013818, -9.117892754760483 ], [ 141.006612398265702, -7.011688912564473 ], [ 141.023064918134537, -7.024813956504775 ], [ 141.006612398265645, -5.017212799284676 ], [ 141.892227535252772, -5.581974658608315 ], [ 142.308148531792426, -5.78363332359724 ], [ 143.152594191433536, -5.997895655147971 ], [ 144.009643517636476, -6.212157986698704 ], [ 144.882475773041335, -6.487367872475456 ], [ 145.345111984884568, -6.806072818411918 ], [ 145.889994634388813, -7.088794947871683 ], [ 149.434302057343444, -10.227010584875078 ], [ 149.782310012001972, -10.393267103723923 ], [ 148.923137648717272, -10.280922539921384 ], [ 147.913018426707993, -10.13044076908745 ], [ 147.135443150012179, -9.492443536011983 ], [ 146.567880894150562, -8.942554619994155 ], [ 146.048481073184917, -8.067414239131281 ], [ 144.744167922138047, -7.630128269077446 ], [ 143.897087844009661, -7.915330498896296 ], [ 143.286375767184325, -8.245491224809079 ], [ 143.413913202080664, -8.983068942910982 ], [ 142.628431431244167, -9.326820570516524 ] ] ] ] } }
]
}
