{
"type": "FeatureCollection",
"name": "russia",
"crs": { "type": "name", "properties": { "name": "urn:ogc:def:crs:OGC:1.3:CRS84" } },
"features": [
{ "type": "Feature", "properties": { "featurecla": "Admin-0 country", "scalerank": 1, "LABELRANK": 2, "SOVEREIGNT": "Russia", "SOV_A3": "RUS", "ADM0_DIF": 0, "LEVEL": 2, "TYPE": "Sovereign country", "TLC": "1", "ADMIN": "Russia", "ADM0_A3": "RUS", "GEOU_DIF": 0, "GEOUNIT": "Russia", "GU_A3": "RUS", "SU_DIF": 0, "SUBUNIT": "Russia", "SU_A3": "RUS", "BRK_DIFF": 0, "NAME": "Russia", "NAME_LONG": "Russian Federation", "BRK_A3": "RUS", "BRK_NAME": "Russia", "BRK_GROUP": null, "ABBREV": "Rus.", "POSTAL": "RUS", "FORMAL_EN": "Russian Federation", "FORMAL_FR": null, "NAME_CIAWF": "Russia", "NOTE_ADM0": null, "NOTE_BRK": null, "NAME_SORT": "Russian Federation", "NAME_ALT": null, "MAPCOLOR7": 2, "MAPCOLOR8": 5, "MAPCOLOR9": 7, "MAPCOLOR13": 7, "POP_EST": 144373535.0, "POP_RANK": 17, "POP_YEAR": 2019, "GDP_MD": 1699876, "GDP_YEAR": 2019, "ECONOMY": "3. Emerging region: BRIC", "INCOME_GRP": "3. Upper middle income", "FIPS_10": "RS", "ISO_A2": "RU", "ISO_A2_EH": "RU", "ISO_A3": "RUS", "ISO_A3_EH": "RUS", "ISO_N3": "643", "ISO_N3_EH": "643", "UN_A3": "643", "WB_A2": "RU", "WB_A3": "RUS", "WOE_ID": 23424936, "WOE_ID_EH": 23424936, "WOE_NOTE": "Exact WOE match as country", "ADM0_ISO": "RUS", "ADM0_DIFF": null, "ADM0_TLC": "RUS", "ADM0_A3_US": "RUS", "ADM0_A3_FR": "RUS", "ADM0_A3_RU": "RUS", "ADM0_A3_ES": "RUS", "ADM0_A3_CN": "RUS", "ADM0_A3_TW": "RUS", "ADM0_A3_IN": "RUS", "ADM0_A3_NP": "RUS", "ADM0_A3_PK": "RUS", "ADM0_A3_DE": "RUS", "ADM0_A3_GB": "RUS", "ADM0_A3_BR": "RUS", "ADM0_A3_IL": "RUS", "ADM0_A3_PS": "RUS", "ADM0_A3_SA": "RUS", "ADM0_A3_EG": "RUS", "ADM0_A3_MA": "RUS", "ADM0_A3_PT": "RUS", "ADM0_A3_AR": "RUS", "ADM0_A3_JP": "RUS", "ADM0_A3_KO": "RUS", "ADM0_A3_VN": "RUS", "ADM0_A3_TR": "RUS", "ADM0_A3_ID": "RUS", "ADM0_A3_PL": "RUS", "ADM0_A3_GR": "RUS", "ADM0_A3_IT": "RUS", "ADM0_A3_NL": "RUS", "ADM0_A3_SE": "RUS", "ADM0_A3_BD": "RUS", "ADM0_A3_UA": "RUS", "ADM0_A3_UN": -99, "ADM0_A3_WB": -99, "CONTINENT": "Europe", "REGION_UN": "Europe", "SUBREGION": "Eastern Europe", "REGION_WB": "Europe & Central Asia", "NAME_LEN": 6, "LONG_LEN": 18, "ABBREV_LEN": 4, "TINY": -99, "HOMEPART": 1, "MIN_ZOOM": 0.0, "MIN_LABEL": 1.7, "MAX_LABEL": 5.2, "LABEL_X": 44.686469, "LABEL_Y": 58.249357, "NE_ID": 1159321201, "WIKIDATAID": "Q159", "NAME_AR": "روسيا", "NAME_BN": "রাশিয়া", "NAME_DE": "Russland", "NAME_EN": "Russia", "NAME_ES": "Rusia", "NAME_FA": "روسیه", "NAME_FR": "Russie", "NAME_EL": "Ρωσία", "NAME_HE": "רוסיה", "NAME_HI": "रूस", "NAME_HU": "Oroszország", "NAME_ID": "Rusia", "NAME_IT": "Russia", "NAME_JA": "ロシア", "NAME_KO": "러시아", "NAME_NL": "Rusland", "NAME_PL": "Rosja", "NAME_PT": "Rússia", "NAME_RU": "Россия", "NAME_SV": "Ryssland", "NAME_TR": "Rusya", "NAME_UK": "Росія", "NAME_UR": "روس", "NAME_VI": "Nga", "NAME_ZH": "俄罗斯", "NAME_ZHT": "俄羅斯", "FCLASS_ISO": "Admin-0 country", "TLC_DIFF": null, "FCLASS_TLC": "Admin-0 country", "FCLASS_US": null, "FCLASS_FR": null, "FCLASS_RU": null, "FCLASS_ES": null, "FCLASS_CN": null, "FCLASS_TW": null, "FCLASS_IN": null, "FCLASS_NP": null, "FCLASS_PK": null, "FCLASS_DE": null, "FCLASS_GB": null, "FCLASS_BR": null, "FCLASS_IL": null, "FCLASS_PS": null, "FCLASS_SA": null, "FCLASS_EG": null, "FCLASS_MA": null, "FCLASS_PT": null, "FCLASS_AR": null, "FCLASS_JP": null, "FCLASS_KO": null, "FCLASS_VN": null, "FCLASS_TR": null, "FCLASS_ID": null, "FCLASS_PL": null, "FCLASS_GR": null, "FCLASS_IT": null, "FCLASS_NL": null, "FCLASS_SE": null, "FCLASS_BD": null, "FCLASS_UA": null }, "geometry": { "type": "MultiPolygon", "coordinates": [ [ [ [ 178.7253, 71.0988 ], [ 180.0, 71.515714336428289 ], [ 180.0, 70.832199208546726 ], [ 178.903425, 70.78114 ], [ 178.7253, 71.0988 ] ] ], [ [ [ 49.101160000000107, 46.399330000000134 ], [ 48.64541, 45.806290000000104 ], [ 47.67591, 45.641490000000147 ], [ 46.68201, 44.609200000000101 ], [ 47.59094, 43.66016 ], [ 47.49252, 42.986580000000117 ], [ 48.584370000000149, 41.80888 ], [ 48.584353396113421, 41.808868791620668 ], [ 47.987283156125983, 41.40581920019423 ], [ 47.815665724484631, 41.151416124021353 ], [ 47.373315464066231, 41.219732367511199 ], [ 46.686070591016609, 41.827137152669877 ], [ 46.404950799348825, 41.860675157227305 ], [ 45.7764, 42.092440000000181 ], [ 45.470279168485717, 42.502780666669977 ], [ 44.537622918481986, 42.711992702803627 ], [ 43.931210000000135, 42.554960000000108 ], [ 43.755990000000111, 42.74083 ], [ 42.394400000000132, 43.2203 ], [ 40.922190000000114, 43.382150000000138 ], [ 40.076964959479767, 43.553104153002316 ], [ 39.955008579270924, 43.434997666999223 ], [ 38.68, 44.28 ], [ 37.53912, 44.65721 ], [ 36.675460000000101, 45.244690000000105 ], [ 37.403170000000102, 45.40451000000013 ], [ 38.23295, 46.24087 ], [ 37.67372, 46.63657 ], [ 39.147670000000119, 47.044750000000136 ], [ 39.1212, 47.26336 ], [ 38.223538038899335, 47.10218984637595 ], [ 38.255112339029779, 47.546400458356914 ], [ 38.77057, 47.825620000000185 ], [ 39.738277622238854, 47.898937079451969 ], [ 39.895620000000179, 48.23241 ], [ 39.67465, 48.783820000000162 ], [ 40.080789015469406, 49.307429917999343 ], [ 40.069040000000143, 49.60105 ], [ 38.594988234213417, 49.926461900423703 ], [ 38.010631137856933, 49.9156615260747 ], [ 37.393459506995157, 50.38395335550365 ], [ 36.626167840325422, 50.225590928745135 ], [ 35.356116163887975, 50.57719737405904 ], [ 35.37791, 50.77394 ], [ 35.022183058417909, 51.207572333371502 ], [ 34.224815708154267, 51.255993150428878 ], [ 34.141978387190534, 51.566413479206346 ], [ 34.391730584457093, 51.768881740925906 ], [ 33.752699822735792, 52.335074571331802 ], [ 32.715760532367085, 52.238465481162109 ], [ 32.412058139787689, 52.288694973349777 ], [ 32.159440000000131, 52.061250000000143 ], [ 31.785992447555252, 52.101677569939703 ], [ 31.78597, 52.101680000000101 ], [ 31.540018344862261, 52.742052313846358 ], [ 31.305200636528014, 53.073995876673209 ], [ 31.49764, 53.167430000000138 ], [ 32.304519484188233, 53.13272614197291 ], [ 32.693643019346041, 53.351420803432177 ], [ 32.405598585751164, 53.618045355842042 ], [ 31.731272820774507, 53.794029446012019 ], [ 31.791424187962239, 53.974638576872124 ], [ 31.38447228366374, 54.157056382862379 ], [ 30.757533807098721, 54.811770941784317 ], [ 30.971835971813135, 55.081547756564042 ], [ 30.87390913262001, 55.550976467503411 ], [ 29.896294386522356, 55.789463202530413 ], [ 29.371571893030673, 55.670090643936184 ], [ 29.229513380660308, 55.918344224666363 ], [ 28.17670942557794, 56.169129950578792 ], [ 27.855282016722526, 56.759326483784292 ], [ 27.770015903440932, 57.244258124411232 ], [ 27.288184848751513, 57.474528306703832 ], [ 27.716685825315722, 57.791899115624361 ], [ 27.420150000000149, 58.724570000000142 ], [ 28.13169925305175, 59.300825100330925 ], [ 27.98112, 59.475370000000112 ], [ 27.981126857000987, 59.475373334325269 ], [ 29.1177, 60.028050000000121 ], [ 28.070001921525666, 60.503519127968232 ], [ 28.07, 60.50352 ], [ 30.21110721204445, 61.780027777749694 ], [ 31.139991082490894, 62.357692776124409 ], [ 31.516092156711125, 62.867687486412891 ], [ 30.035872430142717, 63.552813625738551 ], [ 30.444684686003711, 64.20445343693909 ], [ 29.544429559046989, 64.948671576590485 ], [ 30.21765, 65.80598 ], [ 29.054588657352326, 66.944286200622059 ], [ 29.97742638522061, 67.698297024192755 ], [ 28.445943637818658, 68.364612942164044 ], [ 28.591929559043194, 69.064776923286658 ], [ 29.39955, 69.156920000000127 ], [ 31.101042202597625, 69.558101088056219 ], [ 31.10108, 69.558110000000113 ], [ 32.132720000000177, 69.905950000000189 ], [ 33.77547, 69.301420000000121 ], [ 36.51396, 69.06342 ], [ 40.292340000000138, 67.9324 ], [ 41.05987, 67.45713000000012 ], [ 41.125950000000103, 66.79158 ], [ 40.01583, 66.266180000000134 ], [ 38.38295, 65.999530000000107 ], [ 33.918710000000146, 66.75961 ], [ 33.18444, 66.63253 ], [ 34.814770000000124, 65.900150000000167 ], [ 34.878574253078739, 65.436212877048206 ], [ 34.94391, 64.41437000000019 ], [ 36.23129, 64.10945 ], [ 37.01273, 63.849830000000111 ], [ 37.141970000000185, 64.33471 ], [ 36.539579035089787, 64.76446 ], [ 37.17604, 65.143220000000156 ], [ 39.59345, 64.520790000000204 ], [ 40.4356, 64.76446 ], [ 39.762600000000191, 65.49682 ], [ 42.093090000000132, 66.47623 ], [ 43.01604, 66.418580000000134 ], [ 43.949750000000108, 66.06908 ], [ 44.53226, 66.756340000000137 ], [ 43.69839, 67.35245 ], [ 44.187950000000171, 67.950510000000122 ], [ 43.45282, 68.57079 ], [ 46.250000000000114, 68.25 ], [ 46.82134, 67.68997 ], [ 45.55517, 67.56652 ], [ 45.562020000000132, 67.010050000000149 ], [ 46.349150000000122, 66.667670000000101 ], [ 47.89416000000017, 66.884550000000104 ], [ 48.13876, 67.52238 ], [ 50.227660000000128, 67.998670000000175 ], [ 53.717430000000149, 68.857380000000148 ], [ 54.47171, 68.80815 ], [ 53.48582000000016, 68.20131 ], [ 54.72628, 68.09702 ], [ 55.442680000000109, 68.43866 ], [ 57.31702, 68.46628 ], [ 58.802000000000135, 68.88082 ], [ 59.941420000000107, 68.27844 ], [ 61.077840000000208, 68.94069 ], [ 60.03, 69.52 ], [ 60.55, 69.85 ], [ 63.504000000000133, 69.54739 ], [ 64.888115, 69.234835 ], [ 68.512160000000165, 68.092330000000118 ], [ 69.180680000000109, 68.615630000000124 ], [ 68.16444, 69.14436 ], [ 68.13522, 69.356490000000122 ], [ 66.930080000000146, 69.454610000000116 ], [ 67.25976, 69.92873 ], [ 66.724920000000168, 70.708890000000167 ], [ 66.69466, 71.028970000000186 ], [ 68.54006, 71.934500000000185 ], [ 69.19636, 72.843360000000189 ], [ 69.94, 73.04 ], [ 72.58754, 72.776290000000131 ], [ 72.79603, 72.22006 ], [ 71.84811, 71.40898 ], [ 72.47011, 71.09019 ], [ 72.79188, 70.39114 ], [ 72.56470000000013, 69.02085 ], [ 73.66787, 68.4079 ], [ 73.2387, 67.7404 ], [ 71.28, 66.320000000000107 ], [ 72.42301, 66.17267000000021 ], [ 72.82077, 66.53267 ], [ 73.920990000000131, 66.789460000000133 ], [ 74.186510000000112, 67.28429 ], [ 75.052, 67.760470000000112 ], [ 74.469260000000133, 68.32899 ], [ 74.93584, 68.98918 ], [ 73.84236, 69.07146 ], [ 73.60187000000019, 69.62763 ], [ 74.3998, 70.63175 ], [ 73.1011, 71.447170000000199 ], [ 74.89082000000019, 72.121190000000126 ], [ 74.65926, 72.83227 ], [ 75.158010000000104, 72.854970000000151 ], [ 75.683510000000126, 72.300560000000132 ], [ 75.28898, 71.3355600000001 ], [ 76.35911, 71.152870000000178 ], [ 75.903130000000147, 71.87401 ], [ 77.57665, 72.26717 ], [ 79.652020000000107, 72.32011 ], [ 81.5, 71.75 ], [ 80.61071, 72.582850000000121 ], [ 80.51109, 73.6482 ], [ 82.25, 73.850000000000136 ], [ 84.65526, 73.80591000000021 ], [ 86.822300000000155, 73.93688 ], [ 86.00956, 74.459670000000187 ], [ 87.166820000000143, 75.11643 ], [ 88.31571, 75.14393 ], [ 90.26, 75.64 ], [ 92.90058, 75.773330000000101 ], [ 93.23421, 76.0472 ], [ 95.860000000000184, 76.1400000000001 ], [ 96.67821, 75.91548 ], [ 98.92254000000014, 76.44689 ], [ 100.759670000000142, 76.43028 ], [ 101.03532, 76.86189 ], [ 101.990840000000105, 77.287540000000149 ], [ 104.351600000000133, 77.69792 ], [ 106.066640000000177, 77.37389 ], [ 104.705000000000155, 77.1274 ], [ 106.97013, 76.97419 ], [ 107.240000000000123, 76.48 ], [ 108.153800000000103, 76.72335 ], [ 111.077260000000194, 76.71 ], [ 113.33151, 76.22224 ], [ 114.13417, 75.84764 ], [ 113.88539, 75.327790000000164 ], [ 112.77918, 75.031860000000108 ], [ 110.151250000000118, 74.47673 ], [ 109.4, 74.18 ], [ 110.64, 74.04 ], [ 112.11919, 73.787740000000156 ], [ 113.019540000000234, 73.976930000000152 ], [ 113.529580000000237, 73.335050000000138 ], [ 113.96881, 73.59488 ], [ 115.56782, 73.75285 ], [ 118.776330000000144, 73.58772 ], [ 119.02, 73.12 ], [ 123.20066, 72.97122 ], [ 123.257770000000164, 73.73503 ], [ 125.380000000000109, 73.56 ], [ 126.97644, 73.565490000000125 ], [ 128.59126, 73.03871 ], [ 129.05157, 72.39872 ], [ 128.46, 71.98 ], [ 129.715990000000147, 71.19304000000011 ], [ 131.288580000000252, 70.786990000000117 ], [ 132.253500000000145, 71.836300000000108 ], [ 133.857660000000237, 71.386420000000101 ], [ 135.56193, 71.655250000000137 ], [ 137.49755, 71.34763 ], [ 138.234090000000151, 71.62803 ], [ 139.86983, 71.487830000000145 ], [ 139.14791, 72.416190000000142 ], [ 140.46817, 72.849410000000148 ], [ 149.5, 72.2 ], [ 150.351180000000113, 71.60643 ], [ 152.96890000000019, 70.84222 ], [ 157.00688, 71.03141 ], [ 158.99779, 70.86672 ], [ 159.830310000000168, 70.45324 ], [ 159.70866, 69.72198 ], [ 160.940530000000308, 69.437280000000101 ], [ 162.27907, 69.64204 ], [ 164.05248, 69.66823 ], [ 165.940370000000144, 69.47199 ], [ 167.83567, 69.582690000000127 ], [ 169.577630000000113, 68.6938 ], [ 170.816880000000197, 69.01363 ], [ 170.008200000000102, 69.65276 ], [ 170.453450000000203, 70.09703 ], [ 173.643910000000119, 69.81743 ], [ 175.724030000000198, 69.877250000000174 ], [ 178.6, 69.4 ], [ 180.0, 68.96363636363651 ], [ 180.0, 64.979708702198479 ], [ 179.99281, 64.97433 ], [ 178.707200000000284, 64.53493 ], [ 177.41128, 64.60821 ], [ 178.313000000000102, 64.07593 ], [ 178.90825000000018, 63.25197 ], [ 179.37034, 62.982620000000111 ], [ 179.48636, 62.56894 ], [ 179.22825, 62.304100000000176 ], [ 177.3643, 62.5219 ], [ 174.569290000000251, 61.76915 ], [ 173.68013, 61.65261 ], [ 172.15, 60.95 ], [ 170.6985, 60.336180000000127 ], [ 170.330850000000282, 59.88177 ], [ 168.90046, 60.57355 ], [ 166.294980000000237, 59.788550000000157 ], [ 165.840000000000146, 60.16 ], [ 164.87674, 59.7316 ], [ 163.53929, 59.86871 ], [ 163.217110000000162, 59.21101 ], [ 162.01733, 58.24328 ], [ 162.05297, 57.83912 ], [ 163.19191, 57.615030000000104 ], [ 163.057940000000144, 56.159240000000125 ], [ 162.129580000000146, 56.12219 ], [ 161.70146, 55.285680000000184 ], [ 162.11749, 54.85514 ], [ 160.368770000000268, 54.34433 ], [ 160.021730000000161, 53.20257 ], [ 158.530940000000101, 52.958680000000186 ], [ 158.23118, 51.94269 ], [ 156.789790000000266, 51.01105 ], [ 156.42, 51.7 ], [ 155.99182, 53.15895 ], [ 155.43366, 55.381030000000123 ], [ 155.914420000000291, 56.767920000000174 ], [ 156.75815, 57.3647 ], [ 156.81035, 57.83204 ], [ 158.364330000000109, 58.05575 ], [ 160.15064, 59.31477 ], [ 161.87204, 60.343 ], [ 163.66969, 61.140900000000101 ], [ 164.47355, 62.55061 ], [ 163.258420000000115, 62.466270000000122 ], [ 162.65791, 61.6425 ], [ 160.12148, 60.54423 ], [ 159.30232, 61.773960000000102 ], [ 156.72068, 61.43442 ], [ 154.218060000000264, 59.758180000000152 ], [ 155.04375, 59.14495 ], [ 152.81185, 58.88385 ], [ 151.26573000000019, 58.78089 ], [ 151.33815, 59.50396 ], [ 149.78371, 59.655730000000176 ], [ 148.54481, 59.16448 ], [ 145.48722, 59.33637 ], [ 142.19782, 59.039980000000128 ], [ 138.958480000000236, 57.08805 ], [ 135.12619, 54.72959 ], [ 136.70171, 54.603550000000155 ], [ 137.19342, 53.97732 ], [ 138.1647, 53.755010000000198 ], [ 138.80463, 54.25455 ], [ 139.90151, 54.189680000000124 ], [ 141.34531, 53.089570000000151 ], [ 141.37923, 52.23877 ], [ 140.59742000000017, 51.239670000000103 ], [ 140.51308, 50.045530000000156 ], [ 140.061930000000189, 48.44671000000011 ], [ 138.554720000000202, 46.99965 ], [ 138.21971, 46.30795 ], [ 136.86232, 45.143500000000131 ], [ 135.515350000000126, 43.989 ], [ 134.86939000000018, 43.39821 ], [ 133.536870000000249, 42.81147 ], [ 132.90627, 42.798490000000129 ], [ 132.278070000000184, 43.284560000000113 ], [ 130.935870000000136, 42.55274 ], [ 130.780004853585126, 42.220010361082579 ], [ 130.780003660046759, 42.220007813203225 ], [ 130.78, 42.220000000000141 ], [ 130.77999231657833, 42.220009604277188 ], [ 130.6400000000001, 42.395 ], [ 130.639999706909549, 42.395024275221793 ], [ 130.633866408409745, 42.903014634770528 ], [ 131.144687941614905, 42.92998973242689 ], [ 131.28855512911548, 44.11151968034828 ], [ 131.02519000000018, 44.96796 ], [ 131.883454217659505, 45.321161607436522 ], [ 133.097120000000132, 45.14409 ], [ 133.76964399631288, 46.116926988299014 ], [ 134.112350000000106, 47.21248 ], [ 134.50081, 47.57845 ], [ 135.026311476786645, 48.478229885443874 ], [ 133.373595819227944, 48.183441677434871 ], [ 132.50669, 47.78896 ], [ 130.987260000000106, 47.79013 ], [ 130.582293328982416, 48.72968740497614 ], [ 129.397817824420429, 49.440600084015443 ], [ 127.65740000000028, 49.760270000000105 ], [ 127.287455682484847, 50.739797268265477 ], [ 126.939156528837657, 51.353894151405918 ], [ 126.564399041856973, 51.784255479532703 ], [ 125.946348911646169, 52.792798570356979 ], [ 125.068211297710377, 53.16104482686886 ], [ 123.57147, 53.4588 ], [ 122.24574791879283, 53.431725979213695 ], [ 121.003084751470169, 53.251401068731191 ], [ 120.177088657716808, 52.753886216841238 ], [ 120.725789015791975, 52.516226304730935 ], [ 120.7382, 51.96411 ], [ 120.182080000000155, 51.643550000000118 ], [ 119.27939, 50.58292 ], [ 119.288460728025797, 50.142882798862004 ], [ 117.879244419426399, 49.510983384796965 ], [ 116.678800897286123, 49.888531399121405 ], [ 115.485695428531358, 49.805177313834747 ], [ 114.962109816550182, 50.140247300815126 ], [ 114.362456496235268, 50.248302720737414 ], [ 112.897739699354361, 49.543565375356991 ], [ 111.581230910286621, 49.377968248077693 ], [ 110.662010532678778, 49.130128078805853 ], [ 109.402449171996636, 49.292960516957635 ], [ 108.475167270951289, 49.28254771585074 ], [ 107.86817589725095, 49.793705145865815 ], [ 106.888804152455293, 50.274295966180318 ], [ 105.886591424586754, 50.406019192092224 ], [ 104.62158, 50.275320000000193 ], [ 103.676545444760222, 50.089966132195116 ], [ 102.25589, 50.510560000000112 ], [ 102.06521, 51.25991 ], [ 100.889480421962617, 51.516855780638323 ], [ 99.981732212323536, 51.634006252643992 ], [ 98.861490513100335, 52.047366034546691 ], [ 97.825739780674311, 51.010995184933179 ], [ 98.231761509191557, 50.422400621128745 ], [ 97.259760000000142, 49.72605 ], [ 95.814020000000198, 49.977460000000121 ], [ 94.815949334698729, 50.013433335970852 ], [ 94.147566359435586, 50.480536607457168 ], [ 93.10421, 50.49529 ], [ 92.234711541719676, 50.802170722041723 ], [ 90.71366743364068, 50.331811835321091 ], [ 88.805566847695516, 49.470520738312423 ], [ 87.751264276076711, 49.297197984405486 ], [ 87.35997033076265, 49.214980780629119 ], [ 86.829356723989633, 49.826674709668168 ], [ 85.541269972682471, 49.692858588248157 ], [ 85.115559523462025, 50.117302964877638 ], [ 84.416377394553081, 50.311399644565824 ], [ 83.935114780618846, 50.889245510453577 ], [ 83.38300377801238, 51.069182847693924 ], [ 81.945985548839928, 50.812195949906368 ], [ 80.568446893235489, 51.38833649352847 ], [ 80.035559523441691, 50.864750881547252 ], [ 77.800915561844249, 53.404414984747575 ], [ 76.525179477854749, 54.177003485727141 ], [ 76.891100294913429, 54.490524400441927 ], [ 74.384820000000161, 53.54685000000012 ], [ 73.425678745420441, 53.489810289109755 ], [ 73.508516066384402, 54.035616766976602 ], [ 72.224150018202181, 54.376655381886735 ], [ 71.180131056609412, 54.133285224008262 ], [ 70.865266554655136, 55.169733588270105 ], [ 69.068166945272878, 55.385250149143531 ], [ 68.169100376258825, 54.970391750704323 ], [ 65.66687, 54.601250000000107 ], [ 65.178533563095925, 54.354227810272107 ], [ 61.436600000000169, 54.00625 ], [ 60.978066440683165, 53.664993394579142 ], [ 61.699986199800605, 52.979996446334269 ], [ 60.739993117114579, 52.719986477257748 ], [ 60.92726850774028, 52.447548326215042 ], [ 59.967533807215545, 51.960420437215703 ], [ 61.588003371024172, 51.272658799843214 ], [ 61.337424350840934, 50.799070136104262 ], [ 59.932807244715491, 50.842194118851864 ], [ 59.642282342370606, 50.545442206415714 ], [ 58.36332, 51.06364 ], [ 56.777980000000127, 51.04355 ], [ 55.71694, 50.621710000000178 ], [ 54.532878452376224, 51.026239732459317 ], [ 52.328723585830971, 51.718652248738124 ], [ 50.766648390512159, 51.692762356159903 ], [ 48.702381626181023, 50.605128485712839 ], [ 48.57784142435753, 49.874759629915673 ], [ 47.549480421749308, 50.454698391311126 ], [ 46.751596307162743, 49.356005764353768 ], [ 47.043671502476514, 49.152038886097614 ], [ 46.46644575377627, 48.39415233010493 ], [ 47.315240000000131, 47.715850000000103 ], [ 48.05725, 47.74377 ], [ 48.694733514201744, 47.075628160177928 ], [ 48.593250000000182, 46.56104 ], [ 49.101160000000107, 46.399330000000134 ] ] ], [ [ [ 93.77766, 81.0246 ], [ 95.940895, 81.2504 ], [ 97.88385, 80.746975 ], [ 100.186655, 79.780135 ], [ 99.93976, 78.88094 ], [ 97.75794, 78.7562 ], [ 94.97259, 79.044745 ], [ 93.31288, 79.4265 ], [ 92.5454, 80.14379 ], [ 91.18107, 80.34146 ], [ 93.77766, 81.0246 ] ] ], [ [ [ 102.837815, 79.28129 ], [ 105.37243, 78.71334 ], [ 105.07547, 78.30689 ], [ 99.43814, 77.921 ], [ 101.2649, 79.23399 ], [ 102.08635, 79.34641 ], [ 102.837815, 79.28129 ] ] ], [ [ [ 138.831075, 76.13676 ], [ 141.471615, 76.09289 ], [ 145.086285, 75.562625 ], [ 144.3, 74.82 ], [ 140.61381, 74.84768 ], [ 138.95544, 74.61148 ], [ 136.97439, 75.26167 ], [ 137.51176, 75.94917 ], [ 138.831075, 76.13676 ] ] ], [ [ [ 148.22223, 75.345845 ], [ 150.73167, 75.08406 ], [ 149.575925, 74.68892 ], [ 147.977465, 74.778355 ], [ 146.11919, 75.17298 ], [ 146.358485, 75.49682 ], [ 148.22223, 75.345845 ] ] ], [ [ [ 139.86312, 73.36983 ], [ 140.81171, 73.76506 ], [ 142.06207, 73.85758 ], [ 143.48283, 73.47525 ], [ 143.60385, 73.21244 ], [ 142.08763, 73.20544 ], [ 140.038155, 73.31692 ], [ 139.86312, 73.36983 ] ] ], [ [ [ 44.846958042181143, 80.589809882317141 ], [ 46.799138624871233, 80.771917629713684 ], [ 48.318477410684608, 80.784009914869984 ], [ 48.522806023966673, 80.514568996900167 ], [ 49.097189568890855, 80.753985907708397 ], [ 50.039767693894618, 80.918885403151776 ], [ 51.522932977103665, 80.699725653801934 ], [ 51.13618655783128, 80.54728017854093 ], [ 49.793684523320707, 80.415427761548202 ], [ 48.894411248577548, 80.339566758943747 ], [ 48.754936557821772, 80.175468248200886 ], [ 47.586119012244183, 80.010181179515328 ], [ 46.502825962109632, 80.247246812654296 ], [ 47.072455275262939, 80.559424140129508 ], [ 44.846958042181143, 80.589809882317141 ] ] ], [ [ [ 22.731098667092652, 54.327536932993326 ], [ 20.892244500418627, 54.312524929412533 ], [ 19.660640089606403, 54.426083889373928 ], [ 19.888481479581287, 54.866160386771512 ], [ 21.268448927503467, 55.190481675835315 ], [ 22.315723504330577, 55.015298570365864 ], [ 22.757763706155259, 54.85657440858138 ], [ 22.651051873472539, 54.582740993866736 ], [ 22.731098667092652, 54.327536932993326 ] ] ], [ [ [ 53.50828982932515, 73.749813951300197 ], [ 55.902458937407658, 74.627486477345357 ], [ 55.631932814359686, 75.081412258597183 ], [ 57.868643833248854, 75.609390367323257 ], [ 61.170044386647476, 76.251883450008123 ], [ 64.498368361270167, 76.439055487769267 ], [ 66.210977003855135, 76.80978221303117 ], [ 68.157059767534804, 76.939696763812933 ], [ 68.852211134725081, 76.544811306454605 ], [ 68.180572544227601, 76.233641669409067 ], [ 64.637326287703019, 75.737754625136247 ], [ 61.583507521414759, 75.260884507946841 ], [ 58.477082147053352, 74.309056301562848 ], [ 56.986785516188029, 73.333043524866227 ], [ 55.419335971910925, 72.371267605266027 ], [ 55.622837762276333, 71.540594794390316 ], [ 57.535692579992315, 70.720463975702117 ], [ 56.944979282463883, 70.632743231886664 ], [ 53.677375115784173, 70.762657782668455 ], [ 53.412016635965394, 71.206661688920221 ], [ 51.601894565645665, 71.474759019650449 ], [ 51.455753615124216, 72.014881089965129 ], [ 52.478275180883543, 72.229441636840974 ], [ 52.444168735570877, 72.774731350384812 ], [ 54.427613559797578, 73.6275475124976 ], [ 53.50828982932515, 73.749813951300197 ] ] ], [ [ [ 142.914615513276544, 53.704577541714784 ], [ 143.260847609632094, 52.740760403039062 ], [ 143.235267775647628, 51.756660264688762 ], [ 143.648007440362846, 50.747600409541505 ], [ 144.65414757708561, 48.976390692737539 ], [ 143.173927850517202, 49.306551418650315 ], [ 142.558668247650132, 47.861575018904951 ], [ 143.533492466404027, 46.836728013692522 ], [ 143.505277134372648, 46.137907619809525 ], [ 142.747700636973832, 46.740764878926512 ], [ 142.092030064054541, 45.966755276058834 ], [ 141.906925083585008, 46.805928860046563 ], [ 142.018442824470867, 47.780132961612964 ], [ 141.904444614835029, 48.85918854429957 ], [ 142.135800002205713, 49.615163072297392 ], [ 142.179983351815281, 50.952342434281903 ], [ 141.594075962490024, 51.9354348822025 ], [ 141.682546014573688, 53.301966457728795 ], [ 142.606934035410745, 53.762145087287934 ], [ 142.209748976815433, 54.225475979216874 ], [ 142.654786411713019, 54.365880845753892 ], [ 142.914615513276544, 53.704577541714784 ] ] ], [ [ [ -174.92825, 67.20589 ], [ -175.01425, 66.58435 ], [ -174.33983, 66.33556 ], [ -174.57182, 67.06219 ], [ -171.85731, 66.91308 ], [ -169.89958, 65.97724 ], [ -170.89107, 65.54139 ], [ -172.53025, 65.43791 ], [ -172.555, 64.46079 ], [ -172.95533, 64.25269 ], [ -173.89184, 64.2826 ], [ -174.65392, 64.63125 ], [ -175.98353, 64.92288 ], [ -176.20716, 65.35667 ], [ -177.22266, 65.52024 ], [ -178.35993, 65.39052 ], [ -178.90332, 65.74044 ], [ -178.68611, 66.11211 ], [ -179.88377, 65.87456 ], [ -179.43268, 65.40411 ], [ -180.0, 64.979708702198394 ], [ -180.0, 68.963636363636354 ], [ -177.55, 68.2 ], [ -174.92825, 67.20589 ] ] ], [ [ [ -178.69378, 70.89302 ], [ -180.0, 70.832199208546726 ], [ -180.0, 71.515714336428275 ], [ -179.871875, 71.55762 ], [ -179.02433, 71.55553 ], [ -177.577945, 71.26948 ], [ -177.663575, 71.13277 ], [ -178.69378, 70.89302 ] ] ], [ [ [ 33.435988094713366, 45.971917370797485 ], [ 33.69946184910907, 46.219572831556434 ], [ 34.410401728537181, 46.005162391728845 ], [ 34.73201738827845, 45.965665731760623 ], [ 34.861792128174045, 45.76818243191957 ], [ 35.012658970047369, 45.737725199825491 ], [ 35.02078779474607, 45.651218980484657 ], [ 35.51000857925311, 45.40999339454612 ], [ 36.529997999830186, 45.46998973243717 ], [ 36.334712762199274, 45.113215643894023 ], [ 35.239999220528205, 44.939996242851748 ], [ 33.882511020652885, 44.361478583344194 ], [ 33.326420932760129, 44.564877020844904 ], [ 33.546924269349404, 45.034770819674861 ], [ 32.454174432105503, 45.327466132176085 ], [ 32.630804477679192, 45.51918569597899 ], [ 33.588162062318418, 45.851568508480227 ], [ 33.435988094713366, 45.971917370797485 ] ] ] ] } }
]
}
