{
"type": "FeatureCollection",
"name": "africa_2",
"crs": { "type": "name", "properties": { "name": "urn:ogc:def:crs:OGC:1.3:CRS84" } },
"features": [
{ "type": "Feature", "properties": { "id": null, "Zone": "области высотной поясности" }, "geometry": { "type": "MultiPolygon", "coordinates": [ [ [ [ 10.024020020732955, 6.650643810147434 ], [ 11.077757714660223, 7.699064985524712 ], [ 11.664078202395572, 8.121984681596112 ], [ 12.218872104550599, 8.305824082874324 ], [ 12.218872104550599, 8.305824082874324 ], [ 12.381751233682266, 8.364111261418735 ], [ 13.038567214627623, 8.381503586003562 ], [ 13.683986496648455, 8.240741604927202 ], [ 13.889602590801012, 8.19961838609669 ], [ 15.301499770648563, 7.884340375062771 ], [ 15.507115864801118, 7.84321715623226 ], [ 15.589362302462142, 7.802093937401748 ], [ 15.657901000512993, 7.678724280910215 ], [ 15.657901000512993, 7.52793914519834 ], [ 15.575654562851971, 7.322323051045784 ], [ 15.520823604411289, 7.17153791533391 ], [ 15.274084291428222, 6.911090862740672 ], [ 15.137006895326518, 6.801428945859309 ], [ 14.86285210312311, 6.650643810147434 ], [ 14.698359227801065, 6.582105112096582 ], [ 14.396788956377316, 6.49985867443556 ], [ 14.136341903784079, 6.472443195215218 ], [ 13.821063892750159, 6.49985867443556 ], [ 13.629155538207772, 6.540981893266071 ], [ 13.368708485614535, 6.705474768588116 ], [ 13.16309239146198, 6.84255216468982 ], [ 12.998599516139935, 6.869967643910161 ], [ 12.779275682377207, 6.801428945859309 ], [ 12.628490546665333, 6.705474768588116 ], [ 12.463997671343289, 6.540981893266071 ], [ 12.326920275241584, 6.349073538723685 ], [ 11.984226784987325, 6.047503267299936 ], [ 11.764902951224599, 5.691102037435505 ], [ 11.614117815512724, 5.389531766011756 ], [ 11.367378502529656, 5.142792453028689 ], [ 11.052100491495736, 4.84122218160494 ], [ 10.750530220071987, 4.621898347842214 ], [ 10.353005771377045, 4.416282253689658 ], [ 9.955481322682104, 4.402574514079487 ], [ 9.749865228529547, 4.567067389401532 ], [ 9.653911051258355, 4.772683483554088 ], [ 9.653911051258355, 5.142792453028689 ], [ 9.832111666190571, 5.540316901723631 ], [ 9.900650364241422, 5.732225256266017 ], [ 10.010312281122786, 6.102334225740618 ], [ 9.989750671707533, 6.506712544240692 ], [ 10.024020020732955, 6.650643810147434 ] ] ] ] } },
{ "type": "Feature", "properties": { "id": null, "Zone": "области высотной поясности" }, "geometry": { "type": "MultiPolygon", "coordinates": [ [ [ [ 5.808890090605558, 23.401501613775668 ], [ 5.850013309436068, 26.047095358538556 ], [ 5.90484426787675, 26.362373369572474 ], [ 5.959675226317432, 26.526866244894521 ], [ 6.178999060080159, 26.746190078657246 ], [ 6.343491935402203, 26.801021037097929 ], [ 6.741016384097145, 26.814728776708101 ], [ 7.083709874351405, 26.773605557877588 ], [ 8.57785349185998, 26.513158505284352 ], [ 9.46097787023799, 26.243384983367747 ], [ 9.523687524961739, 26.143049535809748 ], [ 9.729303619114294, 25.923725702047022 ], [ 9.948627452877021, 25.759232826724979 ], [ 10.071997109368555, 25.594739951402932 ], [ 11.999505649471613, 23.47166840259645 ], [ 11.93624969635173, 23.099931342351919 ], [ 11.703218122978834, 22.962853946250213 ], [ 11.497602028826277, 22.962853946250213 ], [ 11.168616278182187, 23.031392644301064 ], [ 10.812215048317757, 23.12734682157226 ], [ 8.376287190926517, 23.305362617155421 ], [ 7.82424287892883, 23.331039096783218 ], [ 7.297875046558942, 23.099950780133025 ], [ 6.878093780198849, 22.716114633267146 ], [ 6.439446112673396, 22.263759226131523 ], [ 6.000798445147943, 22.071850871589138 ], [ 5.754059132164876, 22.250051486521354 ], [ 5.712935913334364, 22.579037237165444 ], [ 5.781474611385216, 22.83948428975868 ], [ 5.808890090605558, 23.099931342351919 ], [ 5.808890090605558, 23.401501613775668 ] ] ] ] } },
{ "type": "Feature", "properties": { "id": null, "Zone": "области высотной поясности" }, "geometry": { "type": "MultiPolygon", "coordinates": [ [ [ [ -7.473909591649569, 32.051085307793201 ], [ -5.020224201429063, 33.380736049979738 ], [ -4.608992013123951, 33.65489084218315 ], [ -4.005851470276452, 33.956461113606899 ], [ -3.731696678073044, 34.011292072047581 ], [ -2.470584633937366, 34.148369468149284 ], [ -2.114183404072936, 34.134661728539115 ], [ -1.730366694988165, 34.175784947369621 ], [ -0.387008213191464, 34.326570083081499 ], [ 0.599949038740805, 34.504770698013715 ], [ 1.285336019249325, 34.724094531776437 ], [ 2.86172607441892, 34.888587407098484 ], [ 3.314081481554544, 35.053080282420531 ], [ 5.658104954893684, 35.546558908386665 ], [ 6.041921663978456, 35.711051783708712 ], [ 6.206414539300501, 35.793298221369731 ], [ 6.754724123707317, 35.793298221369731 ], [ 7.19337179123277, 35.72475952331888 ], [ 7.933589730181972, 35.519143429166327 ], [ 8.376367628623768, 35.479876003555944 ], [ 9.002793419775264, 35.656220825268029 ], [ 9.729303619114296, 35.889252398640927 ], [ 10.030873890538045, 35.916667877861265 ], [ 10.167951286639749, 35.820713700590076 ], [ 10.19536676586009, 35.697344044098543 ], [ 10.099412588588896, 35.258696376573084 ], [ 9.88008875482617, 34.98454158436968 ], [ 9.578518483402421, 34.737802271386613 ], [ 8.838300544453219, 34.463647479183201 ], [ 8.399652876927766, 34.353985562301837 ], [ 7.782804594470098, 34.408816520742519 ], [ 7.303033708114133, 34.449939739573033 ], [ 6.576523508775101, 34.518478437623884 ], [ 6.19270679969033, 34.47735521879337 ], [ 5.767766871775048, 34.340277822691668 ], [ 4.890471536724141, 34.162077207759452 ], [ 3.327789221164714, 33.572644404522123 ], [ 2.395662927673127, 33.312197351928887 ], [ 0.641072257571315, 32.996919340894969 ], [ 0.408040684198417, 32.873549684403436 ], [ -0.016899243716866, 32.77759550713224 ], [ -2.868109082632312, 31.73580729675928 ], [ -3.416418667039128, 31.475360244166041 ], [ -3.923605032615434, 31.283451889623656 ], [ -4.211467564429013, 31.201205451962636 ], [ -4.677530711174807, 31.02300483703042 ], [ -4.924270024157874, 30.899635180538887 ], [ -5.609657004666394, 30.598064909115138 ], [ -6.14425884946304, 30.337617856521899 ], [ -6.47324460010713, 30.186832720810024 ], [ -6.788522611141049, 30.049755324708322 ], [ -7.062677403344457, 29.830431490945593 ], [ -7.556156029310592, 29.3643683441998 ], [ -7.939972738395364, 28.925720676674345 ], [ -8.392328145530987, 28.678981363691278 ], [ -8.926929990327633, 28.678981363691278 ], [ -9.1736693033107, 28.816058759792984 ], [ -10.399592251008642, 29.098585923777819 ], [ -9.564811163765683, 29.933573716749891 ], [ -9.814718390329176, 31.17773550060906 ], [ -9.050299646819166, 31.351990587674507 ], [ -8.543113281242862, 31.598729900657577 ], [ -8.433451364361499, 31.69468407792877 ], [ -7.80289534229366, 31.927715651301668 ], [ -7.473909591649569, 32.051085307793201 ] ] ] ] } },
{ "type": "Feature", "properties": { "id": null, "Zone": "области высотной поясности" }, "geometry": { "type": "MultiPolygon", "coordinates": [ [ [ [ 31.552025078505576, -25.274681741939421 ], [ 31.373824463573364, -25.960068722447957 ], [ 30.935176796047909, -27.371965902295511 ], [ 30.537652347352967, -28.564539248380335 ], [ 29.852265366844449, -29.729697115244811 ], [ 29.194293865556268, -30.538453752244862 ], [ 28.714522979200307, -31.018224638600827 ], [ 27.960597300640934, -31.799565796380541 ], [ 26.89139361104764, -32.69056887104162 ], [ 26.534992381183212, -32.923600444414518 ], [ 25.493204170810259, -33.22517071583826 ], [ 25.177926159776341, -33.005846882075538 ], [ 24.944894586403443, -32.868769485973836 ], [ 24.619335770661912, -32.803657722825541 ], [ 24.273215345505093, -32.813938527533153 ], [ 23.724905761098277, -32.896184965194173 ], [ 23.512435797140661, -32.927027379317082 ], [ 23.327381312403336, -32.896184965194173 ], [ 23.183450046496571, -32.803657722825548 ], [ 23.10805747864061, -32.69056887104162 ], [ 23.327381312403336, -32.210797984685655 ], [ 23.906467729945479, -31.471978779291792 ], [ 24.495966114170376, -30.819462414253366 ], [ 24.852367344034803, -29.544642630507521 ], [ 24.872928953450067, -29.188241400643111 ], [ 24.824951864814462, -28.872963389609172 ], [ 24.715289947933108, -28.633077946431211 ], [ 24.591920291441564, -28.461731201304062 ], [ 26.411622724691675, -26.289054473092033 ], [ 26.713192996115424, -25.973776462058112 ], [ 29.26283256360712, -23.711999426379997 ], [ 29.797434408403763, -23.492675592617271 ], [ 30.153835638268195, -23.50638333222744 ], [ 30.661022003844501, -23.684583947159656 ], [ 31.099669671369952, -24.013569697803746 ], [ 31.456070901234384, -24.479632844549538 ], [ 31.510901859675066, -24.822326334803797 ], [ 31.552025078505576, -25.274681741939421 ] ] ] ] } },
{ "type": "Feature", "properties": { "id": null, "Zone": "области высотной поясности" }, "geometry": { "type": "MultiPolygon", "coordinates": [ ] } },
{ "type": "Feature", "properties": { "id": null, "Zone": "переменно-влажных (в том числе муссонных) лесов" }, "geometry": { "type": "MultiPolygon", "coordinates": [ [ [ [ 1.060121697604927, 5.928837388528876 ], [ -0.507637905265938, 5.343472601742675 ], [ -1.063624640294194, 5.000547797053812 ], [ -1.964706590167594, 4.710462144383371 ], [ -2.856125047202397, 4.994475816259509 ], [ -3.311084357100071, 4.984295559098015 ], [ -4.008819545904942, 5.179813340674315 ], [ -4.649917364917911, 5.168263658057086 ], [ -5.834496222344526, 4.993700669775137 ], [ -6.528769090185847, 4.705087795425015 ], [ -7.518941209330436, 4.338288479017308 ], [ -7.71215938966975, 4.364565944837722 ], [ -7.974107224957251, 4.355755113131963 ], [ -9.004793667018674, 4.8324185245922 ], [ -9.913420376006684, 5.593560695819207 ], [ -10.765383876986645, 6.140710760925558 ], [ -11.438779466182055, 6.785916856305747 ], [ -11.70819454593574, 6.860098374860726 ], [ -12.428098924193819, 7.26294200279203 ], [ -12.949049038128194, 7.798645738145738 ], [ -13.124025437868482, 8.163946438016978 ], [ -13.246550258832515, 8.903048610871508 ], [ -13.685153977909792, 9.49474376061346 ], [ -14.074044969122282, 9.886166897008252 ], [ -13.162621529870284, 9.858254878927339 ], [ -12.425928514037565, 9.835834051955956 ], [ -11.627354693531197, 9.57039234711376 ], [ -10.955675452632848, 9.296237554910352 ], [ -10.503320045497224, 9.076913721147626 ], [ -9.845348544209045, 8.789051189334048 ], [ -9.502655053954784, 8.610850574401832 ], [ -8.940637729937798, 8.281864823757742 ], [ -8.625359718903878, 8.089956469215355 ], [ -8.104465613717402, 7.747262978961096 ], [ -7.569863768920756, 7.500523665978029 ], [ -6.692568433869852, 7.349738530266156 ], [ -6.089427891022353, 7.1441224361136 ], [ -5.499995087785026, 6.911090862740703 ], [ -4.828315846886676, 6.719182508198317 ], [ -4.074390168327303, 6.760305727028829 ], [ -3.663157980022191, 6.80142894585934 ], [ -3.306756750157761, 6.924798602350873 ], [ -2.676200728089921, 7.240076613384793 ], [ -2.182722102123787, 7.390861749096667 ], [ -1.634412517716971, 7.431984967927178 ], [ -1.442504163174585, 7.418277228317008 ], [ -0.715993963835554, 6.979629560791555 ], [ -0.496670130072827, 6.664351549757635 ], [ -0.23622307747959, 6.390196757554227 ], [ 0.312086506927228, 6.061211006910137 ], [ 1.060121697604927, 5.928837388528876 ] ] ] ] } },
{ "type": "Feature", "properties": { "id": null, "Zone": "влажных экваториальных лесов" }, "geometry": { "type": "MultiPolygon", "coordinates": [ [ [ [ 9.048419630579588, -0.459351494960217 ], [ 9.291350538783689, 0.268666083167687 ], [ 9.492888624721985, 1.010119533691494 ], [ 9.305613234096256, 1.160911363119183 ], [ 9.649158155972628, 2.283866075037736 ], [ 9.795195753629457, 3.073404445809117 ], [ 9.404366896206, 3.734526882335203 ], [ 8.948115675501072, 3.904128933117136 ], [ 8.744923943729418, 4.35221527751996 ], [ 8.48881554529089, 4.495617377129918 ], [ 8.500287713259695, 4.771982937026849 ], [ 7.462108188515941, 4.412108262546241 ], [ 7.082596469764439, 4.464689032403228 ], [ 6.6980721370806, 4.240594183769517 ], [ 5.898172641634687, 4.262453314628985 ], [ 5.362804803090881, 4.887970689305959 ], [ 5.033574252959369, 5.611802476418234 ], [ 4.725978661402095, 5.924133610808446 ], [ 5.219457287368232, 5.965256829638958 ], [ 6.041921663978457, 6.102334225740662 ], [ 7.028878915910727, 6.143457444571172 ], [ 7.549773021097203, 5.992672308859298 ], [ 8.358529658097257, 5.458070464062653 ], [ 8.961670200944756, 5.156500192638903 ], [ 9.653911051258355, 5.142792453028689 ], [ 9.653911051258355, 4.772683483554088 ], [ 9.749865228529547, 4.567067389401532 ], [ 9.955481322682104, 4.402574514079487 ], [ 10.353005771377045, 4.416282253689658 ], [ 10.750530220071987, 4.621898347842214 ], [ 11.052100491495736, 4.84122218160494 ], [ 11.367378502529656, 5.142792453028689 ], [ 11.614117815512724, 5.389531766011756 ], [ 12.416020582707702, 5.512901422503335 ], [ 13.567470709962016, 5.307285328350779 ], [ 14.97936788980957, 4.813806702384644 ], [ 15.870370964470647, 4.580775129011746 ], [ 17.076652050165642, 4.649313827062597 ], [ 24.177261168233912, 4.498528691350723 ], [ 25.931851838335731, 4.484820951740552 ], [ 27.521949633115501, 4.38886677446936 ], [ 29.180586125946121, 4.183250680316803 ], [ 29.989342762946173, 3.922803627723566 ], [ 30.833852421715427, 3.509171604222463 ], [ 31.003715494098763, 3.141462469943852 ], [ 31.075681127052178, 2.901577026765841 ], [ 31.099669671369952, 2.41495227060482 ], [ 30.948884535658081, 1.606195633604766 ], [ 30.784391660336034, 1.277209882960676 ], [ 30.619898785013987, 1.05788604919795 ], [ 30.126420159047854, 0.701484819333519 ], [ 29.71518797074274, 0.208006193367384 ], [ 29.605526053861379, -0.216933734547898 ], [ 29.441033178539335, -0.724120100124205 ], [ 29.070924209064735, -3.23263644878539 ], [ 28.988677771403715, -3.451960282548116 ], [ 28.824184896081668, -3.684991855921013 ], [ 28.700815239590135, -3.945438908514251 ], [ 28.604861062318939, -4.301840138378681 ], [ 28.467783666217237, -4.562287190971919 ], [ 28.179921134403656, -4.630825889022771 ], [ 27.22037936169173, -4.370378836429533 ], [ 26.452745943522189, -3.91802342929391 ], [ 25.123095201335659, -3.657576376700672 ], [ 22.544610616935856, -3.172011497693727 ], [ 19.29730586701324, -2.451295291005675 ], [ 12.25152770738565, -1.409507080632723 ], [ 10.48236287955142, -0.937486230438255 ], [ 9.048419630579588, -0.459351494960217 ] ] ] ] } },
{ "type": "Feature", "properties": { "id": null, "Zone": "переменно-влажных (в том числе муссонных) лесов" }, "geometry": { "type": "MultiPolygon", "coordinates": [ [ [ [ 2.327124229622269, 6.198288403011857 ], [ 2.587571282215507, 6.787721206249186 ], [ 3.03992668935113, 7.25378435299498 ], [ 3.711605930249481, 7.514231405588218 ], [ 4.451823869198684, 7.445692707537366 ], [ 6.265511642756095, 7.391308707733402 ], [ 7.590594084375527, 7.248056551882653 ], [ 8.736611331181523, 7.355495668770715 ], [ 9.596124266286019, 7.212243512919965 ], [ 9.989750671707533, 6.506712544240692 ], [ 10.010312281122786, 6.102334225740618 ], [ 9.900650364241422, 5.732225256266017 ], [ 9.832111666190571, 5.540316901723631 ], [ 9.653911051258355, 5.142792453028689 ], [ 8.961670200944756, 5.156500192638903 ], [ 8.689524152242905, 5.292573216989829 ], [ 8.358529658097257, 5.458070464062653 ], [ 7.549773021097203, 5.992672308859298 ], [ 7.028878915910727, 6.143457444571172 ], [ 6.041921663978457, 6.102334225740662 ], [ 5.219457287368232, 5.965256829638958 ], [ 4.725978661402095, 5.924133610808446 ], [ 4.725978661402095, 5.924133610808446 ], [ 4.325607130560684, 6.270651149923467 ], [ 3.574180128604553, 6.258300482605719 ], [ 2.691701694356254, 6.258817246928629 ], [ 2.327124229622269, 6.198288403011857 ] ] ] ] } },
{ "type": "Feature", "properties": { "id": null, "Zone": "области высотной поясности" }, "geometry": { "type": "MultiPolygon", "coordinates": [ [ [ [ 28.467783666217237, -4.562287190971919 ], [ 28.604861062318939, -4.301840138378681 ], [ 28.700815239590135, -3.945438908514251 ], [ 28.824184896081668, -3.684991855921013 ], [ 28.988677771403715, -3.451960282548116 ], [ 29.070924209064735, -3.23263644878539 ], [ 29.441033178539335, -0.724120100124205 ], [ 29.605526053861379, -0.216933734547898 ], [ 29.71518797074274, 0.208006193367384 ], [ 29.860724381345612, 0.382649886090832 ], [ 30.126420159047854, 0.701484819333519 ], [ 30.619898785013987, 1.05788604919795 ], [ 30.784391660336034, 1.277209882960676 ], [ 30.948884535658081, 1.606195633604766 ], [ 31.030935665844709, 2.046288059151236 ], [ 31.067165470864737, 2.240611558804107 ], [ 31.099669671369952, 2.41495227060482 ], [ 31.075681127052178, 2.901577026765841 ], [ 31.164781434518286, 2.983823464426863 ], [ 31.329274309840347, 3.004385073842118 ], [ 31.521306995152649, 2.98783775234889 ], [ 31.706084280432279, 2.892263294445633 ], [ 31.903018675147095, 2.335556051450083 ], [ 31.988949009414021, 1.712561128014864 ], [ 31.945983842280558, 1.175496538846572 ], [ 31.809045196196312, 0.715192558943663 ], [ 31.740506498145461, 0.331375849858891 ], [ 31.425846312027325, -0.333951296437669 ], [ 31.157927564713198, -4.959811639666884 ], [ 32.871395015984525, -8.235961406497609 ], [ 32.98791080267096, -9.66842019576041 ], [ 32.165446426060733, -9.969990467184159 ], [ 32.076346118594628, -10.017967555819755 ], [ 31.891291633857328, -9.9974059464045 ], [ 29.807715213111425, -7.379227680861952 ], [ 29.341652066365629, -6.625302002302579 ], [ 28.450648991704529, -5.353909153459295 ], [ 28.467783666217237, -4.562287190971919 ] ] ] ] } },
{ "type": "Feature", "properties": { "id": null, "Zone": "переменно-влажных (в том числе муссонных) лесов" }, "geometry": { "type": "MultiPolygon", "coordinates": [ [ [ [ 31.157927564713198, -4.959811639666884 ], [ 31.425846312027325, -0.333951296437669 ], [ 31.740506498145461, 0.331375849858891 ], [ 31.809045196196312, 0.715192558943663 ], [ 31.945983842280558, 1.175496538846572 ], [ 31.988949009414021, 1.712561128014864 ], [ 31.903018675147095, 2.335556051450083 ], [ 31.774123173746702, 2.711501263867887 ], [ 31.706084280432279, 2.892263294445633 ], [ 31.521306995152649, 2.98783775234889 ], [ 31.329274309840347, 3.004385073842118 ], [ 31.164781434518286, 2.983823464426863 ], [ 31.075681127052178, 2.901577026765841 ], [ 31.003715494098763, 3.141462469943852 ], [ 30.833859407067212, 3.509156482762448 ], [ 30.833852421715427, 3.509171604222463 ], [ 29.989342762946173, 3.922803627723566 ], [ 29.180586125946121, 4.183250680316803 ], [ 27.521949633115501, 4.38886677446936 ], [ 25.931851838335731, 4.484820951740552 ], [ 24.177261168233912, 4.498528691350723 ], [ 17.076652050165642, 4.649313827062597 ], [ 15.870370964470647, 4.580775129011746 ], [ 14.97936788980957, 4.813806702384644 ], [ 14.541683602371624, 4.966783734887227 ], [ 13.567470709962016, 5.307285328350779 ], [ 12.416020582707702, 5.512901422503335 ], [ 11.614117815512724, 5.389531766011756 ], [ 11.764902951224599, 5.691102037435505 ], [ 11.984226784987325, 6.047503267299936 ], [ 12.326920275241584, 6.349073538723685 ], [ 12.463997671343289, 6.540981893266071 ], [ 12.628490546665333, 6.705474768588116 ], [ 12.779275682377207, 6.801428945859309 ], [ 12.998599516139935, 6.869967643910161 ], [ 13.16309239146198, 6.84255216468982 ], [ 13.368708485614535, 6.705474768588116 ], [ 13.629155538207772, 6.540981893266071 ], [ 13.821063892750159, 6.49985867443556 ], [ 14.136341903784079, 6.472443195215218 ], [ 14.667516813678207, 6.08177261632537 ], [ 15.160995439644342, 5.876156522172813 ], [ 16.03143690489016, 5.780202344901621 ], [ 17.052663505847857, 5.848741042952473 ], [ 17.62153469966993, 5.869302652367729 ], [ 18.923769962636118, 6.205142272816904 ], [ 20.054658480475176, 6.41075836696946 ], [ 20.534429366831141, 6.486150934825397 ], [ 21.041615732407443, 6.506712544240653 ], [ 21.404870832076959, 6.513566414045737 ], [ 21.884641718432924, 6.527274153655908 ], [ 22.542613219721101, 6.397050627359289 ], [ 23.275977288865221, 6.170872923791478 ], [ 24.468550634950038, 5.807617824121961 ], [ 24.818097995009381, 5.739079126071109 ], [ 25.359553709611113, 5.732225256266025 ], [ 26.209433565441678, 5.684248167630428 ], [ 27.285491124840053, 5.478632073477872 ], [ 27.922901016712977, 5.389531766011764 ], [ 29.423898504026642, 5.129084713418528 ], [ 30.006477437458884, 4.978299577706653 ], [ 30.602764110501294, 4.752121874138842 ], [ 30.760403116018253, 4.683583176087989 ], [ 31.075681127052174, 4.567067389401541 ], [ 31.432082356916602, 4.423136123494752 ], [ 31.754214237755608, 4.258643248172707 ], [ 32.186008035475979, 3.99819619557947 ], [ 32.453308957874299, 3.799433971231999 ], [ 32.802856317933646, 3.607525616689613 ], [ 33.227796245848928, 3.223708907604843 ], [ 33.378581381560799, 3.052362162477713 ], [ 33.543074256882846, 2.545175796901408 ], [ 33.515658777662502, 2.312144223528511 ], [ 33.371727511755715, 1.74327302970644 ], [ 33.248357855264182, 1.441702758282691 ], [ 33.083864979942135, 1.016762830367409 ], [ 33.145549808187901, 0.495868725180934 ], [ 33.124988198772648, 0.166882974536844 ], [ 33.070157240331966, -0.134687296886905 ], [ 32.953641453645517, -0.628165922853039 ], [ 32.919372104620095, -0.991421022522554 ], [ 32.939933714035348, -1.210744856285281 ], [ 32.720609880272619, -1.608269304980222 ], [ 32.631509572806515, -2.177140498802293 ], [ 32.60409409358617, -2.506126249446383 ], [ 32.60409409358617, -2.75286556242945 ], [ 32.610947963391261, -2.979043265997262 ], [ 32.610947963391261, -3.328590626056607 ], [ 32.508139916314981, -3.712407335141378 ], [ 32.281962212747167, -4.055100825395638 ], [ 31.157927564713198, -4.959811639666884 ] ] ] ] } },
{ "type": "Feature", "properties": { "id": null, "Zone": "переменно-влажных (в том числе муссонных) лесов" }, "geometry": { "type": "MultiPolygon", "coordinates": [ [ [ [ 12.227347039446471, -6.294447523629394 ], [ 12.322431674863511, -6.10009246177966 ], [ 12.182336866920252, -5.789930515163839 ], [ 11.91496300624209, -5.037986748884791 ], [ 11.093772820691925, -3.978826592630547 ], [ 10.06613528813574, -2.969482517105682 ], [ 9.405245395554971, -2.144313246269043 ], [ 8.79799563969317, -1.111301364754496 ], [ 8.830086704146424, -0.779073581550037 ], [ 9.048419630579588, -0.459351494960217 ], [ 10.48236287955142, -0.937486230438255 ], [ 12.25152770738565, -1.409507080632723 ], [ 19.29730586701324, -2.451295291005675 ], [ 22.544610616935856, -3.172011497693727 ], [ 25.123095201335659, -3.657576376700672 ], [ 26.452745943522189, -3.91802342929391 ], [ 27.22037936169173, -4.370378836429533 ], [ 28.179921134403656, -4.630825889022771 ], [ 28.467783666217237, -4.562287190971919 ], [ 28.450648991704529, -5.353909153459295 ], [ 29.341652066365629, -6.625302002302579 ], [ 27.660014073591952, -6.900879374497451 ], [ 25.338992100195849, -7.766471324849284 ], [ 25.064837307992441, -7.944671939781499 ], [ 22.487782261280415, -9.229772528234978 ], [ 22.384974214204135, -9.305165096090915 ], [ 18.793546436339483, -9.53819666946381 ], [ 18.464560685695396, -9.599881497709577 ], [ 18.306921680178434, -9.517635060048555 ], [ 18.108159455830965, -9.35314218472651 ], [ 16.387359153063787, -8.16989749262768 ], [ 15.599643107169783, -7.605405384429785 ], [ 14.873132907830751, -7.317542852616207 ], [ 13.982129833169676, -6.508786215616154 ], [ 13.310450592271327, -6.275754642243257 ], [ 12.227347039446471, -6.294447523629394 ] ] ] ] } },
{ "type": "Feature", "properties": { "id": null, "Zone": "жестколистных вечнозеленых лесов и кустарников" }, "geometry": { "type": "MultiPolygon", "coordinates": [ [ [ [ 10.149592726287125, 34.330773016897709 ], [ 10.013739216025353, 34.700105987458628 ], [ 9.88008875482617, 34.98454158436968 ], [ 10.099412588588896, 35.258696376573084 ], [ 10.19536676586009, 35.697344044098543 ], [ 10.167951286639749, 35.820713700590076 ], [ 10.030873890538045, 35.916667877861265 ], [ 9.729303619114296, 35.889252398640927 ], [ 9.002793419775264, 35.656220825268029 ], [ 8.376367628623768, 35.479876003555944 ], [ 7.933589730181972, 35.519143429166327 ], [ 7.19337179123277, 35.72475952331888 ], [ 6.754724123707317, 35.793298221369731 ], [ 6.206414539300501, 35.793298221369731 ], [ 6.041921663978456, 35.711051783708712 ], [ 5.658104954893684, 35.546558908386665 ], [ 3.314081481554544, 35.053080282420531 ], [ 2.86172607441892, 34.888587407098484 ], [ 1.285336019249325, 34.724094531776437 ], [ 0.599949038740805, 34.504770698013715 ], [ -0.387008213191464, 34.326570083081499 ], [ -1.730366694988165, 34.175784947369621 ], [ -1.758226750334069, 34.172799941439706 ], [ -2.114183404072936, 34.134661728539115 ], [ -2.470584633937366, 34.148369468149284 ], [ -3.731696678073044, 34.011292072047581 ], [ -4.005851470276452, 33.956461113606899 ], [ -4.608992013123951, 33.65489084218315 ], [ -5.020224201429063, 33.380736049979738 ], [ -7.473909591649569, 32.051085307793201 ], [ -7.80289534229366, 31.927715651301668 ], [ -8.433451364361499, 31.69468407792877 ], [ -8.543113281242862, 31.598729900657577 ], [ -9.050299646819166, 31.351990587674507 ], [ -9.814718390329176, 31.17773550060906 ], [ -9.434793260119363, 32.038096421836485 ], [ -9.300692918321886, 32.564679266890664 ], [ -8.657476365585012, 33.240245266242425 ], [ -7.654178432638219, 33.697064927702513 ], [ -6.912544114601417, 34.110476386037476 ], [ -6.244342006851411, 35.145865383437524 ], [ -5.92999426921989, 35.75998810479399 ], [ -5.193863491222032, 35.755182196590852 ], [ -4.591006232105144, 35.330711981745594 ], [ -3.640056525070065, 35.399855048152006 ], [ -2.604305792644084, 35.179093329401155 ], [ -2.169913702798624, 35.16839630791668 ], [ -1.208602871089056, 35.714848741187097 ], [ -0.127454392894606, 35.888662421200806 ], [ 0.503876580415209, 36.301272894835279 ], [ 1.466918572606545, 36.605647081034405 ], [ 3.161698846050825, 36.78390493422522 ], [ 4.81575809084913, 36.865036932923459 ], [ 5.320120070017794, 36.716518866516623 ], [ 6.261819695672613, 37.110655015606739 ], [ 7.330384962603971, 37.118380642234371 ], [ 7.737078484741005, 36.885707505840216 ], [ 8.420964389691676, 36.946427313783161 ], [ 9.509993523810607, 37.349994411766545 ], [ 10.210002475636317, 37.230001735984814 ], [ 10.180650262094531, 36.724037787415085 ], [ 11.02886722173335, 37.092103176413957 ], [ 11.100025668999251, 36.899996039368915 ], [ 10.600004510143094, 36.410000108377375 ], [ 10.593286573945138, 35.947444362932814 ], [ 10.939518670300687, 35.698984076473494 ], [ 10.807847120821009, 34.83350718844919 ], [ 10.149592726287125, 34.330773016897709 ] ] ] ] } },
{ "type": "Feature", "properties": { "id": null, "Zone": "жестколистных вечнозеленых лесов и кустарников" }, "geometry": { "type": "MultiPolygon", "coordinates": [ [ [ [ 18.221761508871481, -31.661632989225669 ], [ 18.546807123356423, -31.395187477880505 ], [ 18.697592259068301, -31.381479738270336 ], [ 18.848377394780169, -31.402041347685589 ], [ 18.958039311661537, -31.477433915541528 ], [ 19.136239926593753, -32.107989937609368 ], [ 19.273317322695458, -32.628884042795846 ], [ 19.369271499966651, -32.985285272660271 ], [ 19.602303073339545, -33.245732325253513 ], [ 19.876457865542953, -33.410225200575553 ], [ 20.404205840534516, -33.430786809990813 ], [ 20.918246075915906, -33.355394242134871 ], [ 21.644756275254935, -33.149778147982317 ], [ 22.261604557712605, -32.971577533050102 ], [ 22.837329621339762, -32.807084657728055 ], [ 23.10805747864061, -32.69056887104162 ], [ 23.183450046496571, -32.803657722825548 ], [ 23.327381312403336, -32.896184965194173 ], [ 23.512435797140661, -32.927027379317082 ], [ 23.724905761098277, -32.896184965194173 ], [ 24.273215345505093, -32.813938527533153 ], [ 24.619335770661912, -32.803657722825541 ], [ 24.944894586403443, -32.868769485973836 ], [ 25.177926159776341, -33.005846882075538 ], [ 25.493204170810259, -33.22517071583826 ], [ 25.757078158306058, -33.478763898626411 ], [ 25.909664340933489, -33.667040297176399 ], [ 25.780628289500697, -33.944646091448341 ], [ 25.172861769315972, -33.796851495093584 ], [ 24.677853224392123, -33.987175795224552 ], [ 23.594043409934642, -33.794474379208154 ], [ 22.988188917744736, -33.916430759416983 ], [ 22.574157342222236, -33.864082533505311 ], [ 21.542799106541025, -34.258838799782936 ], [ 20.689052768647002, -34.417175388325234 ], [ 20.071261020597632, -34.795136814107991 ], [ 19.616405063564571, -34.819166355123713 ], [ 19.193278435958717, -34.462598972309792 ], [ 18.85531456876987, -34.444305515278465 ], [ 18.42464318204938, -33.99787281670897 ], [ 18.377410922934615, -34.136520684548067 ], [ 18.24449913907992, -33.86775156019803 ], [ 18.250080193767445, -33.281430759414441 ], [ 17.925190463948439, -32.611290785453427 ], [ 18.247909783611192, -32.42913136162457 ], [ 18.221761508871481, -31.661632989225669 ] ] ] ] } },
{ "type": "Feature", "properties": { "id": null, "Zone": "переменно-влажных (в том числе муссонных) лесов" }, "geometry": { "type": "MultiPolygon", "coordinates": [ [ [ [ 35.385848253705404, -22.14 ], [ 35.562545536369086, -22.09 ], [ 35.533934767404304, -23.070787855727758 ], [ 35.371774122872381, -23.535358982031699 ], [ 35.607470330555628, -23.706563002214683 ], [ 35.458745558419622, -24.122609958596549 ], [ 35.040734897610662, -24.478350518493805 ], [ 34.215824008935471, -24.816314385682659 ], [ 33.013210076639012, -25.357573337507738 ], [ 32.574632195777866, -25.727318210556092 ], [ 32.660363396950089, -26.148584486599447 ], [ 32.915955031065693, -26.215867201443466 ], [ 32.830120477028885, -26.742191664336197 ], [ 32.580264926897684, -27.470157566031816 ], [ 32.462132602678452, -28.301011244420557 ], [ 32.203388706193039, -28.752404880490069 ], [ 31.521001417778876, -29.257386976846256 ], [ 31.325561150851001, -29.401977634398914 ], [ 30.901762729625347, -29.909956963828037 ], [ 30.622813348113819, -30.423775730106129 ], [ 30.055716180142781, -31.140269463832958 ], [ 28.925552605919538, -32.172041110972501 ], [ 28.2197558936771, -32.771952813448856 ], [ 27.464608188595975, -33.226963799778801 ], [ 26.419452345492825, -33.614950453426189 ], [ 25.909664340933489, -33.667040297176399 ], [ 25.757078158306058, -33.478763898626411 ], [ 25.493204170810259, -33.22517071583826 ], [ 26.534992381183212, -32.923600444414518 ], [ 26.89139361104764, -32.69056887104162 ], [ 27.960597300640934, -31.799565796380541 ], [ 28.714522979200307, -31.018224638600827 ], [ 29.194293865556268, -30.538453752244862 ], [ 29.852265366844449, -29.729697115244811 ], [ 30.537652347352967, -28.564539248380335 ], [ 30.935176796047909, -27.371965902295511 ], [ 31.032531433191959, -27.058605663988093 ], [ 31.373824463573364, -25.960068722447957 ], [ 31.441563455059146, -25.699534139810325 ], [ 31.552025078505576, -25.274681741939421 ], [ 31.510901859675066, -24.822326334803797 ], [ 31.96668420171325, -24.596148631235977 ], [ 32.99476467247603, -24.102670005269839 ], [ 33.968014184798129, -23.581775900083365 ], [ 34.721939863357498, -23.115712753337572 ], [ 35.050925614001592, -22.718188304642631 ], [ 35.385848253705404, -22.14 ] ] ] ] } },
{ "type": "Feature", "properties": { "id": null, "Zone": "полупустынь и пустынь" }, "geometry": { "type": "MultiPolygon", "coordinates": [ [ [ [ 13.312913852601866, -12.483630466362492 ], [ 13.495505077008637, -12.409968117794529 ], [ 13.666851822135758, -12.382552638574172 ], [ 13.893029525703579, -12.444237466819954 ], [ 14.050668531220529, -12.533337774286046 ], [ 14.153476578296818, -12.718392259023362 ], [ 14.174038187712062, -12.999400921031841 ], [ 13.584605384474735, -17.331046637845688 ], [ 13.743384573654758, -18.199212421264271 ], [ 15.517396669508759, -21.37482982284596 ], [ 15.681889544830813, -21.553030437778176 ], [ 15.791551461712167, -21.840892969591756 ], [ 15.956044337034211, -22.539987689710443 ], [ 16.038290774695234, -23.389867545541009 ], [ 16.106829472746089, -23.670876207549504 ], [ 16.312445566898642, -23.842222952676636 ], [ 16.476938442220689, -23.903907780922399 ], [ 16.641431317542732, -23.910761650727487 ], [ 16.87446289091563, -23.869638431896973 ], [ 17.066371245458015, -23.74626877540544 ], [ 17.244571860390231, -23.362452066320671 ], [ 17.518726652593639, -22.937512138405388 ], [ 17.648950178890257, -22.848411830939266 ], [ 17.83400466362756, -22.814142481913834 ], [ 18.039620757780114, -22.834704091329098 ], [ 18.210967502907241, -22.903242789379949 ], [ 18.697592259068294, -23.437844634176589 ], [ 19.561179854509028, -24.431655755913962 ], [ 19.895767856534434, -24.767790215760591 ], [ 20.644091283712488, -25.336366570185209 ], [ 21.06903121162777, -25.939507113032704 ], [ 21.288355045390496, -26.652309572761567 ], [ 21.576217577204076, -27.529604907812473 ], [ 21.973742025899018, -28.023083533778607 ], [ 22.460366782060078, -28.256115107151523 ], [ 22.988114757051626, -28.365777024032866 ], [ 23.714624956390658, -28.283530586371846 ], [ 24.002487488204245, -28.235553497736269 ], [ 24.208103582356792, -28.256115107151505 ], [ 24.4411351557297, -28.338361544812546 ], [ 24.591920291441564, -28.461731201304062 ], [ 24.715289947933108, -28.633077946431211 ], [ 24.824951864814462, -28.872963389609172 ], [ 24.872928953450067, -29.188241400643111 ], [ 24.852367344034803, -29.544642630507521 ], [ 24.495966114170376, -30.819462414253366 ], [ 23.906467729945479, -31.471978779291792 ], [ 23.327381312403336, -32.210797984685655 ], [ 23.10805747864061, -32.69056887104162 ], [ 22.837329621339762, -32.807084657728055 ], [ 22.261604557712605, -32.971577533050102 ], [ 21.644756275254935, -33.149778147982317 ], [ 20.918246075915906, -33.355394242134871 ], [ 20.404205840534516, -33.430786809990813 ], [ 19.876457865542953, -33.410225200575553 ], [ 19.602303073339545, -33.245732325253513 ], [ 19.369271499966651, -32.985285272660271 ], [ 19.273317322695458, -32.628884042795846 ], [ 19.136239926593753, -32.107989937609368 ], [ 18.958039311661537, -31.477433915541528 ], [ 18.848377394780169, -31.402041347685589 ], [ 18.697592259068301, -31.381479738270336 ], [ 18.546807123356423, -31.395187477880505 ], [ 18.221761508871481, -31.661632989225669 ], [ 17.566917758868868, -30.725721123987547 ], [ 17.064416131262703, -29.878641045859162 ], [ 17.062917514726223, -29.875953871379984 ], [ 16.344976840895242, -28.576705010697701 ], [ 15.601818068105816, -27.821247247022804 ], [ 15.210472446359461, -27.090955905874047 ], [ 14.989710727608553, -26.117371921495156 ], [ 14.743214145576331, -25.39292001719538 ], [ 14.408144158595833, -23.853014011329847 ], [ 14.385716586981149, -22.656652927340691 ], [ 14.257714064194175, -22.111208184499958 ], [ 13.86864220546866, -21.699036960539978 ], [ 13.352497999737439, -20.872834161057504 ], [ 12.826845330464494, -19.673165785401665 ], [ 12.608564080463621, -19.045348809487699 ], [ 11.794918654028066, -18.069129327061916 ], [ 11.734198846085121, -17.301889336824473 ], [ 11.640096062881611, -16.673142185129251 ], [ 11.778537224991537, -15.793816013250735 ], [ 12.123580763404391, -14.878316338767904 ], [ 12.175618930722294, -14.449143568583892 ], [ 12.500095249082991, -13.54769988368445 ], [ 12.738478631245385, -13.137905775609902 ], [ 13.312913852601866, -12.483630466362492 ] ] ] ] } },
{ "type": "Feature", "properties": { "id": null, "Zone": "переменно-влажных (в том числе муссонных) лесов" }, "geometry": { "type": "MultiPolygon", "coordinates": [ [ [ [ 49.845860322003787, -13.808157558031859 ], [ 50.056510857957164, -13.555761407121985 ], [ 50.217431268114069, -14.758788750876796 ], [ 50.476536899625529, -15.226512139550543 ], [ 50.377111443895956, -15.706069431219127 ], [ 50.200274692593183, -16.000263360256767 ], [ 49.860605503138679, -15.414252618066918 ], [ 49.672606642460863, -15.710203545802479 ], [ 49.863344354050156, -16.451036879138776 ], [ 49.774564243372708, -16.875042006093601 ], [ 49.498612094934117, -17.106035658438273 ], [ 49.435618523970305, -17.953064060134366 ], [ 49.041792433473944, -19.118781019774445 ], [ 48.548540887248009, -20.496888116134127 ], [ 47.930749139198667, -22.391501153251085 ], [ 47.547723423051309, -23.781958916928517 ], [ 47.095761346226595, -24.941629733990453 ], [ 46.282477654817086, -25.178462823184105 ], [ 45.409507684110451, -25.601434421493089 ], [ 45.767807787978064, -24.452217365329258 ], [ 45.90488518407976, -24.472778974744514 ], [ 46.137916757452672, -24.452217365329258 ], [ 46.412071549656083, -24.328847708837721 ], [ 46.569710555173032, -24.164354833515677 ], [ 46.597126034393369, -23.801099733846158 ], [ 47.351051712952753, -20.168548737150974 ], [ 47.80340712008838, -19.250130183269551 ], [ 48.09126965190196, -18.537327723540685 ], [ 48.365424444105372, -17.824525263811818 ], [ 48.365424444105372, -17.536662731998234 ], [ 48.447670881766399, -17.043184106032097 ], [ 48.488794100596905, -16.727906094998175 ], [ 48.625871496698615, -16.330381646303231 ], [ 48.872610809681682, -16.097350072930332 ], [ 49.201596560325775, -15.740948843065899 ], [ 49.557997790190207, -15.082977341777715 ], [ 49.777321623952936, -14.479836798930213 ], [ 49.941814499274983, -14.041189131404757 ], [ 49.845860322003787, -13.808157558031859 ] ] ] ] } },
{ "type": "Feature", "properties": { "id": null, "Zone": "саванн и редколесий" }, "geometry": { "type": "MultiPolygon", "coordinates": [ [ [ [ 49.845860322003787, -13.808157558031859 ], [ 49.489459092139356, -13.794449818421688 ], [ 48.447670881766399, -15.082977341777715 ], [ 48.269470266834176, -15.288593435930274 ], [ 48.104977391512136, -15.549040488523513 ], [ 46.131062887647566, -18.153511014455912 ], [ 45.925446793495013, -18.496204504710175 ], [ 44.239394821444037, -22.44403351243928 ], [ 44.253102561054206, -22.786727002693542 ], [ 44.321641259105064, -23.033466315676613 ], [ 44.424526487094873, -23.538564723166829 ], [ 44.609503790918644, -24.143793224100424 ], [ 44.664334749359327, -24.212331922151275 ], [ 44.938489541562731, -24.212331922151275 ], [ 45.651292001291608, -24.356263188058065 ], [ 45.767807787978064, -24.452217365329258 ], [ 45.409507684110451, -25.601434421493089 ], [ 44.833573846217554, -25.34610116953894 ], [ 44.039720493349762, -24.988345228782308 ], [ 43.763768344911171, -24.460677178649991 ], [ 43.697777540874455, -23.574116306250602 ], [ 43.345654331237625, -22.776903985283873 ], [ 43.254187046081, -22.057413018484123 ], [ 43.43329756040464, -21.336475111580189 ], [ 43.893682895692926, -21.163307386970128 ], [ 43.896370070172104, -20.830459486578174 ], [ 44.374325392439658, -20.072366224856388 ], [ 44.232421909366167, -18.961994724200906 ], [ 44.042976108584156, -18.331387220943171 ], [ 43.963084344260913, -17.409944756746782 ], [ 44.31246870298628, -16.850495700754955 ], [ 44.446517368351401, -16.216219170804507 ], [ 44.944936557806528, -16.179373874580399 ], [ 45.502731967964991, -15.974373467678539 ], [ 45.872993605336262, -15.793454278224687 ], [ 46.31224327981721, -15.780018405828798 ], [ 46.882182651564285, -15.210182386946315 ], [ 47.705129835812357, -14.594302666891764 ], [ 48.005214878131255, -14.091232598530375 ], [ 47.869047479042166, -13.663868503476586 ], [ 48.293827752481377, -13.784067884987486 ], [ 48.845060255738787, -13.089174899958664 ], [ 48.863508742066983, -12.487867933810421 ], [ 49.194651320193316, -12.04055673589197 ], [ 49.543518914595751, -12.469832858940554 ], [ 49.808980747279094, -12.895284925999555 ], [ 50.056510857957164, -13.555761407121985 ], [ 49.845860322003787, -13.808157558031859 ] ] ] ] } },
{ "type": "Feature", "properties": { "id": null, "Zone": "области высотной поясности" }, "geometry": { "type": "MultiPolygon", "coordinates": [ [ [ [ 39.208713357504408, 15.116984805433692 ], [ 40.464284593081537, 14.317797651983735 ], [ 40.972669125595203, 13.52164828974535 ], [ 41.068623302866399, 13.233785757931772 ], [ 41.205700698968101, 12.754014871575809 ], [ 41.205700698968101, 12.425029120931718 ], [ 41.294801006434199, 12.171435938143567 ], [ 41.473001621366414, 11.294140603092663 ], [ 41.801987372010508, 10.375722049211241 ], [ 42.15838860187494, 10.046736298567152 ], [ 42.52849757134954, 9.911167391528499 ], [ 43.708981248712142, 9.709669686402085 ], [ 44.89993652390902, 9.662919589482382 ], [ 43.982429794479557, 7.28283393682465 ], [ 43.471660190269731, 6.239087354308926 ], [ 43.035683936925849, 5.598574795066868 ], [ 42.871191061603803, 5.420374180134652 ], [ 42.516743104138321, 5.084303901312805 ], [ 41.983766125832425, 4.828919099207893 ], [ 41.144015870722335, 4.68015624118545 ], [ 40.842445599298586, 4.66644850157528 ], [ 40.458628890213816, 4.734987199626133 ], [ 40.157058618790067, 4.830941376897325 ], [ 37.874719973696685, 5.091388429490559 ], [ 37.696519358764476, 5.201050346371923 ], [ 37.09526859365311, 5.669236471491632 ], [ 36.462822793849135, 6.352500473626236 ], [ 36.407991835408453, 6.48957786972794 ], [ 36.180221453369327, 7.087776978220527 ], [ 36.057140152747053, 7.665312311909676 ], [ 36.106421563984711, 8.737647165795885 ], [ 36.120129303594879, 9.148879354100991 ], [ 36.599900189950844, 11.917842755355412 ], [ 37.984381890578049, 13.699848904677571 ], [ 39.208713357504408, 15.116984805433692 ] ] ] ] } },
{ "type": "Feature", "properties": { "id": null, "Zone": "области высотной поясности" }, "geometry": { "type": "MultiPolygon", "coordinates": [ [ [ [ 49.489459092139356, -13.794449818421688 ], [ 49.845860322003787, -13.808157558031859 ], [ 49.941814499274983, -14.041189131404757 ], [ 49.777321623952936, -14.479836798930213 ], [ 49.557997790190207, -15.082977341777715 ], [ 49.201596560325775, -15.740948843065899 ], [ 48.872610809681682, -16.097350072930332 ], [ 48.625871496698615, -16.330381646303231 ], [ 48.488794100596905, -16.727906094998175 ], [ 48.447670881766399, -17.043184106032097 ], [ 48.365424444105372, -17.536662731998234 ], [ 48.365424444105372, -17.824525263811818 ], [ 48.09126965190196, -18.537327723540685 ], [ 47.80340712008838, -19.250130183269551 ], [ 47.351051712952753, -20.168548737150974 ], [ 46.597126034393369, -23.801099733846158 ], [ 46.569710555173032, -24.164354833515677 ], [ 46.412071549656083, -24.328847708837721 ], [ 46.137916757452672, -24.452217365329258 ], [ 45.90488518407976, -24.472778974744514 ], [ 45.767807787978064, -24.452217365329258 ], [ 45.651292001291608, -24.356263188058065 ], [ 44.938489541562731, -24.212331922151275 ], [ 44.664334749359327, -24.212331922151275 ], [ 44.609503790918644, -24.143793224100424 ], [ 44.424526487094873, -23.538564723166829 ], [ 44.321641259105064, -23.033466315676613 ], [ 44.253102561054206, -22.786727002693542 ], [ 44.239394821444037, -22.44403351243928 ], [ 45.925446793495013, -18.496204504710175 ], [ 46.131062887647566, -18.153511014455912 ], [ 48.104977391512136, -15.549040488523513 ], [ 49.489459092139356, -13.794449818421688 ] ] ] ] } },
{ "type": "Feature", "properties": { "id": null, "Zone": "саванн и редколесий" }, "geometry": { "type": "MultiPolygon", "coordinates": [ [ [ [ 13.310450592271327, -6.275754642243257 ], [ 13.982129833169676, -6.508786215616154 ], [ 14.873132907830751, -7.317542852616207 ], [ 15.599643107169783, -7.605405384429785 ], [ 16.387359153063787, -8.16989749262768 ], [ 18.108159455830965, -9.35314218472651 ], [ 18.306921680178434, -9.517635060048555 ], [ 18.464560685695396, -9.599881497709577 ], [ 18.793546436339483, -9.53819666946381 ], [ 22.384974214204135, -9.305165096090915 ], [ 22.487782261280415, -9.229772528234978 ], [ 25.064837307992441, -7.944671939781499 ], [ 25.338992100195849, -7.766471324849284 ], [ 27.660014073591952, -6.900879374497451 ], [ 29.341652066365629, -6.625302002302579 ], [ 29.807715213111425, -7.379227680861952 ], [ 31.891291633857328, -9.9974059464045 ], [ 32.076346118594628, -10.017967555819755 ], [ 32.165446426060733, -9.969990467184159 ], [ 32.98791080267096, -9.66842019576041 ], [ 32.871395015984525, -8.235961406497609 ], [ 31.157927564713198, -4.959811639666884 ], [ 32.281962212747167, -4.055100825395638 ], [ 32.508139916314981, -3.712407335141378 ], [ 32.610947963391261, -3.328590626056607 ], [ 32.610947963391261, -2.979043265997262 ], [ 32.60409409358617, -2.75286556242945 ], [ 32.60409409358617, -2.506126249446383 ], [ 32.631509572806515, -2.177140498802293 ], [ 32.720609880272619, -1.608269304980222 ], [ 32.939933714035348, -1.210744856285281 ], [ 32.919372104620095, -0.991421022522554 ], [ 32.91975539210074, -0.987358175227702 ], [ 32.953641453645517, -0.628165922853039 ], [ 33.070157240331966, -0.134687296886905 ], [ 33.124988198772648, 0.166882974536844 ], [ 33.145549808187901, 0.495868725180934 ], [ 33.083864979942135, 1.016762830367409 ], [ 33.248357855264182, 1.441702758282691 ], [ 33.371727511755715, 1.74327302970644 ], [ 33.515658777662502, 2.312144223528511 ], [ 33.543074256882846, 2.545175796901408 ], [ 33.378581381560799, 3.052362162477713 ], [ 33.227796245848928, 3.223708907604843 ], [ 32.802856317933646, 3.607525616689613 ], [ 32.542490437079202, 3.750471590492053 ], [ 32.453308957874299, 3.799433971231999 ], [ 32.186008035475979, 3.99819619557947 ], [ 31.754214237755608, 4.258643248172707 ], [ 31.432082356916602, 4.423136123494752 ], [ 31.075681127052174, 4.567067389401541 ], [ 30.760403116018253, 4.683583176087989 ], [ 30.602764110501294, 4.752121874138842 ], [ 30.006477437458884, 4.978299577706653 ], [ 29.423898504026642, 5.129084713418528 ], [ 27.922901016712977, 5.389531766011764 ], [ 27.285491124840053, 5.478632073477872 ], [ 27.246298139629278, 5.48612117893216 ], [ 26.209433565441678, 5.684248167630428 ], [ 25.359553709611113, 5.732225256266025 ], [ 24.818097995009381, 5.739079126071109 ], [ 24.468550634950038, 5.807617824121961 ], [ 23.275977288865221, 6.170872923791478 ], [ 22.542613219721101, 6.397050627359289 ], [ 21.884641718432924, 6.527274153655908 ], [ 21.404870832076959, 6.513566414045737 ], [ 21.041615732407443, 6.506712544240653 ], [ 20.534429366831141, 6.486150934825397 ], [ 20.054658480475176, 6.41075836696946 ], [ 18.923769962636118, 6.205142272816904 ], [ 17.62153469966993, 5.869302652367729 ], [ 17.052663505847857, 5.848741042952473 ], [ 16.03143690489016, 5.780202344901621 ], [ 15.160995439644342, 5.876156522172813 ], [ 14.667516813678207, 6.08177261632537 ], [ 14.532028016722228, 6.181422441183309 ], [ 14.136341903784079, 6.472443195215218 ], [ 14.396788956377316, 6.49985867443556 ], [ 14.698359227801065, 6.582105112096582 ], [ 14.86285210312311, 6.650643810147434 ], [ 14.909421340798161, 6.676256890868713 ], [ 15.137006895326518, 6.801428945859309 ], [ 15.274084291428222, 6.911090862740672 ], [ 15.520823604411289, 7.17153791533391 ], [ 15.575654562851971, 7.322323051045784 ], [ 15.628176126249771, 7.453626959540285 ], [ 15.657901000512993, 7.52793914519834 ], [ 15.657901000512993, 7.678724280910215 ], [ 15.589362302462142, 7.802093937401748 ], [ 15.507115864801118, 7.84321715623226 ], [ 15.353240278642835, 7.873992273463917 ], [ 15.301499770648563, 7.884340375062771 ], [ 13.889602590801012, 8.19961838609669 ], [ 13.683986496648455, 8.240741604927202 ], [ 13.038567214627623, 8.381503586003562 ], [ 12.381751233682266, 8.364111261418735 ], [ 12.218872104550599, 8.305824082874324 ], [ 11.664078202395572, 8.121984681596112 ], [ 11.077757714660223, 7.699064985524712 ], [ 10.024020020732955, 6.650643810147434 ], [ 9.989750671707533, 6.506712544240692 ], [ 9.596124266286019, 7.212243512919965 ], [ 8.736611331181523, 7.355495668770715 ], [ 7.590594084375527, 7.248056551882653 ], [ 6.265511642756095, 7.391308707733402 ], [ 4.451823869198684, 7.445692707537366 ], [ 3.711605930249481, 7.514231405588218 ], [ 3.03992668935113, 7.25378435299498 ], [ 2.71520244064989, 6.919219975545217 ], [ 2.587571282215507, 6.787721206249186 ], [ 2.331396952227199, 6.207958248907226 ], [ 1.865240512712319, 6.142157701029731 ], [ 1.437575972464828, 6.038260179595737 ], [ 1.060121697604927, 5.928837388528876 ], [ 0.312086506927228, 6.061211006910137 ], [ -0.23622307747959, 6.390196757554227 ], [ -0.496670130072827, 6.664351549757635 ], [ -0.715993963835554, 6.979629560791555 ], [ -1.442504163174585, 7.418277228317008 ], [ -1.634412517716971, 7.431984967927178 ], [ -2.182722102123787, 7.390861749096667 ], [ -2.676200728089921, 7.240076613384793 ], [ -3.060167335074703, 7.048093309892402 ], [ -3.306756750157761, 6.924798602350873 ], [ -3.663157980022191, 6.80142894585934 ], [ -4.074390168327303, 6.760305727028829 ], [ -4.828315846886676, 6.719182508198317 ], [ -5.499995087785026, 6.911090862740703 ], [ -6.089427891022353, 7.1441224361136 ], [ -6.692568433869852, 7.349738530266156 ], [ -7.569863768920756, 7.500523665978029 ], [ -8.104465613717402, 7.747262978961096 ], [ -8.258867438873637, 7.848843127090198 ], [ -8.625359718903878, 8.089956469215355 ], [ -8.940637729937798, 8.281864823757742 ], [ -9.502655053954784, 8.610850574401832 ], [ -9.845348544209045, 8.789051189334048 ], [ -10.503320045497224, 9.076913721147626 ], [ -10.63647489260376, 9.141473647017461 ], [ -10.955675452632848, 9.296237554910352 ], [ -11.627354693531197, 9.57039234711376 ], [ -12.425928514037565, 9.835834051955956 ], [ -13.162621529870284, 9.858254878927339 ], [ -14.074044969122282, 9.886166897008252 ], [ -14.330075852912371, 10.015719712763968 ], [ -14.579698859098258, 10.214467271358515 ], [ -14.693231980843505, 10.656300767454042 ], [ -14.839553798877944, 10.876571560098141 ], [ -15.130311245168173, 11.040411688679526 ], [ -15.664180467175527, 11.458474025920795 ], [ -16.085214199273565, 11.52459402103824 ], [ -16.314786749730203, 11.80651479740655 ], [ -16.30894731288123, 11.95870189050612 ], [ -16.613838263403281, 12.170911159712702 ], [ -16.677451951554573, 12.384851589401052 ], [ -16.841524624081273, 13.151393947802561 ], [ -16.713728807023472, 13.594958604379855 ], [ -17.126106736712615, 14.373515733289224 ], [ -17.625042690490659, 14.729540513564073 ], [ -17.185172898822231, 14.919477240452862 ], [ -16.700706346085923, 15.621527411354108 ], [ -16.463098110407884, 16.13503611903846 ], [ -16.549707810929064, 16.673892116761962 ], [ -16.270551723688357, 17.166962795474873 ], [ -16.14634741867485, 18.108481553616656 ], [ -15.811642209535677, 17.921832704610047 ], [ -15.606026115383122, 17.921832704610047 ], [ -15.071424270586476, 17.990371402660898 ], [ -9.72540582262002, 17.921832704610047 ], [ -9.34158911353525, 17.894417225389706 ], [ -8.395755080433492, 17.853294006559196 ], [ -7.62812166226395, 18.154864277982945 ], [ -7.203181734348669, 18.195987496813459 ], [ -6.353301878518104, 18.058910100711753 ], [ -5.942069690212993, 17.784755308508345 ], [ -5.634061119626594, 17.626588745234251 ], [ -5.434883324636687, 17.524308255915109 ], [ -4.941404698670553, 17.400938599423576 ], [ -4.393095114263738, 17.373523120203235 ], [ -3.735123612975558, 17.332399901372725 ], [ -2.994905674026358, 17.387230859813403 ], [ -2.4191806103992, 17.524308255915109 ], [ -2.09019485975511, 17.661385652016811 ], [ -1.706378150670339, 17.812170787728686 ], [ -1.089529868212672, 18.18227975720329 ], [ -0.609758981856707, 18.442726809796525 ], [ -0.225942272771936, 18.63463516433891 ], [ 0.514275666177264, 18.799128039660957 ], [ 1.624602574601067, 18.758004820830443 ], [ 1.967296064855327, 18.648342903949082 ], [ 2.584144347312997, 17.921832704610047 ], [ 3.324362286262199, 17.003414150728631 ], [ 3.982333787550377, 16.729259358525226 ], [ 4.159290967214613, 16.716731416602094 ], [ 5.531308363499632, 16.619597441643862 ], [ 7.943870534889623, 16.975998671508293 ], [ 9.424306412788026, 16.93487545267778 ], [ 9.958908257584669, 16.770382577355736 ], [ 11.329682218601709, 16.002749159186195 ], [ 12.810118096500112, 15.427024095559037 ], [ 13.857396812446074, 15.334227247310661 ], [ 13.893029525703573, 15.331069918287845 ], [ 19.485787286653093, 14.261866228694554 ], [ 21.80239528077189, 14.179619791033533 ], [ 22.445406916196202, 14.167821412401894 ], [ 24.790682515789037, 14.124788832592852 ], [ 27.69672331314516, 14.261866228694554 ], [ 30.246362880636852, 14.673098416999668 ], [ 31.93241485268781, 15.180284782575971 ], [ 32.989322148794656, 16.454139895072693 ], [ 34.258009449566558, 17.267400985311092 ], [ 35.591757637557535, 17.657766308625526 ], [ 37.16747, 17.263140000000135 ], [ 37.970238113254439, 16.601208131546166 ], [ 38.381303964798498, 16.066822524538885 ], [ 39.208713357504408, 15.116984805433692 ], [ 38.43673729771367, 14.248158489084387 ], [ 37.984381890578049, 13.699848904677571 ], [ 36.599900189950844, 11.917842755355412 ], [ 36.120129303594879, 9.148879354100991 ], [ 36.106421563984711, 8.737647165795885 ], [ 36.057140152747053, 7.665312311909676 ], [ 36.180221453369327, 7.087776978220527 ], [ 36.407991835408453, 6.48957786972794 ], [ 36.462822793849135, 6.352500473626236 ], [ 37.09526859365311, 5.669236471491632 ], [ 37.696519358764476, 5.201050346371923 ], [ 37.874719973696685, 5.091388429490559 ], [ 40.157058618790067, 4.830941376897325 ], [ 40.458628890213816, 4.734987199626133 ], [ 40.842445599298586, 4.66644850157528 ], [ 41.144015870722335, 4.68015624118545 ], [ 41.983766125832425, 4.828919099207893 ], [ 42.516743104138321, 5.084303901312805 ], [ 42.871191061603803, 5.420374180134652 ], [ 43.035683936925849, 5.598574795066868 ], [ 43.471660190269731, 6.239087354308926 ], [ 43.982429794479557, 7.28283393682465 ], [ 44.89993652390902, 9.662919589482382 ], [ 46.22958726609555, 9.909658902465448 ], [ 46.887558767383723, 10.060444038177323 ], [ 47.33991417451935, 10.238644653109539 ], [ 48.3817023848923, 10.526507184923116 ], [ 48.742608420083648, 10.740603985460357 ], [ 48.938459091651879, 10.856786587238123 ], [ 49.190459021892352, 11.00627807127908 ], [ 49.72862, 11.5789 ], [ 50.25878, 11.67957 ], [ 50.73202, 12.0219 ], [ 51.1112, 12.02464 ], [ 51.13387, 11.74815 ], [ 51.04153, 11.16651 ], [ 51.04531, 10.6409 ], [ 50.83418, 10.27972 ], [ 50.55239, 9.19874 ], [ 50.07092, 8.08173 ], [ 49.4527, 6.80466 ], [ 48.59455, 5.33911 ], [ 47.74079, 4.2194 ], [ 46.56476, 2.85529 ], [ 45.56399, 2.04576 ], [ 44.06815, 1.05283 ], [ 43.13597, 0.2922 ], [ 42.04157, -0.91916 ], [ 41.81095, -1.44647 ], [ 41.58513, -1.68325 ], [ 40.88477, -2.08255 ], [ 40.63785, -2.49979 ], [ 40.26304, -2.57309 ], [ 40.12119, -3.27768 ], [ 39.60489, -4.34653 ], [ 39.20222, -4.67677 ], [ 38.74054, -5.90895 ], [ 38.79977, -6.47566 ], [ 39.44, -6.839999999999861 ], [ 39.470000000000141, -7.1 ], [ 39.19469, -7.7039 ], [ 39.25203, -8.00781 ], [ 39.18652, -8.48551 ], [ 39.53574, -9.112369999999885 ], [ 39.9496, -10.0984 ], [ 40.316586229110854, -10.317097752817492 ], [ 40.316588576017189, -10.317096042525698 ], [ 40.478387485523029, -10.765440769089993 ], [ 40.437253045418686, -11.761710707245015 ], [ 40.560811395028573, -12.639176527561027 ], [ 40.59962039567975, -14.201975192931862 ], [ 40.775475294768995, -14.691764418194241 ], [ 40.477250604012603, -15.406294447493972 ], [ 40.089263950365222, -16.10077402106446 ], [ 39.452558628097051, -16.72089120856694 ], [ 38.538350864421517, -17.101023044505958 ], [ 37.411132846838882, -17.586368096591237 ], [ 36.281279331209362, -18.659687595293448 ], [ 35.896496616364061, -18.842260430580637 ], [ 35.198399692533144, -19.552811374593894 ], [ 34.786383497870048, -19.784011732667736 ], [ 34.701892531072843, -20.497043145431011 ], [ 35.176127150215365, -21.254361260668411 ], [ 35.373427768705739, -21.840837090748877 ], [ 35.385848253705404, -22.14 ], [ 35.050925614001592, -22.718188304642631 ], [ 34.721939863357498, -23.115712753337572 ], [ 33.968014184798129, -23.581775900083365 ], [ 32.99476467247603, -24.102670005269839 ], [ 31.96668420171325, -24.596148631235977 ], [ 31.888121207086087, -24.635134778945698 ], [ 31.510901859675066, -24.822326334803797 ], [ 31.456070901234384, -24.479632844549538 ], [ 31.099669671369952, -24.013569697803746 ], [ 30.661022003844501, -23.684583947159656 ], [ 30.153835638268195, -23.50638333222744 ], [ 29.797434408403763, -23.492675592617271 ], [ 29.26283256360712, -23.711999426379997 ], [ 26.713192996115424, -25.973776462058112 ], [ 26.411622724691675, -26.289054473092033 ], [ 24.591920291441564, -28.461731201304062 ], [ 24.4411351557297, -28.338361544812546 ], [ 24.208103582356792, -28.256115107151505 ], [ 24.002487488204245, -28.235553497736269 ], [ 23.714624956390658, -28.283530586371846 ], [ 22.988114757051626, -28.365777024032866 ], [ 22.460366782060078, -28.256115107151523 ], [ 21.973742025899018, -28.023083533778607 ], [ 21.576217577204076, -27.529604907812473 ], [ 21.325798671668878, -26.766423481419487 ], [ 21.288355045390496, -26.652309572761567 ], [ 21.06903121162777, -25.939507113032704 ], [ 20.644091283712488, -25.336366570185209 ], [ 20.230913160325617, -25.022433713627166 ], [ 19.895767856534434, -24.767790215760591 ], [ 19.561179854509028, -24.431655755913962 ], [ 18.697592259068294, -23.437844634176589 ], [ 18.210967502907241, -22.903242789379949 ], [ 18.039620757780114, -22.834704091329098 ], [ 17.83400466362756, -22.814142481913834 ], [ 17.648950178890257, -22.848411830939266 ], [ 17.518726652593639, -22.937512138405388 ], [ 17.244571860390231, -23.362452066320671 ], [ 17.066371245458015, -23.74626877540544 ], [ 16.87446289091563, -23.869638431896973 ], [ 16.641431317542732, -23.910761650727487 ], [ 16.476938442220689, -23.903907780922399 ], [ 16.312445566898642, -23.842222952676636 ], [ 16.106829472746089, -23.670876207549504 ], [ 16.038290774695234, -23.389867545541009 ], [ 15.956044337034211, -22.539987689710443 ], [ 15.791551461712167, -21.840892969591756 ], [ 15.681889544830813, -21.553030437778176 ], [ 15.517396669508759, -21.37482982284596 ], [ 13.743384573654758, -18.199212421264271 ], [ 13.584605384474735, -17.331046637845688 ], [ 14.174038187712062, -12.999400921031841 ], [ 14.153476578296818, -12.718392259023362 ], [ 14.050668531220529, -12.533337774286046 ], [ 13.893029525703579, -12.444237466819954 ], [ 13.666851822135758, -12.382552638574172 ], [ 13.495505077008637, -12.409968117794529 ], [ 13.312913852601866, -12.483630466362492 ], [ 13.633721144269799, -12.03864470789717 ], [ 13.738727654686897, -11.297863050993165 ], [ 13.686379428775238, -10.73107594161589 ], [ 13.387327915102162, -10.373578383020714 ], [ 13.120987583069846, -9.766897067914122 ], [ 12.875369500386569, -9.166933689005468 ], [ 12.929061313537829, -8.959091078327553 ], [ 13.236432732809874, -8.562629489784307 ], [ 12.933040398824289, -7.596538588087733 ], [ 12.728298374083892, -6.927122084178805 ], [ 12.227347039446471, -6.294447523629394 ], [ 13.310450592271327, -6.275754642243257 ] ] ] ] } },
{ "type": "Feature", "properties": { "id": null, "Zone": "полупустынь и пустынь" }, "geometry": { "type": "MultiPolygon", "coordinates": [ [ [ [ -16.256883307347167, 19.096715806550307 ], [ -16.37765112961327, 19.593817246981985 ], [ -16.277838100641517, 20.092520656814699 ], [ -16.536323614965468, 20.567866319251493 ], [ -17.063423224342571, 20.999752102130827 ], [ -17.020428432675772, 21.422310288981578 ], [ -16.973247849993243, 21.885744533774982 ], [ -16.589136928767687, 22.158234361250095 ], [ -16.261921759495635, 22.679339504481277 ], [ -16.326413946995899, 23.017768459560898 ], [ -15.982610642958036, 23.723358466074046 ], [ -15.426003790742186, 24.359133612561038 ], [ -15.089331834360735, 24.520260728446999 ], [ -14.824645148161665, 25.103532619725343 ], [ -14.800925665739726, 25.63626496022232 ], [ -14.439939947964831, 26.254418443297652 ], [ -13.773804897506466, 26.618892320252314 ], [ -13.13994177901435, 27.640147813420526 ], [ -13.121613369914769, 27.654147671719841 ], [ -12.618836635783111, 28.038185533148692 ], [ -11.688919236690765, 28.148643907172527 ], [ -10.900956997104402, 28.83214223888092 ], [ -10.399592251008642, 29.098585923777819 ], [ -9.1736693033107, 28.816058759792984 ], [ -8.926929990327633, 28.678981363691278 ], [ -8.392328145530987, 28.678981363691278 ], [ -7.939972738395364, 28.925720676674345 ], [ -7.556156029310592, 29.3643683441998 ], [ -7.062677403344457, 29.830431490945593 ], [ -5.609657004666394, 30.598064909115138 ], [ -4.924270024157874, 30.899635180538887 ], [ -4.677530711174807, 31.02300483703042 ], [ -4.211467564429013, 31.201205451962636 ], [ -3.662287024795354, 31.382328973663686 ], [ -2.868109082632312, 31.73580729675928 ], [ -0.016899243716866, 32.77759550713224 ], [ 0.408040684198417, 32.873549684403436 ], [ 0.641072257571315, 32.996919340894969 ], [ 2.395662927673127, 33.312197351928887 ], [ 3.327789221164714, 33.572644404522123 ], [ 4.890471536724141, 34.162077207759452 ], [ 5.767766871775048, 34.340277822691668 ], [ 6.19270679969033, 34.47735521879337 ], [ 6.576523508775101, 34.518478437623884 ], [ 7.303033708114133, 34.449939739573033 ], [ 7.782804594470098, 34.408816520742519 ], [ 7.861029335254617, 34.401863210450564 ], [ 8.399652876927766, 34.353985562301837 ], [ 8.838300544453219, 34.463647479183201 ], [ 9.578518483402421, 34.737802271386613 ], [ 9.88008875482617, 34.98454158436968 ], [ 10.013739216025353, 34.700105987458628 ], [ 10.149592726287125, 34.330773016897709 ], [ 10.339658644256616, 33.785741685515319 ], [ 10.856836378633687, 33.768740139291282 ], [ 11.108500603895122, 33.293342800422195 ], [ 11.488787469131012, 33.136995754523241 ], [ 12.66331, 32.79278 ], [ 13.08326, 32.87882 ], [ 13.91868, 32.71196 ], [ 15.24563, 32.26508 ], [ 15.71394, 31.37626 ], [ 16.61162, 31.18218 ], [ 18.02109, 30.76357 ], [ 19.08641, 30.26639 ], [ 19.57404, 30.52582 ], [ 20.05335, 30.98576 ], [ 19.82033, 31.751790000000142 ], [ 20.13397, 32.2382 ], [ 20.85452, 32.7068 ], [ 21.54298, 32.8432 ], [ 22.89576, 32.63858 ], [ 23.2368, 32.19149 ], [ 23.609130000000107, 32.18726 ], [ 23.9275, 32.01667 ], [ 24.92114, 31.89936 ], [ 25.16482, 31.56915 ], [ 26.49533, 31.58568 ], [ 27.45762, 31.32126 ], [ 28.45048, 31.02577 ], [ 28.91353, 30.87005 ], [ 29.68342, 31.18686 ], [ 30.09503, 31.4734 ], [ 30.97693, 31.55586 ], [ 31.68796, 31.4296 ], [ 31.96041, 30.9336 ], [ 32.19247, 31.26034 ], [ 32.99392, 31.02407 ], [ 33.7734, 30.96746 ], [ 34.265434744646207, 31.219357309520319 ], [ 34.26544, 31.21936 ], [ 34.823243288783814, 29.761080761718219 ], [ 34.9226, 29.50133 ], [ 34.64174, 29.09942 ], [ 34.42655, 28.34399 ], [ 34.15451, 27.8233 ], [ 33.92136, 27.6487 ], [ 33.58811, 27.97136 ], [ 33.13676, 28.41765 ], [ 32.42323, 29.85108 ], [ 32.32046, 29.76043 ], [ 32.73482, 28.70523 ], [ 33.34876, 27.69989 ], [ 34.10455, 26.14227 ], [ 34.47387, 25.59856 ], [ 34.79507, 25.03375 ], [ 35.69241, 23.92671 ], [ 35.49372, 23.75237 ], [ 35.52598, 23.10244 ], [ 36.69069, 22.20485 ], [ 36.86623, 22.0 ], [ 37.188720000000103, 21.01885 ], [ 36.96941, 20.837440000000129 ], [ 37.114700000000141, 19.80796 ], [ 37.481790000000103, 18.61409 ], [ 37.86276, 18.36786 ], [ 38.410089959473225, 17.998307399970315 ], [ 38.990622999840014, 16.840626125551694 ], [ 39.26611006038803, 15.922723496967251 ], [ 39.814293654140215, 15.435647284400318 ], [ 41.179274936697652, 14.491079616753211 ], [ 41.734951613132353, 13.921036892141558 ], [ 42.276830682144862, 13.343992010954423 ], [ 42.589576450375262, 13.000421250861905 ], [ 43.081226027200159, 12.699638576707116 ], [ 43.317852410664671, 12.390148423711025 ], [ 43.286381463398925, 11.974928290245884 ], [ 42.715873650896526, 11.735640570518342 ], [ 43.145304803242141, 11.462039699748857 ], [ 43.470659620951665, 11.277709865763882 ], [ 43.666668328634842, 10.864169216348159 ], [ 44.11780358254282, 10.445538438351605 ], [ 44.614259067570856, 10.442205308468942 ], [ 45.556940545439147, 10.698029486529776 ], [ 46.645401238803004, 10.816549383991173 ], [ 47.525657586462785, 11.12722809492999 ], [ 48.021596307167783, 11.193063869669743 ], [ 48.37878380716927, 11.375481675660126 ], [ 48.948206414593471, 11.41062164961852 ], [ 48.948204758509853, 11.41061728169797 ], [ 49.26776, 11.43033 ], [ 49.72862, 11.5789 ], [ 49.190459021892352, 11.00627807127908 ], [ 48.742608420083648, 10.740603985460357 ], [ 48.3817023848923, 10.526507184923116 ], [ 47.33991417451935, 10.238644653109539 ], [ 46.887558767383723, 10.060444038177323 ], [ 46.22958726609555, 9.909658902465448 ], [ 44.89993652390902, 9.662919589482382 ], [ 43.708981248712142, 9.709669686402085 ], [ 42.52849757134954, 9.911167391528499 ], [ 42.15838860187494, 10.046736298567152 ], [ 41.801987372010508, 10.375722049211241 ], [ 41.473001621366414, 11.294140603092663 ], [ 41.294801006434199, 12.171435938143567 ], [ 41.205700698968101, 12.425029120931718 ], [ 41.205700698968101, 12.754014871575809 ], [ 41.068623302866399, 13.233785757931772 ], [ 40.972669125595203, 13.52164828974535 ], [ 40.464284593081537, 14.317797651983735 ], [ 39.208713357504408, 15.116984805433692 ], [ 38.381303964798498, 16.066822524538885 ], [ 37.970238113254439, 16.601208131546166 ], [ 37.16747, 17.263140000000135 ], [ 35.591757637557535, 17.657766308625526 ], [ 34.258009449566558, 17.267400985311092 ], [ 32.989322148794656, 16.454139895072693 ], [ 31.93241485268781, 15.180284782575971 ], [ 30.246362880636852, 14.673098416999668 ], [ 27.69672331314516, 14.261866228694554 ], [ 24.790682515789037, 14.124788832592852 ], [ 21.80239528077189, 14.179619791033533 ], [ 19.485787286653093, 14.261866228694554 ], [ 13.893029525703573, 15.331069918287845 ], [ 12.810118096500112, 15.427024095559037 ], [ 11.329682218601709, 16.002749159186195 ], [ 9.958908257584669, 16.770382577355736 ], [ 9.424306412788026, 16.93487545267778 ], [ 7.943870534889623, 16.975998671508293 ], [ 5.531308363499632, 16.619597441643862 ], [ 3.982333787550377, 16.729259358525226 ], [ 3.324362286262199, 17.003414150728631 ], [ 2.584144347312997, 17.921832704610047 ], [ 1.967296064855327, 18.648342903949082 ], [ 1.624602574601067, 18.758004820830443 ], [ 0.514275666177264, 18.799128039660957 ], [ -0.225942272771936, 18.63463516433891 ], [ -0.609758981856707, 18.442726809796525 ], [ -1.089529868212672, 18.18227975720329 ], [ -1.706378150670339, 17.812170787728686 ], [ -2.09019485975511, 17.661385652016811 ], [ -2.4191806103992, 17.524308255915109 ], [ -2.994905674026358, 17.387230859813403 ], [ -3.735123612975558, 17.332399901372725 ], [ -4.393095114263738, 17.373523120203235 ], [ -4.941404698670553, 17.400938599423576 ], [ -5.434883324636687, 17.524308255915109 ], [ -5.942069690212993, 17.784755308508345 ], [ -6.353301878518104, 18.058910100711753 ], [ -7.203181734348669, 18.195987496813459 ], [ -7.62812166226395, 18.154864277982945 ], [ -8.395755080433492, 17.853294006559196 ], [ -9.34158911353525, 17.894417225389706 ], [ -15.071424270586476, 17.990371402660898 ], [ -15.606026115383122, 17.921832704610047 ], [ -15.811642209535677, 17.921832704610047 ], [ -16.14634741867485, 18.108481553616656 ], [ -16.256883307347167, 19.096715806550307 ] ], [ [ 6.741016384097145, 26.814728776708101 ], [ 6.343491935402203, 26.801021037097929 ], [ 6.178999060080159, 26.746190078657246 ], [ 5.959675226317432, 26.526866244894521 ], [ 5.90484426787675, 26.362373369572474 ], [ 5.850013309436068, 26.047095358538556 ], [ 5.808890090605558, 23.401501613775668 ], [ 5.808890090605558, 23.099931342351919 ], [ 5.781474611385216, 22.83948428975868 ], [ 5.712935913334364, 22.579037237165444 ], [ 5.754059132164876, 22.250051486521354 ], [ 6.000798445147943, 22.071850871589138 ], [ 6.439446112673396, 22.263759226131523 ], [ 6.878093780198849, 22.716114633267146 ], [ 7.297875046558942, 23.099950780133025 ], [ 7.82424287892883, 23.331039096783218 ], [ 8.376287190926517, 23.305362617155421 ], [ 10.812215048317757, 23.12734682157226 ], [ 11.168616278182187, 23.031392644301064 ], [ 11.197253826977768, 23.025426488301985 ], [ 11.497602028826277, 22.962853946250213 ], [ 11.703218122978834, 22.962853946250213 ], [ 11.93624969635173, 23.099931342351919 ], [ 11.999505649471613, 23.47166840259645 ], [ 10.071997109368555, 25.594739951402932 ], [ 9.948627452877021, 25.759232826724979 ], [ 9.729303619114294, 25.923725702047022 ], [ 9.523687524961739, 26.143049535809748 ], [ 9.46097787023799, 26.243384983367747 ], [ 8.57785349185998, 26.513158505284352 ], [ 7.083709874351405, 26.773605557877588 ], [ 6.741016384097145, 26.814728776708101 ] ] ] ] } }
]
}
