{
"type": "FeatureCollection",
"name": "southamerica_2",
"crs": { "type": "name", "properties": { "name": "urn:ogc:def:crs:OGC:1.3:CRS84" } },
"features": [
{ "type": "Feature", "properties": { "id": null, "Zone": "полупустынь и пустынь" }, "geometry": { "type": "MultiPolygon", "coordinates": [ [ [ [ -80.583370327461267, -0.906662692878683 ], [ -80.028118614556007, -0.974286348009982 ], [ -79.41127033209834, -0.974286348009982 ], [ -79.421551136805959, -1.519168997514257 ], [ -79.380427917975453, -2.002366818772765 ], [ -79.329023894437313, -2.413599007077878 ], [ -79.246777456776286, -2.691180734183829 ], [ -79.298181480314426, -2.958481656582153 ], [ -79.57576320742038, -3.369713844887266 ], [ -80.161769075755174, -4.109931783836469 ], [ -80.442241990872162, -4.425724379090674 ], [ -80.593562873475534, -4.788464894539906 ], [ -80.675809311136561, -5.024923402815346 ], [ -80.573001264060281, -5.24082030167553 ], [ -80.274857927539074, -5.312785934628924 ], [ -80.110365052217034, -5.42587478641283 ], [ -79.740256082742405, -5.857668584133202 ], [ -79.370147113267805, -6.587605718374777 ], [ -78.907510901424558, -7.564282165599421 ], [ -78.485997908411818, -8.592362636362203 ], [ -77.509321461187142, -10.4017842649047 ], [ -76.460679381009101, -12.396260378184497 ], [ -75.597091785568352, -13.629956943099836 ], [ -74.754065799542872, -14.616914195032107 ], [ -73.479246015797031, -15.480501790472845 ], [ -72.081056575559657, -16.15903490117628 ], [ -71.052976104796869, -16.837568011879718 ], [ -70.312758165847669, -17.680593997905198 ], [ -69.675348273974748, -18.749797687498493 ], [ -69.428608960991667, -19.962932642998574 ], [ -69.428608960991667, -21.648984615049542 ], [ -69.695909883389959, -24.712664417922646 ], [ -69.901525977542519, -26.851071797109235 ], [ -70.580059088245946, -29.4623961928467 ], [ -71.48989437527645, -28.861442152625923 ], [ -70.905123867461612, -27.640379734001247 ], [ -70.724953986275992, -25.705924167587256 ], [ -70.403965827095021, -23.628996677344574 ], [ -70.091245897080739, -21.393319187101259 ], [ -70.164419725206045, -19.756468194256165 ], [ -70.372572394477714, -18.347975355708869 ], [ -71.375250210236928, -17.773798516513857 ], [ -71.462040778271131, -17.363487644116383 ], [ -73.444529588500416, -16.359362888252996 ], [ -75.237882656541444, -15.265682875227782 ], [ -76.009205084929945, -14.649286390850321 ], [ -76.423469204397747, -13.823186944232432 ], [ -76.25924150257417, -13.535039157772943 ], [ -77.106192389621839, -12.22271615972082 ], [ -78.092152879534638, -10.377712497604065 ], [ -79.036953091126946, -8.386567884965892 ], [ -79.445920376284846, -7.93083342858386 ], [ -79.760578172510051, -7.194340915560084 ], [ -80.537481655586078, -6.541667575713717 ], [ -81.249996304026425, -6.136834405139183 ], [ -80.926346808582437, -5.690556735866565 ], [ -81.410942552399462, -4.736764825055459 ], [ -81.099669562489368, -4.036394138203697 ], [ -80.302560594387216, -3.404856459164713 ], [ -79.770293341780928, -2.65751189535964 ], [ -79.986559210922422, -2.220794366061014 ], [ -80.368783942369248, -2.685158786635788 ], [ -80.967765469064361, -2.246942640800704 ], [ -80.764806281238037, -1.965047702648533 ], [ -80.933659023751716, -1.057454522306358 ], [ -80.583370327461267, -0.906662692878683 ] ] ] ] } },
{ "type": "Feature", "properties": { "id": null, "Zone": "смешанных и широколиственных лесов" }, "geometry": { "type": "MultiPolygon", "coordinates": [ [ [ [ -70.26748, -52.93123 ], [ -69.34565, -52.5183 ], [ -68.634010227583232, -52.636370458874488 ], [ -68.25, -53.1 ], [ -67.75, -53.85 ], [ -67.187393534728727, -54.095204272322967 ], [ -67.979015497216068, -54.259697147645014 ], [ -68.739795045580522, -54.18773151469162 ], [ -69.243554476254289, -53.95127300641618 ], [ -70.26748, -52.93123 ] ] ] ] } },
{ "type": "Feature", "properties": { "id": null, "Zone": "лесостепей и степей" }, "geometry": { "type": "MultiPolygon", "coordinates": [ [ [ [ -50.275469790680923, -30.295141374164512 ], [ -50.696874152211485, -30.98446502047296 ], [ -51.576226162306156, -31.777698256153212 ], [ -52.256081305538046, -32.24536996839467 ], [ -52.712099982297694, -33.196578057591182 ], [ -53.373661668498244, -33.768377780900764 ], [ -53.806425950726535, -34.396814874002231 ], [ -54.93586605489773, -34.952646579733624 ], [ -55.674089728403288, -34.752658786764073 ], [ -56.215297003796067, -34.859835707337417 ], [ -57.139685024633103, -34.430456231424245 ], [ -57.81786068381551, -34.462547295877499 ], [ -58.427074144104388, -33.909454441057576 ], [ -58.495442064026548, -34.431489760070079 ], [ -57.225829637263658, -35.288026625307879 ], [ -57.36235877137878, -35.977390232081476 ], [ -56.737487352105447, -36.413125909166553 ], [ -56.78828528504836, -36.901571547189334 ], [ -57.749156867083457, -38.183870538079887 ], [ -59.231857062401893, -38.720220228837235 ], [ -61.237445237865643, -38.928424574541197 ], [ -62.335956997310127, -38.827707208004334 ], [ -62.125763108962936, -39.424104913084847 ], [ -62.330530971919494, -40.172586358400338 ], [ -62.145994432205214, -40.676896661136723 ], [ -62.745802781816984, -41.028761488612098 ], [ -63.126475675215744, -40.966616660682163 ], [ -63.825570395334438, -40.57594608179231 ], [ -65.223759835571826, -39.959097799334636 ], [ -66.107909040427813, -39.342249516876969 ], [ -66.2518403063346, -38.602031577927761 ], [ -66.765880541716001, -37.779567201317533 ], [ -67.135989511190601, -37.059910871783586 ], [ -67.074304682944828, -35.846775916283505 ], [ -66.827565369961761, -34.900941883181744 ], [ -66.169593868673587, -33.811176584173197 ], [ -64.935897303758239, -32.659726456918875 ], [ -64.08259051302511, -31.528837939079818 ], [ -63.78444717650391, -30.76805839071536 ], [ -63.856412809457304, -30.254018155333966 ], [ -64.154556145978518, -29.945594014105133 ], [ -62.581593025711456, -29.945594014105133 ], [ -62.046991180914809, -29.986717232935643 ], [ -61.748847844393602, -30.140929303550063 ], [ -61.419862093749508, -30.685811953054337 ], [ -60.895541053660487, -31.559680353202701 ], [ -60.648801740677392, -31.703611619109523 ], [ -60.484308865355345, -31.662488400279013 ], [ -59.980549434681578, -31.374625868465436 ], [ -59.12724264394847, -30.778339195423023 ], [ -58.38702470499927, -30.192333327088235 ], [ -58.109442977893323, -30.007278842350935 ], [ -57.790738031956863, -29.966155623520422 ], [ -57.513156304850909, -30.058682865889072 ], [ -56.639287904702549, -30.418511030656045 ], [ -55.642049848062648, -30.521319077732326 ], [ -54.048525118380333, -30.613846320100976 ], [ -52.331630732206492, -30.531599882439952 ], [ -50.275469790680923, -30.295141374164512 ] ] ] ] } },
{ "type": "Feature", "properties": { "id": null, "Zone": "области высотной поясности" }, "geometry": { "type": "MultiPolygon", "coordinates": [ [ [ [ -70.8451016913546, -52.899200528525711 ], [ -71.006332160105245, -53.833252042201323 ], [ -71.429794684520999, -53.856454760300373 ], [ -72.557942877884884, -53.53141000118449 ], [ -73.702756720662904, -52.835069268607235 ], [ -73.702756720662904, -52.835070076051494 ], [ -74.946763475225168, -52.262753588419002 ], [ -75.260026007778507, -51.629354750373253 ], [ -74.976632453089877, -51.043395684615703 ], [ -75.479754197883551, -50.378371677451582 ], [ -75.608015102831985, -48.673772881871841 ], [ -75.182769741502156, -47.711919447623202 ], [ -74.126580980104706, -46.939253431995112 ], [ -75.644395311165454, -46.647643324572073 ], [ -74.692153693323121, -45.763976332381027 ], [ -74.351709357384252, -44.103044122087937 ], [ -73.24035600451522, -44.454960625995604 ], [ -72.717803921179794, -42.383355808278978 ], [ -72.739028076847774, -40.658192519453301 ], [ -72.61565842035624, -39.52730400161424 ], [ -72.327795888542667, -38.355292264944666 ], [ -71.567016340178228, -36.957102824707292 ], [ -71.238030589534134, -36.196323276342831 ], [ -71.094099323627347, -35.394420509147864 ], [ -71.032414495381573, -33.317697958207042 ], [ -70.826798401229027, -31.220413797850966 ], [ -70.580059088245946, -29.4623961928467 ], [ -69.901525977542519, -26.851071797109235 ], [ -69.695909883389959, -24.712664417922646 ], [ -69.428608960991667, -21.648984615049542 ], [ -69.428608960991667, -19.962932642998574 ], [ -69.675348273974748, -18.749797687498493 ], [ -70.019429813930785, -18.172628652733511 ], [ -70.312758165847669, -17.680593997905198 ], [ -71.052976104796869, -16.837568011879718 ], [ -72.081056575559657, -16.15903490117628 ], [ -73.479246015797031, -15.480501790472845 ], [ -74.754065799542872, -14.616914195032107 ], [ -75.597091785568352, -13.629956943099836 ], [ -76.460679381009101, -12.396260378184497 ], [ -77.509321461187142, -10.4017842649047 ], [ -78.485997908411818, -8.592362636362203 ], [ -78.907510901424558, -7.564282165599421 ], [ -79.370147113267805, -6.587605718374777 ], [ -79.740256082742405, -5.857668584133202 ], [ -80.110365052217034, -5.42587478641283 ], [ -80.274857927539074, -5.312785934628924 ], [ -80.573001264060281, -5.24082030167553 ], [ -80.675809311136561, -5.024923402815346 ], [ -80.593562873475534, -4.788464894539906 ], [ -80.442241990872162, -4.425724379090674 ], [ -80.161769075755174, -4.109931783836469 ], [ -79.57576320742038, -3.369713844887266 ], [ -79.298181480314426, -2.958481656582153 ], [ -79.246777456776286, -2.691180734183829 ], [ -79.329023894437313, -2.413599007077878 ], [ -79.380427917975453, -2.002366818772765 ], [ -79.421551136805959, -1.519168997514257 ], [ -79.41127033209834, -0.974286348009982 ], [ -79.154250214407497, -0.131260361984371 ], [ -78.90751090142443, 0.423903092227533 ], [ -78.085046524814203, 1.349175515914038 ], [ -77.283143757619229, 2.41837920550733 ], [ -76.625172256331069, 3.816568645744715 ], [ -76.378432943348002, 5.173634867151588 ], [ -76.398994552763256, 5.749359930778747 ], [ -77.318815070286746, 5.84535411216136 ], [ -77.47666073272228, 6.691116441266303 ], [ -77.881571417945253, 7.223771267114785 ], [ -77.753413865861404, 7.709839789252143 ], [ -77.431107957656991, 7.638061224798734 ], [ -76.913034788144628, 8.083102599410262 ], [ -76.836673957003569, 8.638749497914716 ], [ -76.542925818670028, 8.309280302978074 ], [ -76.357871333932721, 8.165349037071284 ], [ -76.172816849195428, 8.124225818240774 ], [ -75.67933822322928, 8.268157084147564 ], [ -75.288667644339426, 8.597142834791654 ], [ -74.897997065449573, 8.720512491283188 ], [ -74.671819361881759, 8.679389272452676 ], [ -74.569011314805479, 8.268157084147564 ], [ -74.610134533636, 7.836363286427194 ], [ -74.815750627788546, 7.281199832215291 ], [ -75.165297987847893, 6.582105112096601 ], [ -75.288667644339426, 5.883010391977908 ], [ -75.206421206678414, 5.471778203672795 ], [ -74.9802435031106, 5.30728532835075 ], [ -74.548449705390226, 5.45121659425754 ], [ -74.116655907669852, 5.841887173147397 ], [ -73.808231766441025, 6.664351549757622 ], [ -73.654019695826591, 8.391526740639096 ], [ -73.767108547610505, 9.028936632512021 ], [ -73.962443837055432, 9.471011234940018 ], [ -74.168059931207992, 9.841120204414619 ], [ -74.260587173576639, 10.231790783304477 ], [ -74.250306368869005, 10.488810900995173 ], [ -74.126936712377471, 10.673865385732473 ], [ -73.849354985271532, 10.78695423751638 ], [ -73.335314749890131, 10.797235042224006 ], [ -72.872678538046884, 10.643022971609589 ], [ -72.69790485801721, 10.375722049211266 ], [ -72.687624053309577, 10.139263540935826 ], [ -72.841836123923983, 9.522415258478162 ], [ -72.965205780415516, 8.956970999558632 ], [ -72.944644171000263, 8.638266053622168 ], [ -72.780151295678209, 8.442930764177241 ], [ -72.439862230097958, 8.405275376820029 ], [ -71.628701168423888, 8.679389272452678 ], [ -70.867921620059434, 9.234552726664582 ], [ -69.346362523330512, 10.098140322105319 ], [ -68.194126552997631, 10.554653225135922 ], [ -67.296248541926332, 10.54586823164631 ], [ -66.227864142507997, 10.648626817258688 ], [ -66.364929158118443, 10.221509978596853 ], [ -66.71447651817779, 9.707469743215462 ], [ -67.434132847711737, 9.460730430232394 ], [ -68.544459756135538, 9.357922383156115 ], [ -69.675348273974606, 9.131744679588303 ], [ -70.888483229474687, 8.473773178300123 ], [ -72.198352423781884, 7.340430813013683 ], [ -72.780151295678223, 6.479297065020324 ], [ -73.047452218076543, 5.903572001393166 ], [ -73.45868440638165, 5.389531766011775 ], [ -74.301710392407145, 4.752121874138849 ], [ -74.548449705390212, 4.176396810511691 ], [ -74.897997065449559, 3.292247605655699 ], [ -75.350352472585172, 2.428660010214961 ], [ -76.028885583288613, 1.832373337172545 ], [ -76.563487428085253, 1.585634024189477 ], [ -77.11865088229716, 1.112717007638597 ], [ -77.424984300430395, 0.395686753741117 ], [ -77.776622383585348, -0.491088526751344 ], [ -77.879430430661614, -2.485564640031142 ], [ -77.735499164754827, -3.431398673132901 ], [ -77.221458929373426, -4.932396160446564 ], [ -76.337309724517439, -6.721256179573805 ], [ -75.30922925375468, -8.489554589285795 ], [ -73.952163032347812, -10.093360123675737 ], [ -72.224987841466344, -11.327056688591075 ], [ -70.292196556432302, -12.725246128828459 ], [ -68.647267803211861, -13.67108016193022 ], [ -67.912190266616449, -14.246805225557393 ], [ -67.105147097067672, -15.069269602167608 ], [ -65.933135360398097, -16.467459042404993 ], [ -65.131232593203137, -17.433854684922007 ], [ -64.822808451974296, -17.906771701472888 ], [ -64.247083388347136, -18.256319061532235 ], [ -63.650796715304722, -18.503058374515302 ], [ -63.404057402321655, -18.893728953405159 ], [ -63.404057402321655, -19.572262064108596 ], [ -63.733043152965742, -20.579780925456138 ], [ -64.288206607177642, -21.813477490371476 ], [ -64.493822701330203, -22.389202553998636 ], [ -64.514384310745456, -23.499529462422441 ], [ -64.699438795482763, -24.486486714354712 ], [ -65.172355812033643, -25.535128794532749 ], [ -65.645272828584524, -26.604332484126044 ], [ -65.809765703906564, -27.200619157168457 ], [ -65.768642485076057, -28.043645143193938 ], [ -65.645272828584524, -28.907232738634676 ], [ -65.316287077940444, -29.914751599982218 ], [ -65.748080875660804, -30.017559647058498 ], [ -66.220997892211685, -30.387668616533098 ], [ -66.837846174669352, -31.025078508406025 ], [ -67.372448019466006, -31.683050009694206 ], [ -68.092104348999953, -32.073720588584059 ], [ -68.565021365550834, -32.628884042795967 ], [ -69.017376772686461, -33.533594857067214 ], [ -69.469732179822074, -35.363578095024963 ], [ -69.695909883389916, -37.337492598889533 ], [ -69.757594711635676, -37.82069042014804 ], [ -69.860402758711956, -38.273045827283667 ], [ -70.107142071695023, -38.848770890910828 ], [ -70.466970236462004, -39.260003079215934 ], [ -70.538935869415397, -40.000221018165142 ], [ -70.66230552590693, -40.95633585597453 ], [ -70.92960644830525, -41.573184138432197 ], [ -71.381961855440878, -42.200313225597498 ], [ -71.854878871991701, -42.693791851563681 ], [ -71.628701168423888, -43.022777602207775 ], [ -71.536173926055241, -43.475133009343395 ], [ -71.556735535470494, -44.575179113059576 ], [ -71.552009446891276, -45.560732924177103 ], [ -71.063256909504375, -46.004210967419858 ], [ -70.652024721199254, -46.415443155724972 ], [ -70.446408627046708, -46.826675344030086 ], [ -70.446408627046708, -47.176222704089433 ], [ -70.693147940029789, -48.060371908945413 ], [ -71.10438012833491, -49.211822036199734 ], [ -71.10438012833491, -50.178217678716749 ], [ -70.878202424767096, -51.103490102403249 ], [ -69.942779507106195, -52.537930590373222 ], [ -70.8451016913546, -52.899200528525711 ] ] ] ] } },
{ "type": "Feature", "properties": { "id": null, "Zone": "смешанных и широколиственных лесов" }, "geometry": { "type": "MultiPolygon", "coordinates": [ [ [ [ -73.677099372029986, -39.942212823243167 ], [ -72.739028076847774, -40.658192519453301 ], [ -72.717803921179794, -42.383355808278978 ], [ -73.388899909138217, -42.117532240569574 ], [ -73.701335618774877, -43.365776462579774 ], [ -74.331943122032612, -43.224958184584423 ], [ -74.017957119427194, -41.794812920906828 ], [ -73.677099372029986, -39.942212823243167 ] ] ] ] } },
{ "type": "Feature", "properties": { "id": null, "Zone": "жестколистных вечнозеленых лесов и кустарников" }, "geometry": { "type": "MultiPolygon", "coordinates": [ [ [ [ -73.677099372029986, -39.942212823243167 ], [ -73.217592536090649, -39.258688653318558 ], [ -73.505559455037115, -38.282882582351114 ], [ -73.58806087919109, -37.156284681955981 ], [ -73.166717088499297, -37.123780206044387 ], [ -72.553136969681745, -35.508840020491057 ], [ -71.861732143832626, -33.909092706031529 ], [ -71.438450486929895, -32.418899428030777 ], [ -71.668720669222466, -30.920644626592495 ], [ -71.370082567007728, -30.095682061485029 ], [ -71.48989437527645, -28.861442152625923 ], [ -70.580059088245946, -29.4623961928467 ], [ -70.826798401229027, -31.220413797850966 ], [ -71.032414495381573, -33.317697958207042 ], [ -71.094099323627347, -35.394420509147864 ], [ -71.238030589534134, -36.196323276342831 ], [ -71.567016340178228, -36.957102824707292 ], [ -72.327795888542667, -38.355292264944666 ], [ -72.61565842035624, -39.52730400161424 ], [ -72.739028076847774, -40.658192519453301 ], [ -73.677099372029986, -39.942212823243167 ] ] ] ] } },
{ "type": "Feature", "properties": { "id": null, "Zone": "полупустынь и пустынь" }, "geometry": { "type": "MultiPolygon", "coordinates": [ [ [ [ -64.154556145978518, -29.945594014105133 ], [ -63.856412809457304, -30.254018155333966 ], [ -63.78444717650391, -30.76805839071536 ], [ -64.08259051302511, -31.528837939079818 ], [ -64.935897303758239, -32.659726456918875 ], [ -66.169593868673587, -33.811176584173197 ], [ -66.827565369961761, -34.900941883181744 ], [ -67.074304682944828, -35.846775916283505 ], [ -67.135989511190601, -37.059910871783586 ], [ -66.765880541716001, -37.779567201317533 ], [ -66.2518403063346, -38.602031577927761 ], [ -66.107909040427813, -39.342249516876969 ], [ -65.223759835571826, -39.959097799334636 ], [ -63.825570395334438, -40.57594608179231 ], [ -63.126475675215744, -40.966616660682163 ], [ -62.745802781816984, -41.028761488612098 ], [ -63.77049475773255, -41.166789239263693 ], [ -64.732089809819726, -40.802677097335149 ], [ -65.118035244391578, -41.064314874028909 ], [ -64.978560553635816, -42.05800099056934 ], [ -64.303407965742494, -42.359016208669509 ], [ -63.755947842042389, -42.043686618824495 ], [ -63.458059048095876, -42.563138116222405 ], [ -64.378803880456331, -42.873558444999688 ], [ -65.181803961839748, -43.495380954767796 ], [ -65.328823411710133, -44.501366062193696 ], [ -65.565268927661606, -45.036785577169795 ], [ -66.509965786389344, -45.039627780945857 ], [ -67.29379391139247, -45.55189625425519 ], [ -67.580546434180079, -46.30177296324257 ], [ -66.597066413017288, -47.033924655953825 ], [ -65.64102657740149, -47.23613453551193 ], [ -65.985088263600787, -48.133289076531135 ], [ -67.166178961847692, -48.697337334996945 ], [ -67.816087612566434, -49.869668877970383 ], [ -68.728745083273211, -50.264218438518832 ], [ -69.138539191347775, -50.732510267947795 ], [ -68.81556148952356, -51.771104011594126 ], [ -68.149994879820383, -52.349983406127677 ], [ -68.571545376241332, -52.299443855346226 ], [ -69.461284349226673, -52.29195077266391 ], [ -69.942779507106195, -52.537930590373222 ], [ -70.226765574066306, -52.102447233299223 ], [ -70.878202424767096, -51.103490102403249 ], [ -71.10438012833491, -50.178217678716749 ], [ -71.10438012833491, -49.211822036199734 ], [ -70.693147940029789, -48.060371908945413 ], [ -70.446408627046708, -47.176222704089433 ], [ -70.446408627046708, -46.826675344030086 ], [ -70.652024721199254, -46.415443155724972 ], [ -71.063256909504375, -46.004210967419858 ], [ -71.552009446891276, -45.560732924177103 ], [ -71.55504153852371, -44.928436382563163 ], [ -71.556735535470494, -44.575179113059576 ], [ -71.551809276977153, -44.311624283665836 ], [ -71.543914934121872, -43.889276940907912 ], [ -71.540809859895973, -43.723155469822593 ], [ -71.536173926055241, -43.475133009343395 ], [ -71.628701168423888, -43.022777602207775 ], [ -71.854878871991701, -42.693791851563681 ], [ -71.381961855440878, -42.200313225597498 ], [ -70.92960644830525, -41.573184138432197 ], [ -70.66230552590693, -40.95633585597453 ], [ -70.538935869415397, -40.000221018165142 ], [ -70.466970236462004, -39.260003079215934 ], [ -70.107142071695023, -38.848770890910828 ], [ -69.860402758711956, -38.273045827283667 ], [ -69.757594711635676, -37.82069042014804 ], [ -69.695909883389916, -37.337492598889533 ], [ -69.469732179822074, -35.363578095024963 ], [ -69.017376772686461, -33.533594857067214 ], [ -68.565021365550834, -32.628884042795967 ], [ -68.092104348999953, -32.073720588584059 ], [ -67.372448019466006, -31.683050009694206 ], [ -66.837846174669352, -31.025078508406025 ], [ -66.220997892211685, -30.387668616533098 ], [ -65.748080875660804, -30.017559647058498 ], [ -65.316287077940444, -29.914751599982218 ], [ -64.668596381359862, -29.894189990566943 ], [ -64.154556145978518, -29.945594014105133 ] ] ] ] } },
{ "type": "Feature", "properties": { "id": null, "Zone": "переменно-влажных (в том числе муссонных) лесов" }, "geometry": { "type": "MultiPolygon", "coordinates": [ [ [ [ -36.452937384576387, -5.109403578312154 ], [ -35.597795783010469, -5.149504489770649 ], [ -35.23538896334756, -5.464937432480247 ], [ -34.896029832486832, -6.738193047719711 ], [ -34.729993455533034, -7.343220716992967 ], [ -35.128212042774223, -8.996401462442286 ], [ -35.636966518687714, -9.649281508017815 ], [ -37.046518724096998, -11.040721123908803 ], [ -37.683611619607362, -12.171194756725823 ], [ -38.423876512188443, -13.038118584854288 ], [ -38.673887091616521, -13.057652276260619 ], [ -38.953275722802545, -13.793369642800023 ], [ -38.882298143049653, -15.667053724838768 ], [ -39.161092495264313, -17.208406670808472 ], [ -39.267339240056401, -17.867746270420483 ], [ -39.583521491034233, -18.262295830968938 ], [ -39.760823330227637, -19.599113457927409 ], [ -40.774740770010339, -20.904511814052423 ], [ -40.944756232250612, -21.937316989837811 ], [ -41.754164191238225, -22.370675551037458 ], [ -41.98828426773656, -22.970070489190896 ], [ -43.074703742024752, -22.967693373305469 ], [ -44.647811855637812, -23.351959323827842 ], [ -45.352135789559917, -23.796841729428582 ], [ -46.472093268405537, -24.088968601174543 ], [ -47.648972337420659, -24.885199069927722 ], [ -48.495458136577703, -25.877024834905654 ], [ -48.64100480812774, -26.623697605090932 ], [ -48.474735887228654, -27.175911960561891 ], [ -48.661520351747626, -28.18613453543572 ], [ -48.8884574041574, -28.674115085567884 ], [ -49.587329474472675, -29.224469089476337 ], [ -50.696874152211485, -30.98446502047296 ], [ -50.275469790680923, -30.295141374164512 ], [ -52.331630732206492, -30.531599882439952 ], [ -54.048525118380333, -30.613846320100976 ], [ -55.642049848062648, -30.521319077732326 ], [ -56.565775522524888, -30.426089626756834 ], [ -56.639287904702549, -30.418511030656045 ], [ -57.271454476684866, -30.158207148075089 ], [ -57.483041900902137, -30.071082914573861 ], [ -57.513156304850909, -30.058682865889072 ], [ -57.790738031956863, -29.966155623520422 ], [ -56.608445490579641, -29.493238606969477 ], [ -56.1149668646135, -29.10256802807962 ], [ -55.827104332799927, -28.187576409100743 ], [ -55.446714558617678, -26.594051679418424 ], [ -54.665373400837964, -24.579013956723372 ], [ -54.007401899549784, -23.530371876545331 ], [ -53.369992007676856, -22.954646812918174 ], [ -52.156857052176775, -22.50229140578255 ], [ -50.491366689541067, -21.556457372680789 ], [ -49.154862077549453, -21.062978746714656 ], [ -48.250151263278205, -20.919047480807862 ], [ -46.379044806489958, -20.980732309053622 ], [ -45.392087554557691, -20.651746558409531 ], [ -44.857485709761036, -19.993775057121351 ], [ -43.130310518879568, -16.580547894188911 ], [ -42.184476485777807, -14.442140515002325 ], [ -40.889095092616714, -11.974747385171645 ], [ -40.004945887760719, -10.987790133239372 ], [ -39.346974386472539, -10.617681163764772 ], [ -38.277770696879244, -10.206448975459658 ], [ -37.475867929684277, -9.898024834230824 ], [ -37.167443788455444, -9.383984598849432 ], [ -37.14688217904019, -8.643766659900228 ], [ -37.04407413196391, -8.047479986857814 ], [ -36.817896428396097, -7.389508485569634 ], [ -36.65340355307405, -5.785702951179693 ], [ -36.452937384576387, -5.109403578312154 ] ] ] ] } },
{ "type": "Feature", "properties": { "id": null, "Zone": "переменно-влажных (в том числе муссонных) лесов" }, "geometry": { "type": "MultiPolygon", "coordinates": [ [ [ [ -44.581588507655781, -2.691308282078524 ], [ -45.607984453417814, -3.719261204946503 ], [ -47.994612884943535, -5.906519072574639 ], [ -49.431430872989637, -8.149971720576421 ], [ -51.24186543319788, -10.113921733091015 ], [ -53.830110503060531, -11.212662695095698 ], [ -56.629007099994865, -12.272890721692857 ], [ -62.127080857986385, -13.198780612849724 ], [ -66.971496635868462, -13.547710505438706 ], [ -67.033181464114222, -12.046713018125045 ], [ -66.683634104054875, -10.545715530811384 ], [ -65.778923289783634, -9.538196669463856 ], [ -64.051748098902152, -8.427869761040052 ], [ -61.81053267263929, -7.338104462031502 ], [ -58.695125795918301, -5.931726405698284 ], [ -55.374748925664271, -4.315547877988923 ], [ -54.305545236070984, -3.822069252022787 ], [ -52.886794186418342, -3.678137986115998 ], [ -51.139057386121607, -3.554768329624462 ], [ -49.432443804655385, -2.937920047166792 ], [ -48.383801724477351, -2.136017279971822 ], [ -47.52021412903661, -1.375237731607363 ], [ -46.566583624851226, -0.941027520352776 ], [ -44.905703090990414, -1.551739597178134 ], [ -44.417619187993665, -2.137750339367976 ], [ -44.581588507655781, -2.691308282078524 ] ] ] ] } },
{ "type": "Feature", "properties": { "id": null, "Zone": "саванн и редколесий" }, "geometry": { "type": "MultiPolygon", "coordinates": [ [ [ [ -67.912190266616449, -14.246805225557393 ], [ -67.629468137156678, -14.200541604373068 ], [ -67.336465202989288, -14.025767924343395 ], [ -66.971496635868462, -13.547710505438706 ], [ -62.127080857986385, -13.198780612849724 ], [ -56.629007099994865, -12.272890721692857 ], [ -53.830110503060531, -11.212662695095698 ], [ -51.24186543319788, -10.113921733091015 ], [ -49.431430872989637, -8.149971720576421 ], [ -47.994612884943535, -5.906519072574639 ], [ -45.607984453417814, -3.719261204946503 ], [ -44.581588507655781, -2.691308282078524 ], [ -43.418791266440195, -2.383110039889793 ], [ -41.472656826328247, -2.912018324397116 ], [ -39.978665330554037, -2.873054294449041 ], [ -38.500383470196567, -3.700652357603396 ], [ -37.2232521225352, -4.820945733258917 ], [ -36.452937384576387, -5.109403578312154 ], [ -36.65340355307405, -5.785702951179693 ], [ -36.817896428396097, -7.389508485569634 ], [ -37.04407413196391, -8.047479986857814 ], [ -37.14688217904019, -8.643766659900228 ], [ -37.167443788455444, -9.383984598849432 ], [ -37.475867929684277, -9.898024834230824 ], [ -38.277770696879244, -10.206448975459658 ], [ -39.346974386472539, -10.617681163764772 ], [ -40.004945887760719, -10.987790133239372 ], [ -40.889095092616714, -11.974747385171645 ], [ -42.184476485777807, -14.442140515002325 ], [ -43.130310518879568, -16.580547894188911 ], [ -44.857485709761036, -19.993775057121351 ], [ -45.392087554557691, -20.651746558409531 ], [ -46.379044806489958, -20.980732309053622 ], [ -48.250151263278205, -20.919047480807862 ], [ -49.154862077549453, -21.062978746714656 ], [ -50.491366689541067, -21.556457372680789 ], [ -52.156857052176775, -22.50229140578255 ], [ -53.369992007676856, -22.954646812918174 ], [ -54.007401899549784, -23.530371876545331 ], [ -54.309897666410599, -24.012474504979757 ], [ -54.665373400837964, -24.579013956723372 ], [ -55.446714558617678, -26.594051679418424 ], [ -55.621137448881186, -27.324742165657401 ], [ -55.827104332799927, -28.187576409100743 ], [ -55.941936530518248, -28.552578751848266 ], [ -56.1149668646135, -29.10256802807962 ], [ -56.608445490579641, -29.493238606969477 ], [ -57.116449943372729, -29.696440388086735 ], [ -57.790738031956863, -29.966155623520422 ], [ -58.109442977893323, -30.007278842350935 ], [ -58.38702470499927, -30.192333327088235 ], [ -59.12724264394847, -30.778339195423023 ], [ -59.980549434681578, -31.374625868465436 ], [ -60.484308865355345, -31.662488400279013 ], [ -60.648801740677392, -31.703611619109523 ], [ -60.895541053660487, -31.559680353202701 ], [ -61.419862093749508, -30.685811953054337 ], [ -61.748847844393602, -30.140929303550063 ], [ -62.046991180914809, -29.986717232935643 ], [ -62.581593025711456, -29.945594014105133 ], [ -64.154556145978518, -29.945594014105133 ], [ -64.668596381359862, -29.894189990566943 ], [ -65.316287077940444, -29.914751599982218 ], [ -65.645272828584524, -28.907232738634676 ], [ -65.768642485076057, -28.043645143193938 ], [ -65.809765703906564, -27.200619157168457 ], [ -65.645272828584524, -26.604332484126044 ], [ -65.172355812033643, -25.535128794532749 ], [ -64.699438795482763, -24.486486714354712 ], [ -64.514384310745456, -23.499529462422441 ], [ -64.49862804076723, -22.648690883598068 ], [ -64.493822701330203, -22.389202553998636 ], [ -64.288206607177642, -21.813477490371476 ], [ -63.733043152965742, -20.579780925456138 ], [ -63.404057402321655, -19.572262064108596 ], [ -63.404057402321655, -18.893728953405159 ], [ -63.650796715304722, -18.503058374515302 ], [ -64.247083388347136, -18.256319061532235 ], [ -64.822808451974296, -17.906771701472888 ], [ -65.131232593203137, -17.433854684922007 ], [ -65.933135360398097, -16.467459042404993 ], [ -67.105147097067672, -15.069269602167608 ], [ -67.912190266616449, -14.246805225557393 ] ] ] ] } },
{ "type": "Feature", "properties": { "id": null, "Zone": "влажных экваториальных лесов" }, "geometry": { "type": "MultiPolygon", "coordinates": [ [ [ [ -77.318815070286746, 5.84535411216136 ], [ -76.398994552763256, 5.749359930778747 ], [ -76.378432943348002, 5.173634867151588 ], [ -76.625172256331069, 3.816568645744715 ], [ -77.283143757619229, 2.41837920550733 ], [ -78.085046524814203, 1.349175515914038 ], [ -78.325602294417152, 1.078550275110715 ], [ -78.90751090142443, 0.423903092227533 ], [ -79.154250214407497, -0.131260361984371 ], [ -79.41127033209834, -0.974286348009982 ], [ -80.028118614556007, -0.974286348009982 ], [ -80.583370327461267, -0.906662692878683 ], [ -80.399324713853758, -0.283703301600141 ], [ -80.020898200180369, 0.360340074053468 ], [ -80.090609707342111, 0.768428859862397 ], [ -79.542762010399798, 0.982937730305963 ], [ -78.855258755188714, 1.380923773601822 ], [ -78.99093522817104, 1.691369940595251 ], [ -78.617831387023713, 1.766404120283056 ], [ -78.662118089497852, 2.267355454920477 ], [ -78.427610439757331, 2.629555568854215 ], [ -77.931542527971487, 2.696605739752926 ], [ -77.51043128122501, 3.325016994638247 ], [ -77.496271938777028, 4.087606105969428 ], [ -77.307601284479404, 4.667984117039452 ], [ -77.533220587865728, 5.582811997902497 ], [ -77.318815070286746, 5.84535411216136 ] ] ] ] } },
{ "type": "Feature", "properties": { "id": null, "Zone": "влажных экваториальных лесов" }, "geometry": { "type": "MultiPolygon", "coordinates": [ [ [ [ -49.974075893745059, 1.736483465986069 ], [ -49.947100796088712, 1.046189683431223 ], [ -50.699251268096916, 0.222984117021682 ], [ -50.388210822132137, -0.078444512536819 ], [ -48.62056677915632, -0.235489190271821 ], [ -48.584496629416591, -1.237805271005001 ], [ -47.824956427590635, -0.5816179337628 ], [ -46.566583624851226, -0.941027520352776 ], [ -47.52021412903661, -1.375237731607363 ], [ -48.383801724477351, -2.136017279971822 ], [ -49.432443804655385, -2.937920047166792 ], [ -51.139057386121607, -3.554768329624462 ], [ -52.886794186418342, -3.678137986115998 ], [ -54.305545236070984, -3.822069252022787 ], [ -55.374748925664271, -4.315547877988923 ], [ -58.695125795918301, -5.931726405698284 ], [ -61.81053267263929, -7.338104462031502 ], [ -64.051748098902152, -8.427869761040052 ], [ -65.778923289783634, -9.538196669463856 ], [ -66.064226106819063, -9.855920261162403 ], [ -66.683634104054875, -10.545715530811384 ], [ -67.033181464114222, -12.046713018125045 ], [ -66.971496635868462, -13.547710505438706 ], [ -67.336465202989288, -14.025767924343395 ], [ -67.629468137156678, -14.200541604373068 ], [ -67.912190266616449, -14.246805225557393 ], [ -68.647267803211861, -13.67108016193022 ], [ -68.922924398215471, -13.512577619803142 ], [ -70.292196556432302, -12.725246128828459 ], [ -72.224987841466344, -11.327056688591075 ], [ -73.952163032347812, -10.093360123675737 ], [ -75.30922925375468, -8.489554589285795 ], [ -76.337309724517439, -6.721256179573805 ], [ -77.221458929373426, -4.932396160446564 ], [ -77.735499164754827, -3.431398673132901 ], [ -77.80245613507644, -2.991395725305152 ], [ -77.879430430661614, -2.485564640031142 ], [ -77.776622383585348, -0.491088526751344 ], [ -77.424984300430395, 0.395686753741117 ], [ -77.11865088229716, 1.112717007638597 ], [ -76.563487428085253, 1.585634024189477 ], [ -76.028885583288613, 1.832373337172545 ], [ -75.350352472585172, 2.428660010214961 ], [ -74.897997065449559, 3.292247605655699 ], [ -74.548449705390212, 4.176396810511691 ], [ -74.363395220652862, 4.042746349312518 ], [ -74.13207711473116, 3.826849450452331 ], [ -73.571773258165521, 3.189439558579409 ], [ -72.94464417100022, 2.737084151443784 ], [ -71.926844504945066, 2.305290353723416 ], [ -71.268873003656878, 2.202482306647137 ], [ -70.652024721199211, 2.202482306647137 ], [ -70.230511728186471, 2.28472874430816 ], [ -68.924849530317715, 2.798768979689553 ], [ -67.855645840724421, 3.353932433901456 ], [ -66.950935026453166, 3.700909592783888 ], [ -66.426613986364146, 3.847411059867592 ], [ -65.593868805046299, 3.95021910694387 ], [ -65.051556356718919, 3.888534278698096 ], [ -64.853650866097084, 3.816568645744709 ], [ -63.969501661241097, 3.497863699808246 ], [ -62.232045665651981, 2.665118518490394 ], [ -59.651563684037399, 0.855696889947897 ], [ -58.047758149647457, -0.141541166692003 ], [ -57.029958483592303, -0.542492550289487 ], [ -56.351425372888869, -0.635019792658137 ], [ -55.436433753909988, -0.563054159704743 ], [ -54.583126963176881, -0.398561284382697 ], [ -53.112971889986099, 0.259410216905484 ], [ -51.324111870858857, 1.009908960562315 ], [ -49.974075893745059, 1.736483465986069 ] ] ] ] } },
{ "type": "Feature", "properties": { "id": null, "Zone": "области высотной поясности" }, "geometry": { "type": "MultiPolygon", "coordinates": [ [ [ [ -62.936280788124485, 7.03703072040911 ], [ -62.514767795111744, 7.242646814561667 ], [ -62.293730493897762, 7.2914806369229 ], [ -62.075263393860666, 7.278629631038366 ], [ -61.818243276169973, 7.178391785138994 ], [ -61.568933762009983, 7.016469110993855 ], [ -60.962366284259943, 6.56411370385823 ], [ -60.510010877124294, 6.104047693191889 ], [ -60.109059493526807, 5.69795590724059 ], [ -59.810916157005622, 5.104239435375079 ], [ -59.769792938175115, 4.641603223531827 ], [ -59.944566618204789, 4.261213449349597 ], [ -60.170744321772595, 3.96307011282839 ], [ -60.623099728908223, 3.860262065752112 ], [ -60.869839041891289, 3.952789308120763 ], [ -61.096016745459103, 4.199528621103831 ], [ -61.26050962078115, 4.693007247069966 ], [ -61.486687324348964, 4.857500122392011 ], [ -61.66146100437863, 4.867780927099639 ], [ -62.113816411514257, 4.816376903561499 ], [ -62.576452623357511, 4.806096098853872 ], [ -63.008246421077878, 4.991150583591173 ], [ -63.244704929353318, 5.28929392011238 ], [ -63.409197804675365, 5.844457374324282 ], [ -63.429759414090618, 6.255689562629396 ], [ -63.213862515230431, 6.718325774472648 ], [ -62.936280788124485, 7.03703072040911 ] ] ] ] } },
{ "type": "Feature", "properties": { "id": null, "Zone": "переменно-влажных (в том числе муссонных) лесов" }, "geometry": { "type": "MultiPolygon", "coordinates": [ [ [ [ -74.13207711473116, 3.826849450452331 ], [ -73.664300500534097, 3.862832266929028 ], [ -73.001188596892092, 3.939938302236237 ], [ -70.505523254115445, 4.127562988150441 ], [ -69.960640604611172, 4.122422585796627 ], [ -69.528846806890797, 4.148124597565697 ], [ -69.292388298615364, 4.214949828165278 ], [ -69.071350997401368, 4.364021496425881 ], [ -68.947981340909834, 4.523373969394112 ], [ -68.72180363734202, 4.939746560053039 ], [ -68.469923922005137, 5.875299788447172 ], [ -68.32599265609835, 6.307093586167541 ], [ -68.06897253840765, 6.718325774472655 ], [ -67.750267592471189, 6.934222673332839 ], [ -67.143700114721142, 6.923941868625212 ], [ -66.598817465216868, 6.965065087455723 ], [ -66.033373206297341, 7.139838767485395 ], [ -65.611860213284601, 7.458543713421858 ], [ -65.323997681471027, 7.746406245235438 ], [ -64.815097848443415, 7.972583948803247 ], [ -63.951510253002688, 8.229604066493943 ], [ -63.02109742696237, 8.553449414784218 ], [ -62.57902282453437, 8.733363497167705 ], [ -61.869647299708042, 8.795048325413466 ], [ -61.165412177235538, 8.702521083044816 ], [ -60.671252407459733, 8.580174261911878 ], [ -60.15009558779618, 8.602756862823426 ], [ -59.758284878159195, 8.367034816924047 ], [ -59.101684129458661, 7.999201971870492 ], [ -58.482962205628063, 7.347691351750697 ], [ -58.454876064677421, 6.832787380394464 ], [ -58.078103196837375, 6.809093736188643 ], [ -57.542218593970645, 6.321268215353356 ], [ -57.147436489476888, 5.973149929219161 ], [ -55.9493184067898, 5.772877915872002 ], [ -55.841779751190415, 5.95312531170606 ], [ -55.033250291551774, 6.025291449401664 ], [ -53.958044603070903, 5.756548163267765 ], [ -53.618452928264844, 5.646529038918374 ], [ -52.882141282754091, 5.409850979021584 ], [ -51.823342861525902, 4.565768133966131 ], [ -51.657797410678889, 4.156232408053029 ], [ -51.317146369010857, 4.203490505383954 ], [ -51.069771287629656, 3.650397650564031 ], [ -50.508875291533656, 1.901563828942457 ], [ -49.974075893745059, 1.736483465986069 ], [ -51.324111870858857, 1.009908960562315 ], [ -53.112971889986099, 0.259410216905484 ], [ -54.583126963176881, -0.398561284382697 ], [ -55.436433753909988, -0.563054159704743 ], [ -56.351425372888869, -0.635019792658137 ], [ -57.029958483592303, -0.542492550289487 ], [ -58.047758149647457, -0.141541166692003 ], [ -59.651563684037399, 0.855696889947897 ], [ -62.232045665651981, 2.665118518490394 ], [ -63.969501661241097, 3.497863699808246 ], [ -64.377652312296988, 3.644987771700486 ], [ -64.853650866097084, 3.816568645744709 ], [ -65.051556356718919, 3.888534278698096 ], [ -65.593868805046299, 3.95021910694387 ], [ -65.051556356718919, 3.888534278698096 ], [ -65.593868805046299, 3.95021910694387 ], [ -66.426613986364146, 3.847411059867592 ], [ -66.950935026453166, 3.700909592783888 ], [ -67.344763257048797, 3.549867515708866 ], [ -67.855645840724421, 3.353932433901456 ], [ -68.924849530317715, 2.798768979689553 ], [ -70.230511728186471, 2.28472874430816 ], [ -70.652024721199211, 2.202482306647137 ], [ -71.268873003656878, 2.202482306647137 ], [ -71.926844504945066, 2.305290353723416 ], [ -72.94464417100022, 2.737084151443784 ], [ -73.571773258165521, 3.189439558579409 ], [ -74.13207711473116, 3.826849450452331 ] ], [ [ -62.293730493897762, 7.2914806369229 ], [ -62.514767795111744, 7.242646814561667 ], [ -62.936280788124485, 7.03703072040911 ], [ -63.213862515230431, 6.718325774472648 ], [ -63.429759414090618, 6.255689562629396 ], [ -63.409197804675365, 5.844457374324282 ], [ -63.244704929353318, 5.28929392011238 ], [ -63.008246421077878, 4.991150583591173 ], [ -62.576452623357511, 4.806096098853872 ], [ -62.113816411514257, 4.816376903561499 ], [ -61.66146100437863, 4.867780927099639 ], [ -61.486687324348964, 4.857500122392011 ], [ -61.26050962078115, 4.693007247069966 ], [ -61.184098787628784, 4.46377474761287 ], [ -61.096016745459103, 4.199528621103831 ], [ -60.869839041891289, 3.952789308120763 ], [ -60.623099728908223, 3.860262065752112 ], [ -60.170744321772595, 3.96307011282839 ], [ -59.944566618204789, 4.261213449349597 ], [ -59.852721502841369, 4.461111641611161 ], [ -59.769792938175115, 4.641603223531827 ], [ -59.810916157005622, 5.104239435375079 ], [ -60.109059493526807, 5.69795590724059 ], [ -60.510010877124294, 6.104047693191889 ], [ -60.962366284259943, 6.56411370385823 ], [ -61.144505070289796, 6.699946018863545 ], [ -61.568933762009983, 7.016469110993855 ], [ -61.818243276169973, 7.178391785138994 ], [ -62.075263393860666, 7.278629631038366 ], [ -62.293730493897762, 7.2914806369229 ] ] ] ] } },
{ "type": "Feature", "properties": { "id": null, "Zone": "саванн и редколесий" }, "geometry": { "type": "MultiPolygon", "coordinates": [ [ [ [ -66.227864142507997, 10.648626817258688 ], [ -65.655237596281751, 10.200798855017323 ], [ -64.89045223657817, 10.077214667191299 ], [ -64.329478725833738, 10.38959870039568 ], [ -64.318006557864948, 10.64141795495398 ], [ -63.079322475828732, 10.7017243514386 ], [ -61.880946010980196, 10.715625311725104 ], [ -62.730118984616411, 10.420268662960906 ], [ -62.388511928950976, 9.94820445397464 ], [ -61.58876746280194, 9.873066921422264 ], [ -60.830596686431718, 9.381339829948942 ], [ -60.671252407459733, 8.580174261911878 ], [ -61.165412177235538, 8.702521083044816 ], [ -61.869647299708042, 8.795048325413466 ], [ -62.57902282453437, 8.733363497167705 ], [ -63.02109742696237, 8.553449414784218 ], [ -63.951510253002688, 8.229604066493943 ], [ -64.815097848443415, 7.972583948803247 ], [ -65.323997681471027, 7.746406245235438 ], [ -65.611860213284601, 7.458543713421858 ], [ -66.033373206297341, 7.139838767485395 ], [ -66.598817465216868, 6.965065087455723 ], [ -67.143700114721142, 6.923941868625212 ], [ -67.750267592471189, 6.934222673332839 ], [ -68.06897253840765, 6.718325774472655 ], [ -68.32599265609835, 6.307093586167541 ], [ -68.374554735578457, 6.161407347727217 ], [ -68.469923922005137, 5.875299788447172 ], [ -68.72180363734202, 4.939746560053039 ], [ -68.947981340909834, 4.523373969394112 ], [ -69.071350997401368, 4.364021496425881 ], [ -69.292388298615364, 4.214949828165278 ], [ -69.528846806890797, 4.148124597565697 ], [ -69.960640604611172, 4.122422585796627 ], [ -70.505523254115445, 4.127562988150441 ], [ -73.001188596892092, 3.939938302236237 ], [ -73.664300500534097, 3.862832266929028 ], [ -74.13207711473116, 3.826849450452331 ], [ -74.363395220652862, 4.042746349312518 ], [ -74.548449705390212, 4.176396810511691 ], [ -74.301710392407145, 4.752121874138849 ], [ -73.45868440638165, 5.389531766011775 ], [ -73.047452218076543, 5.903572001393166 ], [ -72.780151295678223, 6.479297065020324 ], [ -72.198352423781884, 7.340430813013683 ], [ -70.888483229474687, 8.473773178300123 ], [ -69.675348273974606, 9.131744679588303 ], [ -68.544459756135538, 9.357922383156115 ], [ -67.434132847711737, 9.460730430232394 ], [ -66.71447651817779, 9.707469743215462 ], [ -66.364929158118443, 10.221509978596853 ], [ -66.227864142507997, 10.648626817258688 ] ] ] ] } },
{ "type": "Feature", "properties": { "id": null, "Zone": "саванн и редколесий" }, "geometry": { "type": "MultiPolygon", "coordinates": [ [ [ [ -68.194126552997631, 10.554653225135922 ], [ -69.346362523330512, 10.098140322105319 ], [ -70.867921620059434, 9.234552726664582 ], [ -71.628701168423888, 8.679389272452678 ], [ -72.439862230097958, 8.405275376820029 ], [ -72.780151295678209, 8.442930764177241 ], [ -72.944644171000263, 8.638266053622168 ], [ -72.965205780415516, 8.956970999558632 ], [ -72.933177504617731, 9.103767263631809 ], [ -72.841836123923983, 9.522415258478162 ], [ -72.687624053309577, 10.139263540935826 ], [ -72.69790485801721, 10.375722049211266 ], [ -72.818912145172504, 10.560792017801711 ], [ -72.872678538046884, 10.643022971609589 ], [ -73.335314749890131, 10.797235042224006 ], [ -73.849354985271532, 10.78695423751638 ], [ -74.126936712377471, 10.673865385732473 ], [ -74.250306368869005, 10.488810900995173 ], [ -74.260587173576639, 10.231790783304477 ], [ -74.168059931207992, 9.841120204414619 ], [ -73.962443837055432, 9.471011234940018 ], [ -73.767108547610505, 9.028936632512021 ], [ -73.654019695826591, 8.391526740639096 ], [ -73.808231766441025, 6.664351549757622 ], [ -74.116655907669852, 5.841887173147397 ], [ -74.548449705390226, 5.45121659425754 ], [ -74.9802435031106, 5.30728532835075 ], [ -75.206421206678414, 5.471778203672795 ], [ -75.288667644339426, 5.883010391977908 ], [ -75.165297987847893, 6.582105112096601 ], [ -74.815750627788546, 7.281199832215291 ], [ -74.610134533636, 7.836363286427194 ], [ -74.569011314805479, 8.268157084147564 ], [ -74.671819361881759, 8.679389272452676 ], [ -74.897997065449573, 8.720512491283188 ], [ -75.288667644339426, 8.597142834791654 ], [ -75.67933822322928, 8.268157084147564 ], [ -76.172816849195428, 8.124225818240774 ], [ -76.357871333932721, 8.165349037071284 ], [ -76.542925818670028, 8.309280302978074 ], [ -76.836673957003569, 8.638749497914716 ], [ -76.086383836557857, 9.336820583529487 ], [ -75.674600185840063, 9.443248195834599 ], [ -75.664704149056178, 9.774003200718738 ], [ -75.480425991503353, 10.618990383339309 ], [ -74.906895107711989, 11.083044745320322 ], [ -74.276752692344886, 11.102035834187587 ], [ -74.197222663047697, 11.310472723836867 ], [ -73.414763963500292, 11.22701528568548 ], [ -72.627835252559635, 11.731971543825523 ], [ -72.238194953078917, 11.955549628136326 ], [ -71.754090135368642, 12.437303168177309 ], [ -71.399822353791706, 12.376040757695293 ], [ -71.13746110704588, 12.112981879113505 ], [ -71.331583624950298, 11.776284084515808 ], [ -71.360005662710819, 11.539993597861212 ], [ -71.947049933546509, 11.423282375530022 ], [ -71.620868292920193, 10.969459947142795 ], [ -71.633063930941091, 10.446494452349029 ], [ -72.074173956984509, 9.865651353388373 ], [ -71.695644090446535, 9.072263088411248 ], [ -71.264559292267734, 9.137194525585983 ], [ -71.03999935574339, 9.859992784052409 ], [ -71.350083787710787, 10.211935126176215 ], [ -71.400623338492238, 10.968969021036015 ], [ -70.155298834906517, 11.375481675660041 ], [ -70.29384334988103, 11.846822414594214 ], [ -69.943244594996827, 12.162307033736099 ], [ -69.584300096297468, 11.459610907431212 ], [ -68.882999233664449, 11.443384507691563 ], [ -68.23327145045873, 10.885744126829946 ], [ -68.194126552997631, 10.554653225135922 ] ] ] ] } },
{ "type": "Feature", "properties": { "id": null, "Zone": "области высотной поясности" }, "geometry": { "type": "MultiPolygon", "coordinates": [ [ [ [ -70.26748, -52.93123 ], [ -69.243554476254289, -53.95127300641618 ], [ -68.739795045580522, -54.18773151469162 ], [ -68.633548594322235, -54.197781854675512 ], [ -67.979015497216068, -54.259697147645014 ], [ -67.208997580042222, -54.099693424595898 ], [ -66.45, -54.45 ], [ -65.05, -54.7 ], [ -65.5, -55.2 ], [ -66.45, -55.25 ], [ -66.95992, -54.89681 ], [ -67.29103, -55.30124 ], [ -68.14863, -55.61183 ], [ -68.639990810811867, -55.58001799908692 ], [ -69.2321, -55.49906 ], [ -69.95809, -55.19843 ], [ -71.00568, -55.05383 ], [ -72.2639, -54.49514 ], [ -73.2852, -53.95752 ], [ -74.66253, -52.83749 ], [ -73.8381, -53.04743 ], [ -72.43418, -53.7154 ], [ -71.10773, -54.07433 ], [ -70.591779999999858, -53.61583 ], [ -70.26748, -52.93123 ] ] ] ] } },
{ "type": "Feature", "properties": { "id": null, "Zone": "области высотной поясности" }, "geometry": { "type": "MultiPolygon", "coordinates": [ [ [ [ -60.0, -51.25 ], [ -59.15, -51.5 ], [ -58.55, -51.1 ], [ -57.75, -51.55 ], [ -58.05, -51.9 ], [ -59.4, -52.2 ], [ -59.85, -51.85 ], [ -60.7, -52.3 ], [ -61.2, -51.85 ], [ -60.0, -51.25 ] ] ] ] } },
{ "type": "Feature", "properties": { "id": null, "Zone": "саванн и редколесий" }, "geometry": { "type": "MultiPolygon", "coordinates": [ [ [ [ -61.68, 10.76 ], [ -61.105, 10.89 ], [ -60.895, 10.855 ], [ -60.935, 10.11 ], [ -61.77, 10.0 ], [ -61.95, 10.09 ], [ -61.66, 10.365 ], [ -61.68, 10.76 ] ] ] ] } }
]
}
